[{"latitude":"-7.0545","longitude":"108.7086"},
{"latitude":"63.1833","longitude":"14.5333","pincode":"832 47"},
{"latitude":"37.6889","longitude":"-8.1111","pincode":"7780-256"},
{"latitude":"15.14963","longitude":"-92.04892","pincode":"12008"},
{"latitude":"8.89389","longitude":"125.03083","pincode":"9013"},
{"latitude":"43.5167","longitude":"4.9833","pincode":"13807 CEDEX"},
{"latitude":"41.69111","longitude":"60.7525"},
{"latitude":"53.90806","longitude":"-6.80556","pincode":"F45"},
{"latitude":"43.51417","longitude":"16.51472","pincode":"21000"},
{"latitude":"64.66667","longitude":"28.53333","pincode":"89401"},
{"latitude":"58.74667","longitude":"26.39389"},
{"latitude":"48.23333","longitude":"91.91667"},
{"latitude":"50.1139","longitude":"8.9107","pincode":"63456"},
{"latitude":"31.9175","longitude":"121.77885"},
{"latitude":"32.00104","longitude":"119.73409"},
{"latitude":"29.29059","longitude":"90.08237"},
{"latitude":"26.232","longitude":"-105.625","pincode":"35364"},
{"latitude":"57.4833","longitude":"-4.2328","pincode":"IV1"},
{"latitude":"15.85053","longitude":"100.07914","pincode":"60230"},
{"latitude":"13.9","longitude":"99.76667","pincode":"71120"},
{"latitude":"-9.62732","longitude":"-74.97658"},
{"latitude":"-16.09992","longitude":"167.41636"},
{"latitude":"45.11678","longitude":"-72.98244","pincode":"J6W"},
{"latitude":"-19.4","longitude":"46.95"},
{"latitude":"-32.43293","longitude":"-63.24763","pincode":"5903"},
{"latitude":"32.18529","longitude":"34.82082"},
{"latitude":"-8.8601","longitude":"116.8293"},
{"latitude":"4.79118","longitude":"-71.33542","pincode":"853059"},
{"latitude":"39.5694","longitude":"2.6502","pincode":"07121"},
{"latitude":"40.4333","longitude":"-8.4333","pincode":"3780-204"},
{"latitude":"28.43913","longitude":"120.53062"},
{"latitude":"55.6759","longitude":"12.5655","pincode":"1211"},
{"latitude":"56.21566","longitude":"43.28802","pincode":"606093"},
{"latitude":"56.86014","longitude":"24.36544"},
{"latitude":"6.96583","longitude":"125.72611","pincode":"8120"},
{"latitude":"53.57294","longitude":"18.01123","pincode":"89-511"},
{"latitude":"28.38333","longitude":"109.25972"},
{"latitude":"43.33333","longitude":"27.6","pincode":"9170"},
{"latitude":"22.68768","longitude":"91.78123","pincode":"4355"},
{"latitude":"-0.27393","longitude":"116.99835"},
{"latitude":"39.0373","longitude":"-9.1983","pincode":"2710-200"},
{"latitude":"25.31139","longitude":"118.16333"},
{"latitude":"30.15035","longitude":"115.27796"},
{"latitude":"59.5671","longitude":"17.5278","pincode":"746 40"},
{"latitude":"50.48034","longitude":"15.60822","pincode":"507 82"},
{"latitude":"4.4591","longitude":"8.9027"},
{"latitude":"44.54611","longitude":"15.37472","pincode":"53000"},
{"latitude":"-6.799","longitude":"111.731"},
{"latitude":"55.38752","longitude":"36.73307","pincode":"143316"},
{"latitude":"45.57056","longitude":"17.08667","pincode":"43506"},
{"latitude":"-1.536","longitude":"102.7211"},
{"latitude":"-7.1173","longitude":"108.1831"},
{"latitude":"32.51667","longitude":"120.38333"},
{"latitude":"55.6325","longitude":"13.0714","pincode":"232 91"},
{"latitude":"32.24634","longitude":"-8.52941"},
{"latitude":"0.23983","longitude":"33.88491"},
{"latitude":"-15.75694","longitude":"-49.33444","pincode":"76330-000"},
{"latitude":"47.32946","longitude":"142.79291","pincode":"102745"},
{"latitude":"28.53746","longitude":"114.34881"},
{"latitude":"20.3632","longitude":"-101.1196","pincode":"37360"},
{"latitude":"27.131","longitude":"61.67445"},
{"latitude":"31.53436","longitude":"114.36356"},
{"latitude":"40.96778","longitude":"19.82111"},
{"latitude":"36.2","longitude":"139.28333","pincode":"370-0418"},
{"latitude":"-7.0023","longitude":"111.714"},
{"latitude":"27.11716","longitude":"114.97927"},
{"latitude":"-23.02972","longitude":"-46.97528","pincode":"13280-000"},
{"latitude":"36.6825","longitude":"69.11556"},
{"latitude":"0.14164","longitude":"29.29117"},
{"latitude":"10.71667","longitude":"6.56667"},
{"latitude":"43.1154","longitude":"-88.0346","pincode":"53225"},
{"latitude":"-10.74806","longitude":"-62.21583","pincode":"78950-000"},
{"latitude":"7.87917","longitude":"-10.78778"},
{"latitude":"-9.9152","longitude":"124.6472"},
{"latitude":"49.7875","longitude":"6.06944","pincode":"L-7794"},
{"latitude":"28.858","longitude":"115.65193"},
{"latitude":"40.02434","longitude":"44.59038"},
{"latitude":"16.85","longitude":"120.8","pincode":"2608"},
{"latitude":"-9.4025","longitude":"-77.57583"},
{"latitude":"10.7","longitude":"-61.53333"},
{"latitude":"56.56667","longitude":"37.53333","pincode":"607572"},
{"latitude":"52.0333","longitude":"5.6583","pincode":"6714"},
{"latitude":"50.85256","longitude":"19.96593","pincode":"29-100"},
{"latitude":"15.24467","longitude":"105.22908","pincode":"34110"},
{"latitude":"11.84864","longitude":"3.65761"},
{"latitude":"26.62463","longitude":"116.05811"},
{"latitude":"20.6667","longitude":"-97.3545","pincode":"93270"},
{"latitude":"29.98521","longitude":"102.999"},
{"latitude":"-1.5083","longitude":"134.1708"},
{"latitude":"35.81151","longitude":"36.19649"},
{"latitude":"-17.55","longitude":"-63.21667"},
{"latitude":"10.47089","longitude":"-84.64535","pincode":"50402"},
{"latitude":"49.4431","longitude":"1.0993","pincode":"76418 CEDEX 9"},
{"latitude":"53.11087","longitude":"19.05381","pincode":"87-401"},
{"latitude":"18.47116","longitude":"-77.91883"},
{"latitude":"44.98568","longitude":"15.82304"},
{"latitude":"52.65417","longitude":"-7.25222","pincode":"R95"},
{"latitude":"41.24358","longitude":"44.81737"},
{"latitude":"-6.7437","longitude":"111.2319"},
{"latitude":"-25.41667","longitude":"25.55"},
{"latitude":"49.14187","longitude":"15.673","pincode":"675 26"},
{"latitude":"54.93583","longitude":"43.32352","pincode":"607189"},
{"latitude":"19.48403","longitude":"-71.5473","pincode":"10505"},
{"latitude":"-7.4778","longitude":"108.6147"},
{"latitude":"17.20406","longitude":"102.44068","pincode":"96130"},
{"latitude":"41.3028","longitude":"-8.3917","pincode":"4560-832"},
{"latitude":"43.15423","longitude":"19.12325"},
{"latitude":"-3.7987","longitude":"114.7788"},
{"latitude":"-12.06667","longitude":"-75.21667"},
{"latitude":"14.75763","longitude":"100.08992","pincode":"72130"},
{"latitude":"31.62525","longitude":"71.06574","pincode":"30001"},
{"latitude":"27.334","longitude":"53.179"},
{"latitude":"9.21667","longitude":"11.28333"},
{"latitude":"16.28035","longitude":"107.85898"},
{"latitude":"48.6333","longitude":"4.95","pincode":"52109 CEDEX"},
{"latitude":"24.45425","longitude":"113.01273"},
{"latitude":"19.11683","longitude":"-70.63595","pincode":"10801"},
{"latitude":"-6.82349","longitude":"39.26951"},
{"latitude":"14.02885","longitude":"-84.59103"},
{"latitude":"59.1405","longitude":"9.6561","pincode":"3912"},
{"latitude":"-35.59559","longitude":"-64.55778","pincode":"6387"},
{"latitude":"-15.38596","longitude":"35.3188"},
{"latitude":"59.1312","longitude":"10.2166","pincode":"3205"},
{"latitude":"41.4333","longitude":"-8.7833","pincode":"4600-757"},
{"latitude":"14.00308","longitude":"102.80541","pincode":"27180"},
{"latitude":"45.13747","longitude":"17.98722"},
{"latitude":"49.4008","longitude":"1.0458","pincode":"76124 CEDEX"},
{"latitude":"-28.76659","longitude":"28.24936"},
{"latitude":"35.93859","longitude":"102.02968"},
{"latitude":"-8.3468","longitude":"117.8216"},
{"latitude":"44.6333","longitude":"41.9444","pincode":"357128"},
{"latitude":"33.60496","longitude":"59.9934"},
{"latitude":"-9.71828","longitude":"-65.39544"},
{"latitude":"40.7333","longitude":"-7.8333","pincode":"3505-559"},
{"latitude":"49.01018","longitude":"17.12253","pincode":"592 14"},
{"latitude":"58.5942","longitude":"16.1826","pincode":"602 24"},
{"latitude":"19.93264","longitude":"-72.72167"},
{"latitude":"29.0184","longitude":"105.84877"},
{"latitude":"7.30082","longitude":"18.2833"},
{"latitude":"30.28838","longitude":"106.47032"},
{"latitude":"51.40253","longitude":"21.14714","pincode":"26-640"},
{"latitude":"-2.42355","longitude":"-79.33977"},
{"latitude":"32.3386","longitude":"-90.1708","pincode":"39216"},
{"latitude":"41.18124","longitude":"112.3761"},
{"latitude":"48.88257","longitude":"17.5206","pincode":"696 74"},
{"latitude":"-9.6239","longitude":"124.0019"},
{"latitude":"40.99804","longitude":"123.27531"},
{"latitude":"39.46778","longitude":"117.25028"},
{"latitude":"43.3183","longitude":"1.9545","pincode":"11493 CEDEX"},
{"latitude":"-8.2983","longitude":"114.2275"},
{"latitude":"40.49257","longitude":"49.87478"},
{"latitude":"-7.4219","longitude":"108.61"},
{"latitude":"-19.8","longitude":"32.86667"},
{"latitude":"37.87136","longitude":"68.92233"},
{"latitude":"37.9041","longitude":"55.95596"},
{"latitude":"6.60519","longitude":"-73.06809","pincode":"684039"},
{"latitude":"-7.3559","longitude":"107.8034"},
{"latitude":"55.88333","longitude":"37.58333","pincode":"617724"},
{"latitude":"33.70439","longitude":"8.96903"},
{"latitude":"38.6833","longitude":"-9.15","pincode":"2815-625"},
{"latitude":"-0.95759","longitude":"-78.69636"},
{"latitude":"50.79304","longitude":"75.70123"},
{"latitude":"14.28333","longitude":"-88.25"},
{"latitude":"-17.74167","longitude":"-48.625","pincode":"75690-000"},
{"latitude":"28.2166","longitude":"88.4743"},
{"latitude":"8.35","longitude":"-80.6"},
{"latitude":"55.40776","longitude":"38.66261","pincode":"140225"},
{"latitude":"46.6557","longitude":"29.96722"},
{"latitude":"-14.93333","longitude":"-70.88278"},
{"latitude":"39.31472","longitude":"117.05333"},
{"latitude":"-38.82955","longitude":"-68.1318","pincode":"8309"},
{"latitude":"7.1663","longitude":"79.9533","pincode":"11550"},
{"latitude":"29.16692","longitude":"111.49749"},
{"latitude":"53.6082","longitude":"9.9694","pincode":"22453"},
{"latitude":"24.40583","longitude":"109.60861"},
{"latitude":"-10.70727","longitude":"22.22466"},
{"latitude":"56.09512","longitude":"27.53723"},
{"latitude":"31.95754","longitude":"121.16571"},
{"latitude":"-7.375","longitude":"-35.62833","pincode":"58378-000"},
{"latitude":"11.2613","longitude":"122.5364","pincode":"5814"},
{"latitude":"23.04279","longitude":"112.45023"},
{"latitude":"-16.58194","longitude":"-50.305","pincode":"76105-000"},
{"latitude":"54.86964","longitude":"31.38609","pincode":"216740"},
{"latitude":"40.9983","longitude":"71.67257"},
{"latitude":"11.2353","longitude":"123.6979","pincode":"6052"},
{"latitude":"-8.2824","longitude":"125.0434"},
{"latitude":"-22.19306","longitude":"-48.77889","pincode":"17270-000"},
{"latitude":"38.4435","longitude":"70.80413"},
{"latitude":"14.3","longitude":"122.58333","pincode":"5048"},
{"latitude":"14.31667","longitude":"-88.16667"},
{"latitude":"41.8097","longitude":"-87.6533","pincode":"60609"},
{"latitude":"0.97491","longitude":"-77.52741","pincode":"523068"},
{"latitude":"22.2","longitude":"114.13333"},
{"latitude":"41.5878","longitude":"-87.4062","pincode":"46406"},
{"latitude":"-6.8873","longitude":"112.9872"},
{"latitude":"-4.97139","longitude":"-39.01528","pincode":"63900-000"},
{"latitude":"33.51168","longitude":"36.37273"},
{"latitude":"9.6605","longitude":"124.3532","pincode":"6309"},
{"latitude":"55.8035","longitude":"42.7709","pincode":"606168"},
{"latitude":"46.86436","longitude":"87.71608"},
{"latitude":"40.2674","longitude":"-8.4","pincode":"3020-895"},
{"latitude":"11.56245","longitude":"104.91601"},
{"latitude":"48.11312","longitude":"123.24638"},
{"latitude":"7.9868","longitude":"117.0645","pincode":"5307"},
{"latitude":"15.34466","longitude":"104.15476","pincode":"33160"},
{"latitude":"38.6833","longitude":"-9.15","pincode":"2800-011"},
{"latitude":"-8.7409","longitude":"120.7706"},
{"latitude":"41.26","longitude":"-8.52","pincode":"4625-177"},
{"latitude":"4.62079","longitude":"96.75686"},
{"latitude":"32.63941","longitude":"103.59683"},
{"latitude":"2.81972","longitude":"-60.67333","pincode":"69300-000"},
{"latitude":"-9.5281","longitude":"124.4252"},
{"latitude":"53.36871","longitude":"62.86942"},
{"latitude":"41.3333","longitude":"-8.6","pincode":"4785-512"},
{"latitude":"46.73351","longitude":"30.78472"},
{"latitude":"36.335","longitude":"43.11889"},
{"latitude":"-8.6636","longitude":"116.4877"},
{"latitude":"52.59972","longitude":"-8.97556","pincode":"P51"},
{"latitude":"50.15472","longitude":"107.40139","pincode":"671836"},
{"latitude":"17.59667","longitude":"120.35917","pincode":"2701"},
{"latitude":"14.94594","longitude":"120.74852","pincode":"6419"},
{"latitude":"29.06226","longitude":"106.1189"},
{"latitude":"-6.9215","longitude":"111.8216"},
{"latitude":"7.07667","longitude":"124.73056","pincode":"9610"},
{"latitude":"39.5167","longitude":"-8.5167","pincode":"2350-665"},
{"latitude":"6.51667","longitude":"14.3"},
{"latitude":"31.84876","longitude":"35.03583"},
{"latitude":"36.16667","longitude":"139.53333","pincode":"374-0055"},
{"latitude":"59.9572","longitude":"10.673","pincode":"0712"},
{"latitude":"-7.5661","longitude":"107.8973"},
{"latitude":"51.41626","longitude":"16.4251","pincode":"59-330"},
{"latitude":"38.41667","longitude":"141.3","pincode":"986-2344"},
{"latitude":"18.46667","longitude":"-69.93333","pincode":"10109"},
{"latitude":"-7.3545","longitude":"108.1102"},
{"latitude":"-6.5935","longitude":"105.8584"},
{"latitude":"62.5","longitude":"25.45","pincode":"41231"},
{"latitude":"28.07973","longitude":"120.01901"},
{"latitude":"41.1167","longitude":"-7.8833","pincode":"3510-868"},
{"latitude":"43.25654","longitude":"76.92848"},
{"latitude":"-17.4","longitude":"-63.75"},
{"latitude":"48.67472","longitude":"22.38813"},
{"latitude":"45.31678","longitude":"-73.74919","pincode":"J6R"},
{"latitude":"13.36179","longitude":"103.86056"},
{"latitude":"-0.52731","longitude":"34.45714"},
{"latitude":"32.03951","longitude":"118.4351"},
{"latitude":"53.8864","longitude":"26.7432"},
{"latitude":"31.3471","longitude":"114.05352"},
{"latitude":"5.50803","longitude":"10.6325"},
{"latitude":"40.275","longitude":"-7.9417","pincode":"3305-096"},
{"latitude":"14.85155","longitude":"120.42693","pincode":"8423"},
{"latitude":"19.965","longitude":"-96.855","pincode":"93828"},
{"latitude":"46.084","longitude":"32.52955"},
{"latitude":"-11.23444","longitude":"-76.65556"},
{"latitude":"14.66","longitude":"120.56528","pincode":"8420"},
{"latitude":"33.9845","longitude":"-84.1529","pincode":"30096"},
{"latitude":"58.6667","longitude":"16.1833","pincode":"616 32"},
{"latitude":"40.7583","longitude":"-8.0333","pincode":"3660-410"},
{"latitude":"41.18722","longitude":"71.73333"},
{"latitude":"9.17682","longitude":"105.15242"},
{"latitude":"18.81509","longitude":"-70.03557","pincode":"11902"},
{"latitude":"13.9284","longitude":"46.08254"},
{"latitude":"44.66361","longitude":"19.02028"},
{"latitude":"50.8998","longitude":"7.0416","pincode":"51149"},
{"latitude":"50.34925","longitude":"23.32679","pincode":"37-610"},
{"latitude":"32.7086","longitude":"-96.7955","pincode":"75216"},
{"latitude":"43.5443","longitude":"10.3262","pincode":"57124"},
{"latitude":"23.05053","longitude":"112.51501"},
{"latitude":"11.2161","longitude":"123.1073","pincode":"7213"},
{"latitude":"-7.5231","longitude":"108.3246"},
{"latitude":"27.58138","longitude":"85.5124"},
{"latitude":"61.75","longitude":"50.91667","pincode":"167907"},
{"latitude":"42.24889","longitude":"130.30028"},
{"latitude":"28.43089","longitude":"108.5758"},
{"latitude":"32.96261","longitude":"110.991"},
{"latitude":"45.16778","longitude":"126.95588"},
{"latitude":"18.38261","longitude":"103.65857"},
{"latitude":"53.6239","longitude":"87.3598","pincode":"652809"},
{"latitude":"59.3666","longitude":"16.5077","pincode":"635 11"},
{"latitude":"59.3326","longitude":"18.0649","pincode":"113 90"},
{"latitude":"40.8308","longitude":"-8.55","pincode":"4520-162"},
{"latitude":"-21.67472","longitude":"-45.91972","pincode":"37750-000"},
{"latitude":"32.00773","longitude":"114.90108"},
{"latitude":"46.65581","longitude":"32.6178"},
{"latitude":"-25.54778","longitude":"-54.58806","pincode":"85850-000"},
{"latitude":"42.6976","longitude":"2.8954","pincode":"66013 CEDEX 9"},
{"latitude":"9.35029","longitude":"-65.32452"},
{"latitude":"37.5785","longitude":"26.48069"},
{"latitude":"-15.64667","longitude":"-56.1325","pincode":"64525-000"},
{"latitude":"-9.56278","longitude":"119.3022"},
{"latitude":"35.22682","longitude":"105.68755"},
{"latitude":"2.2057","longitude":"102.2562","pincode":"75503"},
{"latitude":"65.56667","longitude":"28.25","pincode":"93401"},
{"latitude":"30.83945","longitude":"115.62886"},
{"latitude":"50.12139","longitude":"100.04306"},
{"latitude":"18.96961","longitude":"105.05505"},
{"latitude":"62.35472","longitude":"50.07714","pincode":"169060"},
{"latitude":"-8.73333","longitude":"-77.36667"},
{"latitude":"-3.74637","longitude":"103.96405"},
{"latitude":"48.9601","longitude":"2.8788","pincode":"77109 CEDEX"},
{"latitude":"8.5","longitude":"-80.38333"},
{"latitude":"10.38828","longitude":"-71.43992"},
{"latitude":"57.10679","longitude":"65.75755","pincode":"625516"},
{"latitude":"-22.00611","longitude":"-51.55306","pincode":"19300-000"},
{"latitude":"29.9727","longitude":"121.04541"},
{"latitude":"-6.9806","longitude":"113.8602"},
{"latitude":"15.15149","longitude":"120.67166","pincode":"6112"},
{"latitude":"11.19572","longitude":"122.03861","pincode":"5706"},
{"latitude":"49.0241","longitude":"1.1508","pincode":"27022 CEDEX"},
{"latitude":"41.85","longitude":"-7.05","pincode":"5320-305"},
{"latitude":"57.6531","longitude":"14.6968","pincode":"571 92"},
{"latitude":"-8.9738","longitude":"117.2018"},
{"latitude":"24.75636","longitude":"90.40646","pincode":"3526"},
{"latitude":"47.79425","longitude":"107.88334"},
{"latitude":"16.99885","longitude":"121.96434","pincode":"3332"},
{"latitude":"42.20194","longitude":"22.33194","pincode":"1333"},
{"latitude":"44.1525","longitude":"125.83278"},
{"latitude":"25.6348","longitude":"118.97645"},
{"latitude":"-28.51222","longitude":"-50.93389","pincode":"95200-000"},
{"latitude":"30.16667","longitude":"72.65","pincode":"68231"},
{"latitude":"14.3","longitude":"-91.91667","pincode":"11007"},
{"latitude":"-9.1725","longitude":"-78.35889"},
{"latitude":"45.52583","longitude":"13.83194","pincode":"6276"},
{"latitude":"-8.6864","longitude":"118.7631"},
{"latitude":"24.05027","longitude":"102.00018"},
{"latitude":"13.5118","longitude":"123.0426","pincode":"4417"},
{"latitude":"-6.916","longitude":"112.0637"},
{"latitude":"8.27664","longitude":"-70.76664"},
{"latitude":"-27.60985","longitude":"-48.51648","pincode":"88000-000"},
{"latitude":"48.8412","longitude":"2.3003","pincode":"75902 CEDEX 15"},
{"latitude":"43","longitude":"71.5"},
{"latitude":"31.97389","longitude":"112.45583"},
{"latitude":"28.42595","longitude":"108.99594"},
{"latitude":"54.2862","longitude":"40.3572","pincode":"601671"},
{"latitude":"-29.64833","longitude":"-51.17389","pincode":"93600-000"},
{"latitude":"29.13436","longitude":"108.28523"},
{"latitude":"49.62846","longitude":"16.34679","pincode":"569 92"},
{"latitude":"-31.6526","longitude":"-63.9099","pincode":"5972"},
{"latitude":"20.6262","longitude":"-101.158","pincode":"38900"},
{"latitude":"41.90833","longitude":"20.34694"},
{"latitude":"48.54653","longitude":"25.74533"},
{"latitude":"47.52758","longitude":"126.93364"},
{"latitude":"47.6076","longitude":"17.7819","pincode":"9009"},
{"latitude":"36.45556","longitude":"127.12472"},
{"latitude":"46.72049","longitude":"126.17402"},
{"latitude":"41.5","longitude":"-8.2278","pincode":"4830-184"},
{"latitude":"36.13497","longitude":"139.39004","pincode":"360-0016"},
{"latitude":"33.89968","longitude":"70.10012","pincode":"29051"},
{"latitude":"53.86668","longitude":"50.28319","pincode":"446870"},
{"latitude":"5.02666","longitude":"21.20876"},
{"latitude":"-26.92998","longitude":"-55.06084","pincode":"3334"},
{"latitude":"47.2488","longitude":"6.0182","pincode":"25014 CEDEX"},
{"latitude":"26.92","longitude":"119.63333"},
{"latitude":"40.7","longitude":"43.75"},
{"latitude":"37.79413","longitude":"120.87196"},
{"latitude":"13.02928","longitude":"123.44496","pincode":"5046"},
{"latitude":"18.0383","longitude":"-66.6263","pincode":"00731"},
{"latitude":"59.83889","longitude":"30.17528","pincode":"102471"},
{"latitude":"38.189","longitude":"-85.6768","pincode":"40287"},
{"latitude":"11.73292","longitude":"41.082"},
{"latitude":"57.25363","longitude":"41.10849","pincode":"155526"},
{"latitude":"-2.2591","longitude":"115.3166"},
{"latitude":"43.2333","longitude":"0.0833","pincode":"65951 CEDEX 9"},
{"latitude":"8.23773","longitude":"-73.35604","pincode":"546559"},
{"latitude":"39.99222","longitude":"19.91389"},
{"latitude":"14.60611","longitude":"-90.68","pincode":"03009"},
{"latitude":"34.1478","longitude":"-118.1436","pincode":"91199"},
{"latitude":"10.25444","longitude":"-75.34389","pincode":"131029"},
{"latitude":"32.69732","longitude":"128.84561","pincode":"853-0704"},
{"latitude":"58.93944","longitude":"23.58944"},
{"latitude":"29.91549","longitude":"116.72241"},
{"latitude":"35.0018","longitude":"-85.3138","pincode":"37410"},
{"latitude":"13.25","longitude":"-59.65"},
{"latitude":"54.71857","longitude":"135.3163","pincode":"682560"},
{"latitude":"59.2741","longitude":"15.2066","pincode":"700 15"},
{"latitude":"47.29786","longitude":"127.3011"},
{"latitude":"51.60794","longitude":"20.05391","pincode":"97-217"},
{"latitude":"43.99291","longitude":"89.16995"},
{"pincode":"9625-414"},
{"latitude":"39.166","longitude":"20.75608"},
{"latitude":"59.9199","longitude":"16.6066","pincode":"733 24"},
{"latitude":"32.51667","longitude":"120.38333"},
{"latitude":"40.6167","longitude":"-8.3667","pincode":"3700-732"},
{"latitude":"53.84463","longitude":"18.96077","pincode":"82-420"},
{"latitude":"59.42127","longitude":"27.50807"},
{"latitude":"23.99916","longitude":"115.69689"},
{"latitude":"56.85329","longitude":"26.21698"},
{"latitude":"18.04279","longitude":"121.72325","pincode":"1107"},
{"latitude":"26.0663","longitude":"-80.3339","pincode":"33330"},
{"latitude":"46.94306","longitude":"28.77778","pincode":"MD-6801"},
{"latitude":"32.85514","longitude":"36.62896"},
{"latitude":"50.86859","longitude":"22.00536","pincode":"23-231"},
{"latitude":"57.0413","longitude":"16.4446","pincode":"383 24"},
{"latitude":"4.75","longitude":"11.23333"},
{"latitude":"17.68877","longitude":"102.47878","pincode":"96130"},
{"latitude":"19.71446","longitude":"109.31146"},
{"latitude":"-16.49611","longitude":"-49.42639","pincode":"75370-000"},
{"latitude":"51.40076","longitude":"20.48126","pincode":"26-434"},
{"latitude":"-8.0993","longitude":"111.9161"},
{"latitude":"10.60528","longitude":"-72.98","pincode":"130537"},
{"latitude":"50.10528","longitude":"18.88241","pincode":"63-816"},
{"latitude":"59.2741","longitude":"15.2066","pincode":"701 81"},
{"latitude":"44.2179","longitude":"40.8487","pincode":"352560"},
{"latitude":"-6.8253","longitude":"111.7393"},
{"latitude":"19.67804","longitude":"-72.31763"},
{"latitude":"-46.35","longitude":"168.01667","pincode":"9847"},
{"latitude":"7.75849","longitude":"-76.65254","pincode":"057858"},
{"latitude":"12.16667","longitude":"-68.26667"},
{"latitude":"38.5585","longitude":"-8.8833","pincode":"2955-004"},
{"latitude":"28.64638","longitude":"120.1561"},
{"latitude":"50.03339","longitude":"-66.86545","pincode":"G5B"},
{"latitude":"45.10583","longitude":"122.92378"},
{"latitude":"22.54077","longitude":"114.48982"},
{"latitude":"10.53589","longitude":"106.41366"},
{"latitude":"53.23913","longitude":"50.39072","pincode":"461990"},
{"latitude":"27.87722","longitude":"119.4025"},
{"latitude":"34.96667","longitude":"136.61667","pincode":"960-0752"},
{"latitude":"-8.6926","longitude":"121.0377"},
{"latitude":"34.40658","longitude":"109.65203"},
{"latitude":"14.56522","longitude":"121.61786","pincode":"8305"},
{"latitude":"-21.40611","longitude":"-48.50472","pincode":"15900-000"},
{"latitude":"28.82187","longitude":"120.81411"},
{"latitude":"44.5275","longitude":"15.07389","pincode":"53288"},
{"latitude":"47.0871","longitude":"-1.2829","pincode":"44194 CEDEX"},
{"latitude":"50.56471","longitude":"14.65553","pincode":"472 01"},
{"latitude":"30.93725","longitude":"107.9466"},
{"latitude":"-11.89716","longitude":"-76.66256"},
{"latitude":"8.75899","longitude":"104.99285"},
{"latitude":"1.145","longitude":"33.70944"},
{"latitude":"-29.71311","longitude":"-57.08991","pincode":"3230"},
{"latitude":"4.79027","longitude":"-73.66011","pincode":"251227"},
{"latitude":"50.23341","longitude":"14.41078","pincode":"250 70"},
{"latitude":"24.61455","longitude":"112.70317"},
{"latitude":"-7.1918","longitude":"107.0754"},
{"latitude":"9.18361","longitude":"-75.38167","pincode":"705079"},
{"latitude":"-9.62074","longitude":"119.56671"},
{"latitude":"45.51866","longitude":"20.51146"},
{"latitude":"25.51985","longitude":"102.47581"},
{"latitude":"9.02497","longitude":"38.74689"},
{"latitude":"58.1333","longitude":"12.1333","pincode":"463 30"},
{"latitude":"29.47639","longitude":"30.96119"},
{"latitude":"30.62421","longitude":"120.71561"},
{"latitude":"-9.9755","longitude":"123.8731"},
{"latitude":"-16.00528","longitude":"-41.29722","pincode":"39970-000"},
{"latitude":"27.77936","longitude":"116.65889"},
{"latitude":"5.24525","longitude":"96.14624"},
{"latitude":"46.31622","longitude":"123.56094"},
{"latitude":"-6.896","longitude":"113.313"},
{"latitude":"-6.3965","longitude":"105.9693"},
{"latitude":"54.13345","longitude":"-114.40211","pincode":"T7N"},
{"latitude":"46.97569","longitude":"30.46998"},
{"latitude":"-35.22676","longitude":"173.94739","pincode":"0245"},
{"latitude":"29.10463","longitude":"119.8044"},
{"latitude":"49.71671","longitude":"-113.41857","pincode":"V6S"},
{"latitude":"22.63986","longitude":"112.81524"},
{"latitude":"43.25861","longitude":"18.11333"},
{"latitude":"23.73522","longitude":"116.98061"},
{"latitude":"20.64637","longitude":"106.05112"},
{"latitude":"-6.9318","longitude":"111.2882"},
{"latitude":"43.37496","longitude":"131.99674","pincode":"238603"},
{"latitude":"25.60238","longitude":"118.75184"},
{"latitude":"41.92768","longitude":"74.51699"},
{"latitude":"57.0609","longitude":"25.81624"},
{"latitude":"-7.3251","longitude":"108.0264"},
{"latitude":"38.75861","longitude":"140.30083","pincode":"999-5313"},
{"latitude":"37.90889","longitude":"126.16111"},
{"latitude":"8.569","longitude":"150.4195"},
{"latitude":"33.8913","longitude":"-84.0746","pincode":"31119"},
{"latitude":"50.84589","longitude":"18.92086","pincode":"42-284"},
{"latitude":"-33.8678","longitude":"151.2073","pincode":"1109"},
{"latitude":"30.34889","longitude":"118.63139"},
{"latitude":"8.985","longitude":"150.1275"},
{"latitude":"5.08154","longitude":"-73.60761","pincode":"250848"},
{"latitude":"41.1333","longitude":"-7.3","pincode":"5155-655"},
{"latitude":"-6.7267","longitude":"105.6259"},
{"latitude":"-20.76361","longitude":"-41.53306","pincode":"29500-000"},
{"latitude":"9.35","longitude":"1.26667"},
{"latitude":"-6.766","longitude":"111.3568"},
{"latitude":"47.7","longitude":"106.4"},
{"latitude":"33.78819","longitude":"113.52207"},
{"latitude":"49.0667","longitude":"6.15","pincode":"57155"},
{"pincode":"9100-153"},
{"latitude":"39.46799","longitude":"114.14842"},
{"latitude":"36.45","longitude":"136.63333","pincode":"929-0203"},
{"latitude":"36.5575","longitude":"116.72722"},
{"latitude":"57.6664","longitude":"14.972","pincode":"575 35"},
{"latitude":"-33.59473","longitude":"-71.60746"},
{"latitude":"46.74103","longitude":"120.30775"},
{"latitude":"46.00611","longitude":"16.11111","pincode":"49246"},
{"latitude":"59.3939","longitude":"15.8388","pincode":"732 24"},
{"latitude":"13.93723","longitude":"120.9162","pincode":"4211"},
{"latitude":"10.96209","longitude":"-3.24967"},
{"latitude":"33.72654","longitude":"59.18439"},
{"latitude":"53.36167","longitude":"84.58222","pincode":"659826"},
{"latitude":"-13.19194","longitude":"-74.11139"},
{"latitude":"11.45332","longitude":"104.52085"},
{"latitude":"29.45477","longitude":"107.37369"},
{"latitude":"-12.52611","longitude":"-76.54278"},
{"latitude":"4.52949","longitude":"-75.64091","pincode":"632008"},
{"latitude":"36.91796","longitude":"50.64802"},
{"latitude":"39.87483","longitude":"25.06359"},
{"latitude":"40.84995","longitude":"25.87644"},
{"latitude":"46.73426","longitude":"35.64251"},
{"latitude":"-22.28556","longitude":"-46.61222","pincode":"99730-000"},
{"latitude":"59.3326","longitude":"18.0649","pincode":"111 20"},
{"latitude":"44.9333","longitude":"4.9","pincode":"26907 CEDEX 9"},
{"latitude":"50.51809","longitude":"30.80671"},
{"latitude":"35.1885","longitude":"-101.8165","pincode":"79176"},
{"latitude":"55.7919","longitude":"13.1102","pincode":"244 24"},
{"latitude":"54.8682","longitude":"37.21584","pincode":"142281"},
{"latitude":"-8.7946","longitude":"121.5676"},
{"latitude":"39.61278","longitude":"117.40167"},
{"latitude":"-13.97528","longitude":"-73.065"},
{"latitude":"0.20806","longitude":"32.52222"},
{"latitude":"59.5344","longitude":"18.0776","pincode":"186 31"},
{"latitude":"-2.8417","longitude":"120.1222"},
{"latitude":"3.90089","longitude":"-76.29783","pincode":"763049"},
{"latitude":"31.45571","longitude":"34.43719"},
{"latitude":"15.98814","longitude":"120.39057","pincode":"2419"},
{"latitude":"45.41171","longitude":"100.574"},
{"latitude":"46.22652","longitude":"-63.21809","pincode":"L4E"},
{"latitude":"52.70031","longitude":"-6.96181","pincode":"R21"},
{"latitude":"-5.79949","longitude":"13.44068"},
{"latitude":"2.235","longitude":"32.38495"},
{"latitude":"0.63278","longitude":"30.62139"},
{"latitude":"7.20528","longitude":"122.23306","pincode":"6511"},
{"latitude":"48.37062","longitude":"106.74076"},
{"latitude":"-8.2476","longitude":"123.7581"},
{"latitude":"56.41349","longitude":"37.6218","pincode":"400036"},
{"latitude":"48.4","longitude":"-4.4833","pincode":"29609 CEDEX 2"},
{"latitude":"40.3736","longitude":"-7.9063","pincode":"3405-605"},
{"latitude":"40.08807","longitude":"119.93607"},
{"latitude":"50.62461","longitude":"16.24207","pincode":"549 81"},
{"latitude":"-9.70209","longitude":"120.51406"},
{"latitude":"14.56667","longitude":"-88.86667"},
{"latitude":"26.28333","longitude":"117.88333"},
{"latitude":"36.90836","longitude":"54.86884"},
{"latitude":"-15.61778","longitude":"-46.42333","pincode":"78967-800"},
{"latitude":"-8.2358","longitude":"112.0273"},
{"latitude":"13.38333","longitude":"-88.5"},
{"latitude":"41.3183","longitude":"-7.0333","pincode":"5160-218"},
{"latitude":"1.531","longitude":"110.3442","pincode":"93590"},
{"latitude":"55.49972","longitude":"37.55972","pincode":"142720"},
{"latitude":"33.53567","longitude":"130.47861","pincode":"818-0138"},
{"latitude":"36.45556","longitude":"127.12472"},
{"latitude":"21.68651","longitude":"110.63417"},
{"latitude":"-8.2214","longitude":"116.3428"},
{"latitude":"9.8203","longitude":"122.4004","pincode":"2432"},
{"latitude":"29.70285","longitude":"108.99895"},
{"latitude":"-11.13333","longitude":"-77.1946"},
{"latitude":"45.1833","longitude":"0.7167","pincode":"24004 CEDEX"},
{"latitude":"35.2479","longitude":"36.5725"},
{"latitude":"-20.58333","longitude":"-63.9"},
{"latitude":"-27.79511","longitude":"-64.26149","pincode":"4200"},
{"latitude":"34.81667","longitude":"134.7","pincode":"680-0301"},
{"latitude":"48.1224","longitude":"11.5449","pincode":"80337"},
{"latitude":"41.3394","longitude":"-8.6167","pincode":"4785-364"},
{"latitude":"39.84173","longitude":"45.6723"},
{"latitude":"40.4209","longitude":"-8.7214","pincode":"3070-305"},
{"latitude":"30.3752","longitude":"-97.9007","pincode":"78732"},
{"latitude":"58.68472","longitude":"50.02611","pincode":"613110"},
{"latitude":"32.30177","longitude":"35.19263"},
{"latitude":"29.03109","longitude":"109.09221"},
{"latitude":"36.10306","longitude":"127.48889"},
{"latitude":"5.88083","longitude":"-10.04667"},
{"latitude":"49.47076","longitude":"15.00168","pincode":"571 01"},
{"latitude":"39.7851","longitude":"-86.1595","pincode":"46202"},
{"latitude":"-10.2079","longitude":"123.7745"},
{"latitude":"41.3","longitude":"-8.3667","pincode":"4590-170"},
{"latitude":"-4.24444","longitude":"-42.29444","pincode":"64100-000"},
{"latitude":"41.3657","longitude":"-72.9275","pincode":"06520"},
{"latitude":"38.8611","longitude":"-9.4056","pincode":"2705-537"},
{"latitude":"34.35153","longitude":"107.14318"},
{"latitude":"9.23333","longitude":"-66.71667"},
{"latitude":"50.5659","longitude":"20.05563","pincode":"28-340"},
{"latitude":"-5.9543","longitude":"106.0711"},
{"latitude":"10.10974","longitude":"105.62318"},
{"latitude":"25.29882","longitude":"117.84822"},
{"latitude":"4.61889","longitude":"-75.63583","pincode":"631008"},
{"latitude":"21.36753","longitude":"40.28694"},
{"latitude":"25.30651","longitude":"118.83033"},
{"latitude":"37.3","longitude":"22.5"},
{"latitude":"42.18301","longitude":"69.88393"},
{"latitude":"60.15328","longitude":"59.95205","pincode":"624486"},
{"latitude":"46.28407","longitude":"126.71525"},
{"latitude":"0.1866","longitude":"30.45393"},
{"latitude":"49.1859","longitude":"-0.3591","pincode":"14085 CEDEX 9"},
{"latitude":"-8.6335","longitude":"116.3517"},
{"latitude":"38.8318","longitude":"-77.2888","pincode":"22096"},
{"latitude":"45.9783","longitude":"-108.1945","pincode":"59112"},
{"latitude":"48.97465","longitude":"17.64757","pincode":"687 51"},
{"latitude":"42.28639","longitude":"18.84"},
{"latitude":"48.0118","longitude":"23.57061"},
{"latitude":"22.71917","longitude":"-80.90583"},
{"latitude":"21.27421","longitude":"106.10069"},
{"latitude":"32.19164","longitude":"35.15836"},
{"latitude":"24.59589","longitude":"118.55359"},
{"latitude":"-32.16422","longitude":"25.61918","pincode":"5884"},
{"latitude":"49.09356","longitude":"129.45305"},
{"latitude":"-18.03104","longitude":"-63.40523"},
{"latitude":"34.39627","longitude":"132.45937","pincode":"736-0089"},
{"latitude":"41.2333","longitude":"-8.5333","pincode":"4445-005"},
{"latitude":"15.59972","longitude":"-91.44528","pincode":"13023"},
{"latitude":"39.2298","longitude":"-9.1043","pincode":"2550-214"},
{"latitude":"49.42908","longitude":"14.03697","pincode":"364 71"},
{"latitude":"-27.31667","longitude":"-61.28333","pincode":"3732"},
{"latitude":"26.73286","longitude":"67.77631","pincode":"76200"},
{"latitude":"-7.0099","longitude":"108.1698"},
{"latitude":"52.30639","longitude":"45.39167","pincode":"412545"},
{"latitude":"42.66854","longitude":"123.75587"},
{"latitude":"-8.3647","longitude":"123.5718"},
{"latitude":"50.8047","longitude":"42.0138","pincode":"403140"},
{"latitude":"0.977","longitude":"117.9803"},
{"latitude":"40.93717","longitude":"44.77142"},
{"latitude":"17.0089","longitude":"-91.6396","pincode":"26930"},
{"latitude":"9.35944","longitude":"-69.9839"},
{"latitude":"36.19257","longitude":"44.01062"},
{"latitude":"-18.06294","longitude":"29.89246"},
{"latitude":"21.70471","longitude":"111.44728"},
{"latitude":"34.91914","longitude":"71.09863"},
{"latitude":"37.79134","longitude":"20.87407"},
{"latitude":"52.0767","longitude":"4.2986","pincode":"2578"},
{"latitude":"54.70375","longitude":"99.63042","pincode":"460056"},
{"latitude":"38.5132","longitude":"-8.9953","pincode":"2985-105"},
{"latitude":"-15.61667","longitude":"-70.35"},
{"latitude":"31.21244","longitude":"118.22986"},
{"latitude":"45.0159","longitude":"-93.4719","pincode":"55579"},
{"latitude":"40.99547","longitude":"125.77121"},
{"latitude":"-8.1531","longitude":"113.2176"},
{"latitude":"29.04681","longitude":"34.6634"},
{"latitude":"31.07566","longitude":"115.18184"},
{"latitude":"31.3133","longitude":"118.44929"},
{"latitude":"39.99207","longitude":"98.90223"},
{"latitude":"30.20423","longitude":"107.99764"},
{"latitude":"31.09956","longitude":"108.21964"},
{"latitude":"29.57861","longitude":"121.51556"},
{"latitude":"36.45606","longitude":"10.73763"},
{"latitude":"-4.57667","longitude":"30.1025"},
{"latitude":"9.11018","longitude":"-66.39718"},
{"latitude":"17.65211","longitude":"100.03892","pincode":"65160"},
{"latitude":"41.65","longitude":"25.36667","pincode":"6710"},
{"latitude":"27.70806","longitude":"110.14194"},
{"latitude":"-18.775","longitude":"-42.9325","pincode":"39740-000"},
{"latitude":"52.28638","longitude":"20.80793","pincode":"05-080"},
{"latitude":"15.16222","longitude":"120.5675","pincode":"2516"},
{"latitude":"44.5017","longitude":"38.1342","pincode":"353490"},
{"latitude":"39.85","longitude":"-8.35","pincode":"2430-604"},
{"latitude":"33.91667","longitude":"134.65","pincode":"779-1631"},
{"latitude":"58.01056","longitude":"114.27694","pincode":"666921"},
{"latitude":"28.62149","longitude":"118.50566"},
{"latitude":"-8.2921","longitude":"111.6967"},
{"latitude":"40.93717","longitude":"44.77142"},
{"latitude":"50.82969","longitude":"19.28547","pincode":"42-244"},
{"latitude":"35.28403","longitude":"70.17017"},
{"latitude":"48.9833","longitude":"1.7167","pincode":"78718 CEDEX"},
{"latitude":"-25.54778","longitude":"-54.58806","pincode":"85850-000"},
{"latitude":"51.765","longitude":"5.5181","pincode":"5349"},
{"latitude":"13.5101","longitude":"123.1792","pincode":"1150"},
{"latitude":"49.42732","longitude":"25.97869"},
{"latitude":"-21.82694","longitude":"-47.24861","pincode":"13650-000"},
{"latitude":"32.90871","longitude":"35.63198"},
{"latitude":"34.08333","longitude":"119.01667"},
{"latitude":"26.90833","longitude":"118.98194"},
{"pincode":"9800-026"},
{"latitude":"-6.09917","longitude":"-77.62667"},
{"latitude":"23.78799","longitude":"112.40008"},
{"latitude":"40.44808","longitude":"49.75502"},
{"latitude":"18.20854","longitude":"-71.10077","pincode":"11005"},
{"latitude":"28.91925","longitude":"110.89199"},
{"latitude":"-33.14156","longitude":"-59.30966","pincode":"2840"},
{"latitude":"33.22375","longitude":"132.56001","pincode":"798-1354"},
{"latitude":"38.07388","longitude":"114.4103"},
{"latitude":"48.31245","longitude":"39.56284"},
{"latitude":"8.25","longitude":"-81.66667"},
{"latitude":"33.0635","longitude":"105.44253"},
{"latitude":"19.16242","longitude":"99.99342","pincode":"56120"},
{"latitude":"-24.08534","longitude":"-57.08745"},
{"latitude":"39.849","longitude":"-86.272","pincode":"46254"},
{"latitude":"32.95","longitude":"131.9","pincode":"305-0028"},
{"latitude":"-13.75667","longitude":"-74.06667"},
{"latitude":"51.691","longitude":"7.8704","pincode":"59071"},
{"latitude":"50.46417","longitude":"23.39041","pincode":"86-318"},
{"latitude":"23.97282","longitude":"109.66678"},
{"latitude":"16.0617","longitude":"99.86058","pincode":"62130"},
{"latitude":"-6.5683","longitude":"106.4116"},
{"latitude":"39.7076","longitude":"-94.8677","pincode":"64504"},
{"latitude":"47.2173","longitude":"-1.5534","pincode":"44265 CEDEX 2"},
{"latitude":"0.45972","longitude":"33.48028"},
{"latitude":"-7.0092","longitude":"108.2846"},
{"latitude":"-10.2105","longitude":"123.9349"},
{"latitude":"23.48712","longitude":"116.00339"},
{"latitude":"9.3584","longitude":"123.285","pincode":"6201"},
{"latitude":"34.36679","longitude":"-1.83705"},
{"latitude":"55.97","longitude":"37.6","pincode":"172026"},
{"latitude":"34.82691","longitude":"135.47057","pincode":"709-4306"},
{"latitude":"15.3921","longitude":"120.94084","pincode":"1279"},
{"latitude":"59.68333","longitude":"30.43472","pincode":"196627"},
{"latitude":"39.61278","longitude":"117.40167"},
{"latitude":"45.34724","longitude":"127.08875"},
{"latitude":"14.3518","longitude":"43.85275"},
{"latitude":"14.26238","longitude":"101.07111","pincode":"26110"},
{"latitude":"29.60539","longitude":"108.21712"},
{"latitude":"46.53452","longitude":"127.12052"},
{"latitude":"36.01667","longitude":"139.98333","pincode":"306-0614"},
{"latitude":"-8.61194","longitude":"125.20611"},
{"latitude":"-6.6183","longitude":"111.0783"},
{"latitude":"51.97653","longitude":"21.21537","pincode":"05-530"},
{"latitude":"35.3077","longitude":"25.52021"},
{"latitude":"-8.0786","longitude":"111.8818"},
{"latitude":"34.38528","longitude":"36.03111"},
{"latitude":"-5.14556","longitude":"-38.09806","pincode":"62930-000"},
{"latitude":"-9.8781","longitude":"124.6683"},
{"latitude":"-15.29031","longitude":"167.96679"},
{"latitude":"41.1611","longitude":"-8.3778","pincode":"4630-526"},
{"latitude":"51.65501","longitude":"17.80686","pincode":"63-417"},
{"latitude":"28.10304","longitude":"111.95409"},
{"latitude":"46.83826","longitude":"32.76116"},
{"latitude":"22.72467","longitude":"-81.28852"},
{"latitude":"37.62719","longitude":"120.79682"},
{"latitude":"49.0981","longitude":"2.5096","pincode":"95479 CEDEX"},
{"latitude":"-26.73333","longitude":"-60.61667","pincode":"3706"},
{"latitude":"37.3925","longitude":"126.92694"},
{"latitude":"7.26439","longitude":"-58.50769"},
{"latitude":"46.74631","longitude":"33.27288"},
{"latitude":"14.53333","longitude":"-91.41667","pincode":"10030"},
{"latitude":"48.8592","longitude":"2.3417","pincode":"75100 CEDEX 01"},
{"latitude":"-16.33333","longitude":"-70.73333"},
{"latitude":"38.43333","longitude":"23.68333"},
{"latitude":"7.77768","longitude":"100.32134","pincode":"90140"},
{"latitude":"62.71912","longitude":"32.72703","pincode":"186855"},
{"latitude":"22.55463","longitude":"114.22589"},
{"latitude":"63.36667","longitude":"24.96667","pincode":"43901"},
{"latitude":"46.74103","longitude":"120.30775"},
{"latitude":"32.834","longitude":"106.25035"},
{"latitude":"26.11528","longitude":"50.50694"},
{"latitude":"21.57323","longitude":"110.49747"},
{"latitude":"47.55782","longitude":"125.59377"},
{"latitude":"59.3333","longitude":"18.05","pincode":"121 32"},
{"latitude":"13.17722","longitude":"121.27806","pincode":"6406"},
{"latitude":"-34.09556","longitude":"-56.21417"},
{"latitude":"-33.73257","longitude":"-70.74281"},
{"latitude":"20.9625","longitude":"-75.71861"},
{"latitude":"-1.82833","longitude":"-44.86833","pincode":"65268-000"},
{"latitude":"30.86447","longitude":"113.96775"},
{"latitude":"-19.06667","longitude":"31.75"},
{"latitude":"51.6083","longitude":"38.9102","pincode":"397815"},
{"latitude":"50.24314","longitude":"20.72348","pincode":"28-520"},
{"latitude":"24.33826","longitude":"103.07003"},
{"latitude":"33.86055","longitude":"113.11598"},
{"latitude":"62.48333","longitude":"30.25","pincode":"82140"},
{"latitude":"13.94389","longitude":"-86.85278"},
{"latitude":"39.4992","longitude":"-9.0413","pincode":"2500-772"},
{"latitude":"27.05966","longitude":"114.86045"},
{"latitude":"16.7527","longitude":"102.63244","pincode":"31110"},
{"latitude":"58.38588","longitude":"24.49711"},
{"latitude":"43.98333","longitude":"119.18333"},
{"latitude":"32.97759","longitude":"106.46881"},
{"latitude":"-35.15282","longitude":"-65.94602","pincode":"2529"},
{"latitude":"-24.63333","longitude":"17.96667"},
{"latitude":"55.6759","longitude":"12.5655","pincode":"1121"},
{"latitude":"53.08062","longitude":"20.45071","pincode":"64-930"},
{"latitude":"35.26","longitude":"-80.8042","pincode":"28235"},
{"latitude":"59.1312","longitude":"10.2166","pincode":"3210"},
{"latitude":"19.0825","longitude":"-101.7711","pincode":"58337"},
{"latitude":"29.7151","longitude":"116.33223"},
{"latitude":"21.53162","longitude":"111.47884"},
{"latitude":"45.0428","longitude":"41.9734","pincode":"356235"},
{"latitude":"7.71412","longitude":"-71.46466"},
{"latitude":"39.7783","longitude":"-104.7556","pincode":"80249"},
{"latitude":"35.19636","longitude":"102.24917"},
{"latitude":"-22.505","longitude":"-43.17861","pincode":"25600-000"},
{"latitude":"36.82167","longitude":"128.63083"},
{"latitude":"56.11281","longitude":"69.49015","pincode":"649143"},
{"latitude":"18.54661","longitude":"-70.50631","pincode":"11809"},
{"latitude":"39.009","longitude":"-77.4422","pincode":"20189"},
{"latitude":"-7.5734","longitude":"108.1319"},
{"latitude":"-26.55","longitude":"31.01667"},
{"latitude":"-36.40633","longitude":"-56.94329","pincode":"7103"},
{"latitude":"5.57167","longitude":"125.40556","pincode":"7119"},
{"latitude":"49.67488","longitude":"12.67366","pincode":"348 06"},
{"latitude":"32.4096","longitude":"121.28799"},
{"latitude":"23.28929","longitude":"116.26723"},
{"latitude":"23.9065","longitude":"42.91724"},
{"latitude":"52.35333","longitude":"-7.34028","pincode":"T34"},
{"latitude":"56.5","longitude":"27.31667"},
{"latitude":"43.6043","longitude":"1.4437","pincode":"31201 CEDEX 2"},
{"latitude":"23.13028","longitude":"-82.35306"},
{"latitude":"57.89035","longitude":"54.7202","pincode":"617140"},
{"latitude":"54.03876","longitude":"43.91386","pincode":"431355"},
{"latitude":"32.02483","longitude":"112.0172"},
{"latitude":"58.15838","longitude":"28.18576","pincode":"188422"},
{"latitude":"59.3267","longitude":"14.5239","pincode":"691 34"},
{"latitude":"43.96222","longitude":"43.63417","pincode":"357322"},
{"latitude":"62.2","longitude":"23.18333","pincode":"39820"},
{"latitude":"45.31341","longitude":"-73.8725","pincode":"J6N"},
{"latitude":"29.57423","longitude":"105.92275"},
{"latitude":"24.33826","longitude":"103.07003"},
{"latitude":"32.42306","longitude":"105.23445"},
{"latitude":"30.06387","longitude":"107.45359"},
{"latitude":"-0.46645","longitude":"-76.98719"},
{"latitude":"47.42018","longitude":"40.09132","pincode":"346408"},
{"latitude":"43.6583","longitude":"3.97","pincode":"34747 CEDEX"},
{"latitude":"-6.8527","longitude":"115.2624"},
{"latitude":"-18.41917","longitude":"-49.21528","pincode":"75500-000"},
{"latitude":"37.53735","longitude":"120.59264"},
{"latitude":"40.44222","longitude":"49.98056"},
{"latitude":"-7.7015","longitude":"108.496"},
{"latitude":"44.28461","longitude":"72.9392"},
{"latitude":"52.7108","longitude":"5.7486","pincode":"8304"},
{"latitude":"-26.98023","longitude":"26.67272","pincode":"2627"},
{"latitude":"48.81207","longitude":"25.42477"},
{"latitude":"18.5","longitude":"-69.9","pincode":"11806"},
{"latitude":"-1.02167","longitude":"-46.635","pincode":"68610-000"},
{"latitude":"21.25782","longitude":"105.84894"},
{"latitude":"55.48498","longitude":"37.30736","pincode":"142191"},
{"latitude":"23.85098","longitude":"112.47692"},
{"latitude":"58.4167","longitude":"15.6167","pincode":"582 02"},
{"latitude":"34.71189","longitude":"32.8634"},
{"latitude":"-10.5822","longitude":"121.8062"},
{"latitude":"44.81694","longitude":"15.87083"},
{"latitude":"31.6948","longitude":"-106.3","pincode":"88546"},
{"latitude":"11.5293","longitude":"124.8362","pincode":"6719"},
{"latitude":"-6.9386","longitude":"111.6721"},
{"latitude":"65.5842","longitude":"22.1546","pincode":"971 82"},
{"latitude":"-10.5411","longitude":"123.2875"},
{"latitude":"49.06608","longitude":"14.36613","pincode":"507 23"},
{"latitude":"10.115","longitude":"123.5103","pincode":"6036"},
{"latitude":"-7.0676","longitude":"108.0546"},
{"latitude":"-4.1725","longitude":"-38.46056","pincode":"62870-000"},
{"latitude":"14.03333","longitude":"-86.46667"},
{"latitude":"29.47189","longitude":"110.4415"},
{"latitude":"47.9029","longitude":"1.9039","pincode":"45969 CEDEX 9"},
{"latitude":"27.27471","longitude":"91.23963"},
{"latitude":"6.51904","longitude":"126.09408","pincode":"8303"},
{"latitude":"14.0994","longitude":"-1.62554"},
{"latitude":"52.67472","longitude":"-6.2925","pincode":"Y25"},
{"latitude":"40.71069","longitude":"140.59048","pincode":"953-0062"},
{"latitude":"-8.3652","longitude":"114.6433"},
{"latitude":"-8.66667","longitude":"-35.71667","pincode":"55400-000"},
{"latitude":"58.1573","longitude":"7.9303","pincode":"4671"},
{"latitude":"-8.0653","longitude":"113.339"},
{"latitude":"-32.02927","longitude":"-61.22103","pincode":"2253"},
{"latitude":"50.68475","longitude":"14.64522","pincode":"471 23"},
{"latitude":"12.16278","longitude":"6.66135"},
{"latitude":"29.58856","longitude":"110.03864"},
{"latitude":"13.76667","longitude":"-88.08333"},
{"latitude":"-27.15","longitude":"-56.78333"},
{"latitude":"49.854","longitude":"18.54169","pincode":"735 72"},
{"latitude":"54.69216","longitude":"36.02225","pincode":"249849"},
{"latitude":"25.4","longitude":"103.56667"},
{"latitude":"33.49249","longitude":"112.42723"},
{"latitude":"36.3","longitude":"139.8","pincode":"981-1502"},
{"latitude":"-19.93167","longitude":"-44.05361","pincode":"32000-000"},
{"latitude":"7.11972","longitude":"124.92389","pincode":"9406"},
{"latitude":"33.70389","longitude":"118.67917"},
{"latitude":"9.61389","longitude":"6.55694"},
{"latitude":"46.56255","longitude":"30.86071"},
{"latitude":"-7.1432","longitude":"114.3603"},
{"latitude":"31.23853","longitude":"111.01406"},
{"latitude":"-7.6203","longitude":"108.5205"},
{"latitude":"28.20325","longitude":"106.42489"},
{"latitude":"42.37377","longitude":"47.37451","pincode":"368324"},
{"latitude":"-22.43333","longitude":"26.41667"},
{"latitude":"18.78333","longitude":"-69.46667","pincode":"10134"},
{"latitude":"-6.9737","longitude":"112.4192"},
{"latitude":"16.9215","longitude":"120.4235","pincode":"2519"},
{"latitude":"-26.25028","longitude":"-49.37861","pincode":"89290-000"},
{"latitude":"52.13359","longitude":"20.80313","pincode":"05-831"},
{"latitude":"52.5638","longitude":"22.91689","pincode":"17-306"},
{"latitude":"59.2741","longitude":"15.2066","pincode":"701 91"},
{"latitude":"33.45759","longitude":"36.30419"},
{"latitude":"49.6398","longitude":"-1.6164","pincode":"50109 CEDEX"},
{"latitude":"15.39485","longitude":"120.66573","pincode":"2826"},
{"latitude":"23.38121","longitude":"113.20744"},
{"latitude":"9.18361","longitude":"-75.38167","pincode":"705079"},
{"latitude":"35.61739","longitude":"10.99466"},
{"latitude":"36.16667","longitude":"139.53333","pincode":"374-0055"},
{"latitude":"15.28333","longitude":"-86.96667"},
{"latitude":"58.1333","longitude":"12.1333","pincode":"463 30"},
{"latitude":"-4.37555","longitude":"-70.03179","pincode":"69630-000"},
{"latitude":"-24.41667","longitude":"26.15"},
{"latitude":"28.30954","longitude":"105.23075"},
{"latitude":"-1.21933","longitude":"41.83736"},
{"latitude":"-2.51389","longitude":"-66.09167","pincode":"69670-000"},
{"latitude":"39.65","longitude":"-8.8667","pincode":"2440-341"},
{"latitude":"35.62231","longitude":"10.75696"},
{"latitude":"45.61278","longitude":"18.53528","pincode":"31208"},
{"latitude":"-4.75611","longitude":"11.85778"},
{"latitude":"65.8252","longitude":"21.6886","pincode":"961 73"},
{"latitude":"49.68891","longitude":"15.99431","pincode":"592 01"},
{"latitude":"53.46747","longitude":"23.23052","pincode":"42-253"},
{"latitude":"29.01528","longitude":"112.045"},
{"latitude":"33.68333","longitude":"99.4"},
{"latitude":"52.374","longitude":"4.8897","pincode":"1004"},
{"latitude":"45.61667","longitude":"63.31667"},
{"latitude":"50.36811","longitude":"23.74895"},
{"latitude":"27.06694","longitude":"110.95444"},
{"latitude":"25.12194","longitude":"111.98194"},
{"latitude":"55.6759","longitude":"12.5655","pincode":"1738"},
{"latitude":"49.05","longitude":"3.95","pincode":"51209 CEDEX"},
{"latitude":"-17.37556","longitude":"-70.13222"},
{"latitude":"32.92904","longitude":"118.99698"},
{"latitude":"49.74611","longitude":"6.465","pincode":"L-6695"},
{"latitude":"41.80694","longitude":"126.90778"},
{"latitude":"-8.744","longitude":"117.9813"},
{"latitude":"-6.7113","longitude":"111.2111"},
{"latitude":"4.09912","longitude":"-72.95647","pincode":"502009"},
{"latitude":"-8.2355","longitude":"111.4567"},
{"latitude":"39.05","longitude":"-9.4","pincode":"2750-099"},
{"latitude":"37.13414","longitude":"120.86291"},
{"latitude":"49.88944","longitude":"18.80722","pincode":"43-523"},
{"latitude":"38.65","longitude":"-9.0333","pincode":"2860-278"},
{"latitude":"48.6468","longitude":"2.3197","pincode":"91709 CEDEX"},
{"latitude":"40.81373","longitude":"22.16166"},
{"latitude":"-12.16672","longitude":"44.39944"},
{"latitude":"45.82972","longitude":"20.46528"},
{"latitude":"37.94504","longitude":"23.71416"},
{"pincode":"9680-505"},
{"latitude":"-17.30192","longitude":"31.33056"},
{"latitude":"44.78389","longitude":"44.16583","pincode":"356825"},
{"latitude":"14.8","longitude":"-87.35"},
{"latitude":"48.85775","longitude":"36.55505"},
{"latitude":"-8.6409","longitude":"116.411"},
{"latitude":"14.22806","longitude":"-90.17583","pincode":"06006"},
{"latitude":"62.11319","longitude":"21.95884","pincode":"64901"},
{"latitude":"-8.1539","longitude":"111.7051"},
{"latitude":"17.90918","longitude":"-77.09718"},
{"latitude":"46.95957","longitude":"37.39981"},
{"latitude":"54.33389","longitude":"93.25944","pincode":"662955"},
{"latitude":"22.83599","longitude":"114.80487"},
{"latitude":"15.67511","longitude":"120.48835","pincode":"2509"},
{"latitude":"15.43251","longitude":"44.22399"},
{"latitude":"33.3363","longitude":"-111.9197","pincode":"85284"},
{"latitude":"39.5667","longitude":"-8.3722","pincode":"2300-174"},
{"latitude":"65.8252","longitude":"21.6886","pincode":"961 19"},
{"latitude":"-10.2621","longitude":"29.92712"},
{"latitude":"36.31865","longitude":"138.2733","pincode":"386-0404"},
{"latitude":"59.35","longitude":"17.9167","pincode":"168 00"},
{"latitude":"3.58333","longitude":"-77","pincode":"764517"},
{"latitude":"-0.50845","longitude":"166.95326"},
{"latitude":"59.3326","longitude":"18.0649","pincode":"113 28"},
{"latitude":"49.22107","longitude":"17.58733","pincode":"763 02"},
{"latitude":"49.265","longitude":"104.74348"},
{"latitude":"42.37267","longitude":"126.80115"},
{"latitude":"-6.3302","longitude":"106.0343"},
{"latitude":"43.2","longitude":"45.78889","pincode":"366301"},
{"latitude":"18.26323","longitude":"-73.54502"},
{"latitude":"-9.50194","longitude":"-36.02278","pincode":"87630-000"},
{"latitude":"29.3687","longitude":"115.95112"},
{"latitude":"45.73333","longitude":"15.91667","pincode":"10257"},
{"latitude":"32.11857","longitude":"121.00462"},
{"latitude":"32.58339","longitude":"73.48432","pincode":"50470"},
{"latitude":"15.2097","longitude":"121.0061","pincode":"2712"},
{"latitude":"-24.83333","longitude":"16.98333"},
{"latitude":"46.88275","longitude":"127.16794"},
{"latitude":"26.68711","longitude":"-78.97702"},
{"latitude":"35.3703","longitude":"24.70345"},
{"latitude":"34.3604","longitude":"108.46238"},
{"latitude":"47.87928","longitude":"38.48492"},
{"latitude":"29.33801","longitude":"89.24618"},
{"latitude":"44.94309","longitude":"34.19727"},
{"latitude":"46.39528","longitude":"16.64389","pincode":"40320"},
{"latitude":"52.26469","longitude":"18.42407","pincode":"62-511"},
{"latitude":"62.31533","longitude":"27.873","pincode":"78900"},
{"latitude":"38.01294","longitude":"22.72814"},
{"latitude":"32.05505","longitude":"119.29941"},
{"latitude":"17.5404","longitude":"120.7188","pincode":"2805"},
{"latitude":"47.49475","longitude":"122.37231"},
{"latitude":"22.10603","longitude":"113.19257"},
{"latitude":"59.2","longitude":"17.7333","pincode":"144 40"},
{"latitude":"50.0876","longitude":"14.57199","pincode":"190 12"},
{"latitude":"51.11387","longitude":"18.21413","pincode":"46-220"},
{"latitude":"41.4833","longitude":"-8.35","pincode":"4805-081"},
{"latitude":"59.3326","longitude":"18.0649","pincode":"114 79"},
{"latitude":"39.15821","longitude":"99.40676"},
{"latitude":"38.03491","longitude":"23.73811"},
{"latitude":"13.5677","longitude":"122.5667","pincode":"4313"},
{"latitude":"59.3501","longitude":"17.9658","pincode":"175 61"},
{"latitude":"49.70594","longitude":"20.42204","pincode":"34-651"},
{"latitude":"11.58917","longitude":"125.46972","pincode":"2900"},
{"latitude":"49.89042","longitude":"18.24008","pincode":"747 14"},
{"latitude":"-6.9594","longitude":"111.3617"},
{"latitude":"19.404","longitude":"-98.9245","pincode":"52107"},
{"latitude":"6.17818","longitude":"6.52429"},
{"latitude":"21.01004","longitude":"107.27345"},
{"latitude":"-31.62291","longitude":"29.54477","pincode":"6625"},
{"latitude":"42.30008","longitude":"-83.01654","pincode":"J1S"},
{"latitude":"32.5883","longitude":"74.49321","pincode":"51841"},
{"latitude":"49.8464","longitude":"21.89404","pincode":"38-112"},
{"latitude":"40.61028","longitude":"115.04472"},
{"latitude":"-7.659","longitude":"108.6514"},
{"latitude":"34.02833","longitude":"108.58861"},
{"latitude":"52.7978","longitude":"-2.278","pincode":"ST20"},
{"latitude":"31.20217","longitude":"35.76155"},
{"latitude":"42.99806","longitude":"21.94611"},
{"latitude":"35.33371","longitude":"111.35692"},
{"latitude":"37.9971","longitude":"-87.575","pincode":"47747"},
{"latitude":"-7.3689","longitude":"107.756"},
{"latitude":"41.3089","longitude":"-73.3637","pincode":"06816"},
{"latitude":"-8.26667","longitude":"-77.9"},
{"latitude":"32.14789","longitude":"108.45112"},
{"latitude":"-8.2122","longitude":"112.6086"},
{"latitude":"41.01667","longitude":"70.14361"},
{"latitude":"55.5441","longitude":"42.1968","pincode":"347417"},
{"latitude":"30.98227","longitude":"113.98035"},
{"latitude":"45.73345","longitude":"-63.86542","pincode":"K7A"},
{"latitude":"-13.99328","longitude":"34.51566"},
{"latitude":"59.93863","longitude":"30.31413","pincode":"190990"},
{"latitude":"39.361","longitude":"-76.5891","pincode":"21239"},
{"latitude":"-7.0148","longitude":"113.5819"},
{"latitude":"34.66667","longitude":"137.26667","pincode":"879-7305"},
{"latitude":"23.99359","longitude":"116.37414"},
{"latitude":"-8.5816","longitude":"116.2101"},
{"latitude":"3.47608","longitude":"97.06235"},
{"latitude":"59.3326","longitude":"18.0649","pincode":"121 29"},
{"latitude":"-9.9313","longitude":"124.0901"},
{"latitude":"45.38338","longitude":"-73.9492","pincode":"H9X"},
{"latitude":"49.57903","longitude":"111.97638","pincode":"674250"},
{"latitude":"13.18421","longitude":"30.21669"},
{"latitude":"59.2968","longitude":"18.0313","pincode":"124 22"},
{"latitude":"28.47728","longitude":"116.95165"},
{"latitude":"28.60892","longitude":"112.18623"},
{"latitude":"-22.16194","longitude":"-43.29278","pincode":"25850-000"},
{"latitude":"-23.52806","longitude":"-46.34472","pincode":"08550-000"},
{"latitude":"5.30424","longitude":"96.02744"},
{"latitude":"-6.2612","longitude":"106.1203"},
{"latitude":"-8.2398","longitude":"113.5693"},
{"latitude":"37.0667","longitude":"-8.7667","pincode":"8650-153"},
{"latitude":"49.52143","longitude":"22.9367"},
{"latitude":"-7.2519","longitude":"107.164"},
{"latitude":"38.8247","longitude":"-104.562","pincode":"80935"},
{"latitude":"13.55","longitude":"-15.98333"},
{"latitude":"49.8625","longitude":"-119.58333","pincode":"V1Z"},
{"latitude":"-12.89889","longitude":"-75.83111"},
{"latitude":"35.58408","longitude":"63.32886"},
{"latitude":"-1.49984","longitude":"29.63497"},
{"latitude":"34.75","longitude":"136.13333","pincode":"959-3213"},
{"latitude":"-6.5485","longitude":"105.9988"},
{"latitude":"37.6917","longitude":"-8.2167","pincode":"7630-765"},
{"latitude":"13.85493","longitude":"44.7058"},
{"latitude":"28.03596","longitude":"116.73216"},
{"latitude":"32.8458","longitude":"111.01072"},
{"latitude":"33.3213","longitude":"130.94098","pincode":"419-0125"},
{"latitude":"0.96056","longitude":"30.79667"},
{"latitude":"-29.59111","longitude":"-51.16056","pincode":"93900-000"},
{"latitude":"48.95006","longitude":"16.25931","pincode":"671 71"},
{"latitude":"15.5952","longitude":"120.7911","pincode":"4332"},
{"latitude":"47.47114","longitude":"36.34507"},
{"latitude":"-4.57667","longitude":"30.1025"},
{"latitude":"35.37111","longitude":"139.22361","pincode":"259-1335"},
{"latitude":"47.1833","longitude":"3.0167","pincode":"58404 CEDEX"},
{"latitude":"27.21122","longitude":"114.72949"},
{"latitude":"-23.51056","longitude":"-46.87611","pincode":"06400-000"},
{"latitude":"22.78366","longitude":"113.14451"},
{"latitude":"-12.63333","longitude":"-41.03333","pincode":"17560-000"},
{"latitude":"9.99447","longitude":"-84.66466","pincode":"60201"},
{"latitude":"54.01657","longitude":"-124.01982","pincode":"G9A"},
{"latitude":"42.89106","longitude":"74.85077"},
{"latitude":"15.87944","longitude":"108.335"},
{"latitude":"41.3167","longitude":"-7.9333","pincode":"4880-106"},
{"latitude":"46.24209","longitude":"127.80624"},
{"latitude":"34.0585","longitude":"-118.3012","pincode":"90005"},
{"latitude":"10.08333","longitude":"124.11611","pincode":"8601"},
{"latitude":"30.96174","longitude":"112.18476"},
{"latitude":"36.9216","longitude":"-76.0171","pincode":"23459"},
{"latitude":"26.90863","longitude":"118.56713"},
{"latitude":"41.1","longitude":"-8.35","pincode":"4620-297"},
{"latitude":"23.73477","longitude":"114.24831"},
{"latitude":"47.9804","longitude":"20.9354","pincode":"3504"},
{"latitude":"12.66644","longitude":"100.90073","pincode":"20180"},
{"latitude":"-6.7216","longitude":"111.1473"},
{"latitude":"39.08425","longitude":"66.83318"},
{"latitude":"28.58899","longitude":"116.40622"},
{"latitude":"55.86667","longitude":"37.5","pincode":"141707"},
{"latitude":"51.18341","longitude":"-114.46871","pincode":"T4C"},
{"latitude":"45.16806","longitude":"17.70694","pincode":"35257"},
{"latitude":"25.35967","longitude":"114.54047"},
{"latitude":"55.5281","longitude":"41.1053","pincode":"601545"},
{"latitude":"49.46455","longitude":"22.39829","pincode":"85-156"},
{"latitude":"54.65455","longitude":"19.90929","pincode":"238528"},
{"latitude":"42.9","longitude":"23.78333","pincode":"2162"},
{"latitude":"53.6907","longitude":"33.5071","pincode":"242750"},
{"latitude":"29.1141","longitude":"93.86873"},
{"latitude":"-10.50333","longitude":"-37.05278","pincode":"49700-000"},
{"latitude":"30.90641","longitude":"119.40865"},
{"latitude":"31.71667","longitude":"35.8"},
{"latitude":"-18.43333","longitude":"46.56667"},
{"latitude":"35.57757","longitude":"111.22371"},
{"latitude":"9.8182","longitude":"124.4977","pincode":"6312"},
{"latitude":"28.13099","longitude":"82.29726"},
{"latitude":"26.90053","longitude":"117.16312"},
{"latitude":"36.06956","longitude":"106.3665"},
{"latitude":"53.40953","longitude":"18.44742","pincode":"86-105"},
{"latitude":"28.90763","longitude":"121.19763"},
{"latitude":"40.72861","longitude":"124.78472"},
{"latitude":"36.04408","longitude":"101.42874"},
{"latitude":"6.01798","longitude":"7.02027"},
{"latitude":"40.4833","longitude":"-8.7","pincode":"3840-045"},
{"latitude":"39.55","longitude":"-8.4417","pincode":"2200-785"},
{"latitude":"31.26316","longitude":"118.81762"},
{"latitude":"14.13333","longitude":"-16.46667"},
{"latitude":"21.07854","longitude":"102.50575"},
{"latitude":"49.0241","longitude":"1.1508","pincode":"27095 CEDEX 9"},
{"latitude":"-8.1567","longitude":"111.5263"},
{"latitude":"-21.13556","longitude":"-44.26167","pincode":"36300-000"},
{"latitude":"45.6168","longitude":"-75.01599","pincode":"G5N"},
{"latitude":"8.94417","longitude":"125.50194","pincode":"9021"},
{"latitude":"-7.3531","longitude":"108.1217"},
{"latitude":"61.75","longitude":"50.91667","pincode":"167907"},
{"latitude":"-20.75389","longitude":"-42.88194","pincode":"59815-000"},
{"latitude":"25.95568","longitude":"117.91718"},
{"latitude":"14.83361","longitude":"43.53639"},
{"latitude":"-33.22778","longitude":"-60.3297","pincode":"2919"},
{"latitude":"50.89028","longitude":"21.51426","pincode":"27-440"},
{"latitude":"45.44694","longitude":"14.37694","pincode":"51217"},
{"latitude":"40.2739","longitude":"22.57775"},
{"latitude":"55.6759","longitude":"12.5655","pincode":"1068"},
{"latitude":"53.2012","longitude":"-0.5991","pincode":"LN6"},
{"latitude":"36.54384","longitude":"101.98602"},
{"latitude":"-26.5","longitude":"-57.05"},
{"latitude":"39.5292","longitude":"-8.5958","pincode":"2350-259"},
{"latitude":"15.10839","longitude":"103.17551","pincode":"31000"},
{"latitude":"45.65639","longitude":"40.76528","pincode":"352144"},
{"latitude":"14.8","longitude":"-87.35"},
{"latitude":"52.22904","longitude":"21.01644","pincode":"05-090"},
{"latitude":"53.1001","longitude":"8.9029","pincode":"28355"},
{"latitude":"50.72858","longitude":"17.89819","pincode":"46-020"},
{"latitude":"-6.9776","longitude":"112.4323"},
{"latitude":"-14.92611","longitude":"-42.81917","pincode":"39510-000"},
{"latitude":"56.0313","longitude":"14.1524","pincode":"291 81"},
{"latitude":"40.92055","longitude":"23.97489"},
{"latitude":"-6.66028","longitude":"-69.87361","pincode":"69880-000"},
{"latitude":"-6.9604","longitude":"106.4717"},
{"latitude":"58.99778","longitude":"22.74917"},
{"latitude":"-7.13231","longitude":"113.52351"},
{"latitude":"15.174","longitude":"121.0249","pincode":"2307"},
{"latitude":"57.9303","longitude":"12.5334","pincode":"441 63"},
{"latitude":"43.61781","longitude":"19.36719"},
{"latitude":"-22.46917","longitude":"-48.9875","pincode":"17120-000"},
{"latitude":"-6.9439","longitude":"112.0864"},
{"latitude":"49.63909","longitude":"13.16474","pincode":"333 01"},
{"latitude":"45.4333","longitude":"4.4","pincode":"42055 CEDEX 2"},
{"latitude":"43.6223","longitude":"7.0472","pincode":"06928 CEDEX"},
{"latitude":"48.91218","longitude":"23.47303"},
{"latitude":"14.91667","longitude":"-91.61667","pincode":"09034"},
{"latitude":"-17.73381","longitude":"168.32188"},
{"latitude":"40.95495","longitude":"22.03763"},
{"latitude":"-7.0366","longitude":"108.4159"},
{"latitude":"14.35452","longitude":"108.00759"},
{"latitude":"51.09611","longitude":"40.03333","pincode":"397706"},
{"latitude":"61.67642","longitude":"50.80994","pincode":"167032"},
{"latitude":"52.1777","longitude":"-1.5834","pincode":"CV35"},
{"latitude":"50.84584","longitude":"17.41865","pincode":"20-282"},
{"latitude":"28.66443","longitude":"109.69855"},
{"latitude":"43.41083","longitude":"17.20556","pincode":"21266"},
{"latitude":"57.8136","longitude":"28.3496","pincode":"180559"},
{"latitude":"-8.19","longitude":"114.9675"},
{"latitude":"41.4833","longitude":"-8.35","pincode":"4805-191"},
{"latitude":"-31.65292","longitude":"-64.42826","pincode":"5186"},
{"latitude":"24.39019","longitude":"115.82879"},
{"latitude":"26.5479","longitude":"101.70539"},
{"latitude":"38.0249","longitude":"22.73294"},
{"latitude":"40.9","longitude":"-6.9875","pincode":"6440-104"},
{"latitude":"24.56909","longitude":"118.03451"},
{"latitude":"42.87","longitude":"74.59"},
{"latitude":"-5.16948","longitude":"105.70441"},
{"latitude":"22.58041","longitude":"113.96121"},
{"latitude":"-6.9936","longitude":"112.394"},
{"latitude":"-29.46694","longitude":"-51.96139","pincode":"77645-000"},
{"latitude":"46.70289","longitude":"41.72717","pincode":"347554"},
{"latitude":"-0.49886","longitude":"37.28031"},
{"latitude":"48.92692","longitude":"116.76567"},
{"latitude":"30.06387","longitude":"107.45359"},
{"latitude":"5.31718","longitude":"-66.04862"},
{"latitude":"16.02781","longitude":"100.37917","pincode":"66120"},
{"latitude":"14.52917","longitude":"-90.18417","pincode":"06005"},
{"latitude":"18.8853","longitude":"-103.8863","pincode":"33856"},
{"latitude":"40.50752","longitude":"117.16821"},
{"latitude":"9.9832","longitude":"-75.30155","pincode":"131077"},
{"latitude":"41.1167","longitude":"-7.8833","pincode":"3600-587"},
{"latitude":"50.293","longitude":"2.7819","pincode":"62070 CEDEX 9"},
{"latitude":"23.17141","longitude":"114.61992"},
{"latitude":"14.58044","longitude":"102.59689","pincode":"31110"},
{"latitude":"59.4439","longitude":"18.0687","pincode":"183 15"},
{"latitude":"45.0333","longitude":"3.0833","pincode":"15104 CEDEX"},
{"latitude":"24.43583","longitude":"102.10832"},
{"latitude":"24.374","longitude":"88.60114","pincode":"6100"},
{"latitude":"-8.6502","longitude":"117.4461"},
{"latitude":"58.08417","longitude":"55.86694","pincode":"617071"},
{"latitude":"48.392","longitude":"38.60174"},
{"latitude":"-14.46968","longitude":"-71.19843"},
{"pincode":"9630-015"},
{"latitude":"8.66167","longitude":"117.62222","pincode":"5306"},
{"latitude":"-22.61361","longitude":"-45.17611","pincode":"12620-000"},
{"latitude":"-8.621","longitude":"116.4446"},
{"latitude":"44.47481","longitude":"34.14437"},
{"latitude":"59.9422","longitude":"10.6822","pincode":"0376"},
{"latitude":"4.0772","longitude":"97.0666"},
{"latitude":"63.4305","longitude":"10.3951","pincode":"7031"},
{"latitude":"23.41619","longitude":"116.71327"},
{"latitude":"46.64917","longitude":"15.84417","pincode":"2235"},
{"latitude":"23.56487","longitude":"112.70572"},
{"latitude":"-19.73639","longitude":"-45.25222","pincode":"35600-000"},
{"latitude":"-14.49361","longitude":"-71.155"},
{"latitude":"43.19217","longitude":"44.54313","pincode":"363303"},
{"latitude":"-6.505","longitude":"111.0425"},
{"latitude":"31.52057","longitude":"34.97442"},
{"latitude":"-7.3314","longitude":"108.0665"},
{"latitude":"54.0024","longitude":"27.7108"},
{"latitude":"33.00959","longitude":"113.03456"},
{"latitude":"42.20194","longitude":"22.33194","pincode":"1333"},
{"latitude":"32.0837","longitude":"35.18079"},
{"latitude":"4.8543","longitude":"-73.04003","pincode":"855058"},
{"latitude":"-14.47389","longitude":"-48.45972","pincode":"76420-000"},
{"latitude":"44.94309","longitude":"34.19727"},
{"latitude":"39.74391","longitude":"113.64894"},
{"latitude":"9.5918","longitude":"124.0958","pincode":"6304"},
{"latitude":"-29.58274","longitude":"26.66511","pincode":"9940"},
{"latitude":"51.81376","longitude":"19.96877","pincode":"95-047"},
{"latitude":"-22.95194","longitude":"-46.54194","pincode":"12900-000"},
{"latitude":"-10.1663","longitude":"123.5777"},
{"latitude":"52.6265","longitude":"16.44988","pincode":"02-072"},
{"latitude":"50.16294","longitude":"17.57481","pincode":"793 95"},
{"latitude":"22.99376","longitude":"114.71311"},
{"latitude":"-7.0728","longitude":"112.4799"},
{"latitude":"45.07639","longitude":"15.36806","pincode":"47304"},
{"latitude":"4.74851","longitude":"-6.6363"},
{"latitude":"-27.08966","longitude":"-61.08161","pincode":"3722"},
{"latitude":"50.633","longitude":"3.0586","pincode":"59002 CEDEX"},
{"latitude":"-12.29292","longitude":"33.1782"},
{"latitude":"14.74495","longitude":"121.64953","pincode":"4336"},
{"latitude":"51.54676","longitude":"20.97479","pincode":"26-806"},
{"latitude":"7.61786","longitude":"100.07792","pincode":"86000"},
{"latitude":"-6.9116","longitude":"111.4612"},
{"latitude":"27.40043","longitude":"115.00099"},
{"latitude":"4.57583","longitude":"-75.97389","pincode":"762507"},
{"latitude":"31.13454","longitude":"120.30542"},
{"latitude":"55.24556","longitude":"42.20889","pincode":"607040"},
{"latitude":"-7.4374","longitude":"107.8354"},
{"latitude":"60.2976","longitude":"5.3308","pincode":"5857"},
{"latitude":"-7.2605","longitude":"107.8547"},
{"latitude":"-6.9246","longitude":"111.4504"},
{"latitude":"37.22417","longitude":"67.27833"},
{"latitude":"-8.2693","longitude":"112.5218"},
{"latitude":"30.20945","longitude":"114.82338"},
{"latitude":"39.08446","longitude":"112.19119"},
{"latitude":"48.9","longitude":"2.45","pincode":"93005 CEDEX"},
{"latitude":"40.85","longitude":"-7.95","pincode":"3630-139"},
{"latitude":"11.51917","longitude":"122.75722","pincode":"5815"},
{"latitude":"43.76667","longitude":"26.51667","pincode":"7319"},
{"latitude":"55.6759","longitude":"12.5655","pincode":"1656"},
{"latitude":"46.84842","longitude":"34.38044"},
{"latitude":"-8.287","longitude":"115.39"},
{"latitude":"-7.2187","longitude":"107.9367"},
{"latitude":"30.28838","longitude":"106.47032"},
{"latitude":"28.1147","longitude":"-82.3678","pincode":"33647"},
{"latitude":"-28.2925","longitude":"-53.50167","pincode":"98280-000"},
{"latitude":"52.3666","longitude":"4.9027","pincode":"1079"},
{"latitude":"43.5304","longitude":"1.536","pincode":"31678 CEDEX"},
{"latitude":"21.98238","longitude":"112.48862"},
{"latitude":"-7.1406","longitude":"107.0033"},
{"latitude":"29.03416","longitude":"89.24829"},
{"latitude":"46.6667","longitude":"-1.4333","pincode":"85928 CEDEX 9"},
{"latitude":"49.3777","longitude":"37.62136"},
{"latitude":"50.09693","longitude":"25.72459"},
{"latitude":"4.8797","longitude":"95.401"},
{"latitude":"35.51667","longitude":"140.31667","pincode":"299-4128"},
{"latitude":"-16.02861","longitude":"-73.17056"},
{"latitude":"-8.00635","longitude":"112.76085"},
{"latitude":"32.0493","longitude":"112.90305"},
{"latitude":"45.33528","longitude":"42.85472","pincode":"356537"},
{"latitude":"-6.7422","longitude":"111.3587"},
{"latitude":"43.90451","longitude":"12.42142","pincode":"47894"},
{"latitude":"42.8","longitude":"27.28333","pincode":"8542"},
{"latitude":"13.2093","longitude":"123.6761","pincode":"4501"},
{"latitude":"46.6667","longitude":"-1.4333","pincode":"85021 CEDEX"},
{"latitude":"22.54352","longitude":"-73.8778"},
{"latitude":"40.71069","longitude":"140.59048","pincode":"953-0062"},
{"latitude":"35.00856","longitude":"132.2257","pincode":"699-3162"},
{"latitude":"25.42194","longitude":"112.3725"},
{"latitude":"44.6333","longitude":"41.9444","pincode":"357128"},
{"latitude":"15.01667","longitude":"-87.93333"},
{"latitude":"37.96667","longitude":"23.65"},
{"latitude":"25.4961","longitude":"118.56431"},
{"latitude":"14.00412","longitude":"99.54832","pincode":"31110"},
{"latitude":"36.8065","longitude":"127.1522"},
{"latitude":"48.8667","longitude":"2.7167","pincode":"77404 CEDEX"},
{"latitude":"9.18052","longitude":"7.17933"},
{"latitude":"43.78882","longitude":"18.16049"},
{"latitude":"24.39501","longitude":"114.93462"},
{"latitude":"34.98333","longitude":"136.98333","pincode":"969-1619"},
{"latitude":"-14.18137","longitude":"-71.1407"},
{"latitude":"36.8787","longitude":"-76.2604","pincode":"23509"},
{"latitude":"-7.0877","longitude":"108.2815"},
{"latitude":"-25.41667","longitude":"25.55"},
{"latitude":"13.75398","longitude":"100.50144","pincode":"11130"},
{"latitude":"-6.3965","longitude":"105.9693"},
{"latitude":"36.40265","longitude":"138.28161","pincode":"963-5343"},
{"latitude":"37.49753","longitude":"105.6765"},
{"latitude":"40.7543","longitude":"-73.9798","pincode":"10175"},
{"latitude":"13.3593","longitude":"123.3898","pincode":"6525"},
{"latitude":"11.4788","longitude":"124.5542","pincode":"5507"},
{"latitude":"5.2571","longitude":"96.0565"},
{"latitude":"36.1","longitude":"137.96667","pincode":"399-0746"},
{"latitude":"-8.4003","longitude":"114.2681"},
{"latitude":"45.37139","longitude":"141.82111","pincode":"521-1342"},
{"latitude":"39.9765","longitude":"-8.5841","pincode":"2420-334"},
{"latitude":"8.65462","longitude":"117.5104","pincode":"1151"},
{"latitude":"-27.09806","longitude":"-48.9175","pincode":"88350-000"},
{"latitude":"-8.109","longitude":"111.9764"},
{"latitude":"52.2017","longitude":"-0.8852","pincode":"NN4"},
{"latitude":"-27.20841","longitude":"26.94855","pincode":"9521"},
{"latitude":"28.51153","longitude":"121.36086"},
{"latitude":"36.2311","longitude":"38.02172"},
{"latitude":"22.43333","longitude":"41.75829"},
{"latitude":"41.39756","longitude":"128.17873"},
{"latitude":"45.60389","longitude":"17.87028","pincode":"33514"},
{"latitude":"45.1907","longitude":"-93.3021","pincode":"55448"},
{"latitude":"42.36194","longitude":"19.44417"},
{"latitude":"48.8322","longitude":"2.3561","pincode":"75623 CEDEX 13"},
{"latitude":"34.35166","longitude":"109.31878"},
{"latitude":"50.92525","longitude":"117.93773","pincode":"356024"},
{"latitude":"5.4179","longitude":"100.3296","pincode":"10840"},
{"latitude":"19.62748","longitude":"-70.27772","pincode":"11203"},
{"latitude":"13.86075","longitude":"100.51477","pincode":"11120"},
{"latitude":"41.4611","longitude":"-8.4389","pincode":"4775-174"},
{"latitude":"43.57383","longitude":"45.5209","pincode":"366128"},
{"latitude":"13.96242","longitude":"107.84484"},
{"latitude":"32.74518","longitude":"111.25927"},
{"latitude":"59.3326","longitude":"18.0649","pincode":"131 88"},
{"latitude":"0.9592","longitude":"-79.65397"},
{"latitude":"11.04417","longitude":"124.55056","pincode":"6612"},
{"latitude":"-22.74194","longitude":"-46.90139","pincode":"13920-000"},
{"latitude":"3.1071","longitude":"101.6083","pincode":"46781"},
{"latitude":"-7.2456","longitude":"106.9814"},
{"latitude":"40.81902","longitude":"22.41902"},
{"latitude":"40.87361","longitude":"71.10889"},
{"latitude":"22.06192","longitude":"110.78902"},
{"latitude":"50.74694","longitude":"21.65783","pincode":"27-612"},
{"latitude":"-47.2557","longitude":"-72.5695"},
{"latitude":"-7.2447","longitude":"107.9085"},
{"latitude":"-12.13333","longitude":"-74.68333"},
{"latitude":"7.21626","longitude":"7.56022"},
{"latitude":"29.71876","longitude":"120.24233"},
{"latitude":"31.96639","longitude":"121.54278"},
{"latitude":"-4.91167","longitude":"-80.96"},
{"latitude":"39.31583","longitude":"112.4225"},
{"latitude":"40.2842","longitude":"-3.7941","pincode":"28944"},
{"latitude":"9.5918","longitude":"124.0958","pincode":"6304"},
{"latitude":"-27.59444","longitude":"-48.60694","pincode":"13000-000"},
{"latitude":"13.4375","longitude":"121.0193","pincode":"5202"},
{"latitude":"55.60859","longitude":"38.86109","pincode":"142641"},
{"latitude":"36.46667","longitude":"140.1","pincode":"321-4217"},
{"latitude":"58.4486","longitude":"14.8897","pincode":"592 40"},
{"latitude":"-6.907","longitude":"114.0174"},
{"latitude":"41.6552","longitude":"-4.7237","pincode":"47071"},
{"latitude":"22.38124","longitude":"112.68492"},
{"latitude":"13.13452","longitude":"43.78636"},
{"latitude":"53.9096","longitude":"37.736","pincode":"102042"},
{"latitude":"54.26684","longitude":"-110.73505","pincode":"T9N"},
{"latitude":"32.60073","longitude":"95.3043"},
{"latitude":"12.25186","longitude":"121.11251","pincode":"6417"},
{"latitude":"63.4474","longitude":"10.4448","pincode":"7440"},
{"latitude":"49.0389","longitude":"2.077","pincode":"95046 CEDEX 1"},
{"latitude":"49.5194","longitude":"5.7688","pincode":"54412 CEDEX"},
{"latitude":"-7.3249","longitude":"108.8004"},
{"latitude":"45.04832","longitude":"39.65143","pincode":"385331"},
{"latitude":"31.62015","longitude":"120.29206"},
{"latitude":"40.9167","longitude":"-8.6","pincode":"3885-705"},
{"latitude":"-33.36667","longitude":"-56.48333"},
{"latitude":"49.81566","longitude":"15.53584","pincode":"783 22"},
{"latitude":"-6.9547","longitude":"113.7802"},
{"latitude":"52.4385","longitude":"4.8264","pincode":"1509"},
{"latitude":"47.61578","longitude":"125.03608"},
{"latitude":"50.5206","longitude":"26.24251"},
{"latitude":"-41.21667","longitude":"174.91667","pincode":"5042"},
{"latitude":"-7.1849","longitude":"111.5817"},
{"latitude":"-43.37832","longitude":"172.64013","pincode":"7644"},
{"latitude":"57.7072","longitude":"11.9668","pincode":"404 32"},
{"latitude":"29.0825","longitude":"48.13028"},
{"latitude":"3.8","longitude":"10.13333"},
{"latitude":"15.5982","longitude":"120.724","pincode":"2312"},
{"latitude":"13.9156","longitude":"120.84401","pincode":"4212"},
{"latitude":"52.1491","longitude":"34.4926","pincode":"242456"},
{"latitude":"44.17671","longitude":"129.33538"},
{"latitude":"-8.51444","longitude":"-35.37778","pincode":"55520-000"},
{"latitude":"57.4872","longitude":"12.0761","pincode":"434 43"},
{"latitude":"-3.22083","longitude":"-64.80417","pincode":"69475-000"},
{"latitude":"-3.79278","longitude":"-39.27028","pincode":"62640-000"},
{"latitude":"12.78471","longitude":"44.9802"},
{"latitude":"-7.1568","longitude":"108.0065"},
{"latitude":"14.93333","longitude":"-91.81667","pincode":"12027"},
{"latitude":"48.14973","longitude":"24.27994"},
{"latitude":"-6.8956","longitude":"112.2178"},
{"latitude":"5.37073","longitude":"-76.6044","pincode":"272027"},
{"latitude":"32.42228","longitude":"35.38476"},
{"latitude":"29.2476","longitude":"107.28443"},
{"latitude":"41.33373","longitude":"112.45453"},
{"latitude":"14.3103","longitude":"122.7229","pincode":"4606"},
{"latitude":"0.81217","longitude":"124.65546"},
{"latitude":"-9.7913","longitude":"124.5766"},
{"latitude":"15.18613","longitude":"-23.59228"},
{"latitude":"10.14722","longitude":"124.15389","pincode":"6334"},
{"latitude":"46.16639","longitude":"15.92361","pincode":"49232"},
{"latitude":"-8.0014","longitude":"111.422"},
{"latitude":"48.8637","longitude":"2.3615","pincode":"75151 CEDEX 03"},
{"latitude":"48.8817","longitude":"2.3822","pincode":"75954 CEDEX 19"},
{"latitude":"40.77838","longitude":"122.08451"},
{"latitude":"-6.9039","longitude":"111.8897"},
{"latitude":"-6.9053","longitude":"109.5347"},
{"latitude":"55.5","longitude":"25.6","pincode":"28001"},
{"latitude":"24.78544","longitude":"118.46038"},
{"latitude":"39.55944","longitude":"21.84083"},
{"latitude":"55.1904","longitude":"30.2049"},
{"latitude":"39.2167","longitude":"-8.4958","pincode":"2100-309"},
{"latitude":"48.68333","longitude":"110.18333"},
{"latitude":"57.46931","longitude":"42.28431","pincode":"164020"},
{"latitude":"-20.99075","longitude":"27.33158"},
{"latitude":"-33.66386","longitude":"-70.92734"},
{"latitude":"43.34694","longitude":"44.6975","pincode":"386338"},
{"latitude":"38.8318","longitude":"-77.2888","pincode":"20195"},
{"latitude":"57.62987","longitude":"39.87368","pincode":"353827"},
{"latitude":"44.8404","longitude":"-0.5805","pincode":"33010 CEDEX"},
{"latitude":"45.12306","longitude":"42.5125","pincode":"356254"},
{"latitude":"-13.68333","longitude":"24.8"},
{"latitude":"56.4185","longitude":"61.9329","pincode":"623462"},
{"latitude":"7.95","longitude":"4.98333"},
{"latitude":"16.76384","longitude":"104.02626","pincode":"70170"},
{"latitude":"28.86066","longitude":"114.76434"},
{"latitude":"41.2208","longitude":"-8.4042","pincode":"4620-620"},
{"latitude":"28.49891","longitude":"118.27715"},
{"latitude":"7.4863","longitude":"80.3623","pincode":"60000"},
{"latitude":"19.396","longitude":"-99.6808","pincode":"56617"},
{"latitude":"29.62046","longitude":"106.762"},
{"latitude":"15.75","longitude":"-85.96667"},
{"latitude":"-7.23116","longitude":"12.8666"},
{"latitude":"-23.34278","longitude":"-57.05972"},
{"latitude":"-8.0944","longitude":"112.6377"},
{"latitude":"28.42341","longitude":"117.60854"},
{"latitude":"9.00814","longitude":"1.6654"},
{"latitude":"23.53701","longitude":"112.52846"},
{"latitude":"33.16635","longitude":"105.31344"},
{"latitude":"-7.6917","longitude":"108.5108"},
{"latitude":"64.66667","longitude":"25.1","pincode":"92401"},
{"latitude":"46.3434","longitude":"86.23456"},
{"latitude":"-7.3946","longitude":"106.7925"},
{"latitude":"-31.08042","longitude":"29.49522","pincode":"4821"},
{"latitude":"49.24993","longitude":"-55.04816","pincode":"M2K"},
{"latitude":"36.69736","longitude":"67.69826"},
{"latitude":"-7.3031","longitude":"108.1709"},
{"latitude":"33.90019","longitude":"112.87657"},
{"latitude":"58.6706","longitude":"17.1015","pincode":"613 22"},
{"latitude":"52.0575","longitude":"4.4931","pincode":"2720"},
{"latitude":"48.17882","longitude":"25.34855"},
{"latitude":"3.11911","longitude":"35.59727"},
{"latitude":"39.8025","longitude":"-7.8775","pincode":"6160-402"},
{"latitude":"27.91667","longitude":"118.55389"},
{"latitude":"-7.4301","longitude":"108.7146"},
{"latitude":"40.37907","longitude":"120.23317"},
{"latitude":"-2.5072","longitude":"102.054"},
{"latitude":"7.75849","longitude":"-76.65254","pincode":"057858"},
{"latitude":"-34.73361","longitude":"-56.03667"},
{"latitude":"31.32769","longitude":"118.87489"},
{"latitude":"-10.70833","longitude":"-38.18333","pincode":"49490-000"},
{"latitude":"38.03491","longitude":"23.73811"},
{"latitude":"41.91667","longitude":"118.66667"},
{"latitude":"-20.31833","longitude":"-48.31056","pincode":"14790-000"},
{"latitude":"34.4943","longitude":"108.93317"},
{"latitude":"28.80711","longitude":"108.09098"},
{"latitude":"36.0649","longitude":"69.13343"},
{"latitude":"32.6076","longitude":"-93.7526","pincode":"71137"},
{"latitude":"49.54083","longitude":"6.25972","pincode":"L-5687"},
{"latitude":"-19.55","longitude":"169.26667"},
{"latitude":"43.6109","longitude":"3.8772","pincode":"34186 CEDEX 4"},
{"latitude":"31.1957","longitude":"109.5301"},
{"latitude":"7.79139","longitude":"126.45333","pincode":"9220"},
{"latitude":"48.8537","longitude":"2.549","pincode":"93335 CEDEX"},
{"latitude":"-8.16139","longitude":"-70.76556","pincode":"69970-000"},
{"latitude":"15.48184","longitude":"120.77456","pincode":"2712"},
{"latitude":"30.50802","longitude":"105.57332"},
{"latitude":"-7.6616","longitude":"108.1266"},
{"latitude":"53.26244","longitude":"17.25574","pincode":"89-310"},
{"latitude":"4.68333","longitude":"12.36667"},
{"latitude":"4.76279","longitude":"-76.221","pincode":"761508"},
{"latitude":"41.1609","longitude":"-8.3136","pincode":"4625-644"},
{"latitude":"7.4534","longitude":"-2.58404"},
{"latitude":"42.04444","longitude":"19.97056"},
{"latitude":"6.0403","longitude":"102.1465","pincode":"17020"},
{"latitude":"51.8001","longitude":"-114.63532","pincode":"L9H"},
{"latitude":"29.60195","longitude":"111.6467"},
{"latitude":"14.8","longitude":"-91.36667","pincode":"07006"},
{"latitude":"53.72226","longitude":"18.49051","pincode":"87-340"},
{"latitude":"8.8225","longitude":"125.6975","pincode":"8503"},
{"latitude":"29.81722","longitude":"120.11389"},
{"latitude":"37.2829","longitude":"-5.9209","pincode":"41703"},
{"latitude":"39.26917","longitude":"117.97556"},
{"latitude":"31.57112","longitude":"35.23227"},
{"latitude":"-6.64472","longitude":"-51.995","pincode":"68380-000"},
{"latitude":"15.11","longitude":"36.6575"},
{"latitude":"59.37722","longitude":"28.19028"},
{"latitude":"13.9903","longitude":"121.139","pincode":"5614"},
{"latitude":"35.10922","longitude":"69.43341"},
{"latitude":"33.73333","longitude":"135.98333","pincode":"649-5313"},
{"latitude":"2.59179","longitude":"98.02978"},
{"latitude":"49.05","longitude":"3.95","pincode":"51209 CEDEX"},
{"latitude":"-32.16351","longitude":"-63.89157","pincode":"5935"},
{"latitude":"38.7196","longitude":"-90.27","pincode":"63136"},
{"latitude":"45.53946","longitude":"20.22902"},
{"latitude":"30.72816","longitude":"94.37118"},
{"latitude":"55.7","longitude":"37.75","pincode":"352812"},
{"latitude":"28.72151","longitude":"116.86398"},
{"latitude":"-8.3539","longitude":"123.226"},
{"latitude":"-8.0657","longitude":"111.9025"},
{"latitude":"-28.08561","longitude":"27.13814","pincode":"9450"},
{"latitude":"58.7238","longitude":"11.3259","pincode":"457 23"},
{"latitude":"15.7","longitude":"-87.86667"},
{"latitude":"44.8404","longitude":"-0.5805","pincode":"33070 CEDEX"},
{"latitude":"44.578","longitude":"34.34464"},
{"latitude":"26.35045","longitude":"116.84618"},
{"latitude":"20.9625","longitude":"-75.71861"},
{"latitude":"55.60686","longitude":"37.51991","pincode":"391237"},
{"latitude":"38.04312","longitude":"23.97749"},
{"latitude":"28.90763","longitude":"121.19763"},
{"latitude":"-33.74556","longitude":"-61.96884","pincode":"2600"},
{"latitude":"-2.8451","longitude":"30.3414"},
{"latitude":"-27.31667","longitude":"-61.28333","pincode":"3732"},
{"latitude":"41.15","longitude":"-8.0333","pincode":"4640-107"},
{"latitude":"8.65972","longitude":"-75.12809","pincode":"704038"},
{"latitude":"-7.1267","longitude":"107.9903"},
{"latitude":"-4.42472","longitude":"-41.45861","pincode":"64255-000"},
{"latitude":"49.31947","longitude":"-124.31575","pincode":"V9P"},
{"latitude":"49.05717","longitude":"124.11328"},
{"latitude":"31.85247","longitude":"35.93928"},
{"latitude":"34.38678","longitude":"109.24928"},
{"latitude":"40.785","longitude":"20.70611"},
{"latitude":"48.05","longitude":"96.25"},
{"latitude":"15.08333","longitude":"-91.88333","pincode":"12009"},
{"latitude":"15.3089","longitude":"-90.23599","pincode":"16005"},
{"latitude":"53.26283","longitude":"19.82663","pincode":"13-230"},
{"latitude":"-35.15282","longitude":"-65.94602","pincode":"2529"},
{"latitude":"59.1405","longitude":"9.6561","pincode":"3912"},
{"latitude":"41.3394","longitude":"-8.6167","pincode":"4785-132"},
{"latitude":"40.2108","longitude":"0.0272","pincode":"12100"},
{"latitude":"34.69139","longitude":"108.13972"},
{"latitude":"-9.7546","longitude":"120.584"},
{"latitude":"45.91815","longitude":"85.47453"},
{"latitude":"50.24501","longitude":"20.77669","pincode":"33-260"},
{"latitude":"-7.2013","longitude":"108.3692"},
{"latitude":"26.09899","longitude":"119.22171"},
{"latitude":"30.336","longitude":"118.24425"},
{"latitude":"63.2909","longitude":"18.7153","pincode":"891 86"},
{"latitude":"26.36832","longitude":"118.37469"},
{"latitude":"-2.68333","longitude":"33"},
{"latitude":"29.24032","longitude":"119.8932"},
{"latitude":"50.633","longitude":"3.0586","pincode":"59784 CEDEX 9"},
{"latitude":"14.2277","longitude":"121.3292","pincode":"6406"},
{"latitude":"7.01944","longitude":"122.20111","pincode":"6503"},
{"latitude":"36.26468","longitude":"68.01551"},
{"latitude":"-9.6728","longitude":"120.3409"},
{"latitude":"16.63722","longitude":"120.44556","pincode":"2512"},
{"latitude":"58.3807","longitude":"12.3234","pincode":"462 22"},
{"latitude":"9.6006","longitude":"124.0142","pincode":"6202"},
{"latitude":"30.45413","longitude":"119.75454"},
{"latitude":"15.03333","longitude":"-88.96667"},
{"latitude":"24.9","longitude":"114.78333"},
{"latitude":"39.81582","longitude":"77.36649"},
{"latitude":"-8.0979","longitude":"112.7161"},
{"latitude":"43.61667","longitude":"27.11667","pincode":"9960"},
{"latitude":"40.25","longitude":"-8.6833","pincode":"3140-480"},
{"latitude":"23.0304","longitude":"115.84732"},
{"latitude":"49.52143","longitude":"22.9367"},
{"latitude":"45.68017","longitude":"129.73585"},
{"latitude":"29.65438","longitude":"111.23565"},
{"latitude":"45.20889","longitude":"14.55639","pincode":"51513"},
{"latitude":"14.51667","longitude":"-87.4"},
{"latitude":"40.27178","longitude":"140.55756","pincode":"270-0105"},
{"latitude":"57.7584","longitude":"16.6373","pincode":"593 62"},
{"latitude":"14.42642","longitude":"102.46058","pincode":"30330"},
{"latitude":"38.45373","longitude":"70.78902"},
{"latitude":"20.78733","longitude":"121.84178","pincode":"3905"},
{"latitude":"48.58876","longitude":"95.43257"},
{"latitude":"55.94958","longitude":"37.50183","pincode":"141707"},
{"latitude":"22.15","longitude":"107.23333"},
{"latitude":"-7.2681","longitude":"108.1382"},
{"latitude":"-8.169","longitude":"113.6489"},
{"latitude":"14.35659","longitude":"45.02244"},
{"latitude":"11.74697","longitude":"11.96083"},
{"latitude":"39.86722","longitude":"126.03028"},
{"latitude":"32.62639","longitude":"116.99694"},
{"latitude":"31.96236","longitude":"35.06553"},
{"latitude":"37.07484","longitude":"120.46251"},
{"latitude":"24.50178","longitude":"113.68078"},
{"latitude":"7.215","longitude":"126.53972","pincode":"1105"},
{"latitude":"7.25256","longitude":"5.19312"},
{"latitude":"24.68501","longitude":"88.15638","pincode":"2231"},
{"latitude":"22.06667","longitude":"111.5"},
{"latitude":"24.49782","longitude":"116.41615"},
{"latitude":"47.68065","longitude":"-68.8781","pincode":"T9H"},
{"latitude":"10.69306","longitude":"122.47361","pincode":"5020"},
{"latitude":"46.03034","longitude":"29.93614"},
{"latitude":"14.9","longitude":"-86.2"},
{"latitude":"20.2217","longitude":"-97.5611","pincode":"92880"},
{"latitude":"9.81417","longitude":"11.30889"},
{"latitude":"41.1185","longitude":"-8.4416","pincode":"4515-465"},
{"latitude":"-8.28333","longitude":"-35.03333","pincode":"95335-000"},
{"latitude":"-7.072","longitude":"107.9265"},
{"latitude":"24.66667","longitude":"101.63333"},
{"latitude":"47.3167","longitude":"5.0167","pincode":"21051 CEDEX"},
{"latitude":"5.4179","longitude":"100.3296","pincode":"10740"},
{"latitude":"54.65471","longitude":"32.18325","pincode":"214512"},
{"latitude":"37.44056","longitude":"129.17083"},
{"latitude":"45.93583","longitude":"16.78333","pincode":"43211"},
{"latitude":"39.83167","longitude":"127.61861"},
{"latitude":"50.27975","longitude":"31.76246"},
{"latitude":"38.80998","longitude":"22.64544"},
{"latitude":"-7.0496","longitude":"113.4945"},
{"latitude":"-6.562","longitude":"105.9917"},
{"latitude":"35.7977","longitude":"-78.6253","pincode":"27690"},
{"latitude":"36.16314","longitude":"106.41469"},
{"latitude":"10.9493","longitude":"122.5061","pincode":"5034"},
{"latitude":"15.25333","longitude":"44.02472"},
{"latitude":"37.80396","longitude":"69.64416"},
{"latitude":"23.02954","longitude":"114.94661"},
{"latitude":"36.76667","longitude":"140.35","pincode":"960-0645"},
{"latitude":"34.74767","longitude":"69.04784"},
{"latitude":"5.88969","longitude":"95.31644"},
{"latitude":"50.90265","longitude":"17.83751","pincode":"46-034"},
{"latitude":"34.79936","longitude":"135.35697","pincode":"666-0137"},
{"latitude":"22.27085","longitude":"109.97433"},
{"latitude":"27.51947","longitude":"117.33491"},
{"latitude":"31.27127","longitude":"111.9831"},
{"latitude":"30.12303","longitude":"31.13571"},
{"latitude":"39.9667","longitude":"-8.7167","pincode":"3105-222"},
{"latitude":"43.76833","longitude":"59.02139"},
{"latitude":"-8.585","longitude":"116.4539"},
{"latitude":"17.8508","longitude":"103.56939","pincode":"47140"},
{"latitude":"-8.5126","longitude":"115.2399"},
{"latitude":"-8.1245","longitude":"112.5734"},
{"latitude":"-20.86667","longitude":"27.25"},
{"latitude":"41.3083","longitude":"-8.6667","pincode":"4640-580"},
{"latitude":"42.4584","longitude":"14.2028","pincode":"65129"},
{"latitude":"28.3135","longitude":"115.08198"},
{"latitude":"-33.04752","longitude":"-71.44249"},
{"latitude":"-7.2991","longitude":"107.4955"},
{"latitude":"43.3","longitude":"-0.3667","pincode":"64058 CEDEX 9"},
{"latitude":"34.09914","longitude":"-4.55219"},
{"latitude":"55.6759","longitude":"12.5655","pincode":"1738"},
{"latitude":"37.22417","longitude":"67.27833"},
{"latitude":"6.33732","longitude":"-75.55795","pincode":"051059"},
{"latitude":"46.79489","longitude":"29.98684"},
{"latitude":"9.95091","longitude":"-84.08503","pincode":"11305"},
{"latitude":"10.83472","longitude":"124.99528","pincode":"6509"},
{"latitude":"39.36028","longitude":"112.37667"},
{"latitude":"30.02317","longitude":"118.78334"},
{"latitude":"26.4116","longitude":"-80.0928","pincode":"33487"},
{"latitude":"51.8126","longitude":"26.12902"},
{"latitude":"-9.9621","longitude":"124.5329"},
{"latitude":"49.01256","longitude":"31.10125"},
{"latitude":"21.3068","longitude":"-157.8607","pincode":"96840"},
{"latitude":"34.40961","longitude":"108.34052"},
{"latitude":"8.53153","longitude":"126.24117","pincode":"8308"},
{"latitude":"39.1425","longitude":"126.09611"},
{"latitude":"30.1764","longitude":"121.2457"},
{"latitude":"41.5292","longitude":"-8.3125","pincode":"4755-522"},
{"latitude":"-32.6978","longitude":"-62.10672","pincode":"2580"},
{"latitude":"37.83574","longitude":"65.21058"},
{"latitude":"28.18715","longitude":"109.47261"},
{"latitude":"30.91291","longitude":"115.93515"},
{"latitude":"47.75","longitude":"-3.3667","pincode":"56109 CEDEX"},
{"latitude":"56.0755","longitude":"14.4696","pincode":"295 37"},
{"latitude":"34.39627","longitude":"132.45937","pincode":"736-0089"},
{"latitude":"7.53941","longitude":"-72.77238","pincode":"544529"},
{"latitude":"41.2167","longitude":"-8.35","pincode":"4580-290"},
{"latitude":"43.15423","longitude":"19.12325"},
{"latitude":"29.10678","longitude":"119.64421"},
{"latitude":"34.00582","longitude":"71.99773","pincode":"43261"},
{"latitude":"26.12408","longitude":"113.12852"},
{"latitude":"-5.60075","longitude":"105.1387"},
{"latitude":"-8.5535","longitude":"116.4198"},
{"latitude":"46.3167","longitude":"17.8167","pincode":"7404"},
{"latitude":"-8.6034","longitude":"116.1271"},
{"latitude":"21.57323","longitude":"110.49747"},
{"latitude":"26.62741","longitude":"115.96935"},
{"latitude":"49.76389","longitude":"5.85722","pincode":"L-8531"},
{"latitude":"49.0241","longitude":"1.1508","pincode":"27036 CEDEX"},
{"latitude":"61.56667","longitude":"25.18333","pincode":"17801"},
{"latitude":"25.10147","longitude":"89.02734","pincode":"1510"},
{"latitude":"48.80381","longitude":"32.4046"},
{"latitude":"-7.1679","longitude":"107.9838"},
{"latitude":"11.5787","longitude":"122.3583","pincode":"5610"},
{"latitude":"45.4948","longitude":"41.22075","pincode":"356003"},
{"latitude":"38.7167","longitude":"-9.4333","pincode":"2755-025"},
{"latitude":"24.68785","longitude":"114.9893"},
{"latitude":"6.8964","longitude":"79.9181","pincode":"10600"},
{"latitude":"13.42309","longitude":"8.47485"},
{"latitude":"35.49333","longitude":"128.74889"},
{"latitude":"47.72559","longitude":"126.96875"},
{"latitude":"32.2519","longitude":"-110.82","pincode":"85715"},
{"latitude":"5.96222","longitude":"124.66972","pincode":"1210"},
{"latitude":"37.1101","longitude":"-8.4337","pincode":"8400-603"},
{"latitude":"57.7243","longitude":"11.7701","pincode":"423 43"},
{"latitude":"48.95006","longitude":"16.25931","pincode":"671 71"},
{"latitude":"23.20194","longitude":"114.39185"},
{"latitude":"49.12377","longitude":"17.94001","pincode":"592 31"},
{"latitude":"43.1167","longitude":"5.9333","pincode":"83092 CEDEX"},
{"latitude":"26.12859","longitude":"115.66555"},
{"latitude":"-6.8873","longitude":"112.9872"},
{"latitude":"-7.3461","longitude":"108.2814"},
{"latitude":"35.36674","longitude":"36.39359"},
{"latitude":"59.88333","longitude":"29.9","pincode":"198804"},
{"latitude":"-16.2225","longitude":"-41.47694","pincode":"39620-000"},
{"latitude":"32.36477","longitude":"119.36952"},
{"latitude":"48.5834","longitude":"7.743","pincode":"67098 CEDEX 2"},
{"latitude":"45.40008","longitude":"-71.89908","pincode":"J1K"},
{"latitude":"29.00279","longitude":"114.18672"},
{"latitude":"30.59329","longitude":"115.63"},
{"latitude":"37.16939","longitude":"10.19064"},
{"latitude":"5.06667","longitude":"-74.56667","pincode":"252257"},
{"latitude":"15.33433","longitude":"120.62619","pincode":"6711"},
{"latitude":"-7.13333","longitude":"-77.88333"},
{"latitude":"51.81376","longitude":"19.96877","pincode":"95-047"},
{"latitude":"-35.53777","longitude":"-71.487"},
{"latitude":"48.8","longitude":"2.1333","pincode":"78020 CEDEX"},
{"latitude":"29.29842","longitude":"80.58059"},
{"latitude":"59.4032","longitude":"17.9448","pincode":"164 40"},
{"latitude":"58.145","longitude":"7.9923","pincode":"4663"},
{"latitude":"39.0964","longitude":"-8.7182","pincode":"2120-185"},
{"latitude":"46.4206","longitude":"44.2591","pincode":"363704"},
{"latitude":"-8.1395","longitude":"115.1031"},
{"latitude":"37.59361","longitude":"22.04417"},
{"latitude":"59.9283","longitude":"10.8525","pincode":"0614"},
{"latitude":"1.78931","longitude":"114.9013"},
{"pincode":"9100-153"},
{"latitude":"6.0403","longitude":"102.1465","pincode":"17020"},
{"latitude":"37.91667","longitude":"21.23333"},
{"latitude":"36.77996","longitude":"110.63956"},
{"latitude":"44.95214","longitude":"18.59869"},
{"latitude":"12.5006","longitude":"124.2849","pincode":"6405"},
{"latitude":"9.94719","longitude":"106.34225"},
{"latitude":"32.64562","longitude":"-5.91783"},
{"latitude":"11.28333","longitude":"123","pincode":"5014"},
{"latitude":"-22.52667","longitude":"-43.73278","pincode":"26700-000"},
{"latitude":"52.92401","longitude":"20.96732","pincode":"36-007"},
{"latitude":"28.38833","longitude":"106.85667"},
{"latitude":"43.7251","longitude":"-80.96723","pincode":"E6J"},
{"latitude":"21.0642","longitude":"-103.0428","pincode":"47336"},
{"latitude":"22.65948","longitude":"112.36626"},
{"latitude":"35.53333","longitude":"135.18333","pincode":"626-0077"},
{"latitude":"46.01162","longitude":"127.71875"},
{"latitude":"-22.39028","longitude":"-44.96667","pincode":"37460-000"},
{"latitude":"49.79977","longitude":"22.10029","pincode":"36-231"},
{"latitude":"51.0671","longitude":"15.37228","pincode":"59-830"},
{"latitude":"62.5","longitude":"25.45","pincode":"41231"},
{"latitude":"40.3667","longitude":"-8.475","pincode":"3060-323"},
{"latitude":"36.56253","longitude":"36.73828"},
{"latitude":"51.71472","longitude":"94.45338","pincode":"667999"},
{"latitude":"49.07515","longitude":"17.43338","pincode":"788 32"},
{"latitude":"26.33808","longitude":"116.55515"},
{"latitude":"48.39037","longitude":"28.41092"},
{"latitude":"36.72444","longitude":"101.18667"},
{"latitude":"28.3","longitude":"88.53333"},
{"latitude":"52.7792","longitude":"6.9069","pincode":"7814"},
{"latitude":"28.98396","longitude":"115.63477"},
{"latitude":"38.76829","longitude":"76.31012"},
{"latitude":"9.34222","longitude":"-79.80111"},
{"latitude":"37.98642","longitude":"23.79347"},
{"latitude":"-18.71056","longitude":"-40.40056","pincode":"29830-000"},
{"latitude":"10.96667","longitude":"122.65","pincode":"5035"},
{"latitude":"13.40025","longitude":"108.43504"},
{"latitude":"7.17242","longitude":"-2.1028"},
{"latitude":"36.65762","longitude":"111.56643"},
{"latitude":"47.87809","longitude":"86.98955"},
{"latitude":"24.3276","longitude":"-99.0725","pincode":"87395"},
{"latitude":"45.6231","longitude":"-122.5767","pincode":"98664"},
{"latitude":"48.22275","longitude":"126.50704"},
{"latitude":"50.59648","longitude":"17.38243","pincode":"48-320"},
{"latitude":"14.48333","longitude":"-91.51667","pincode":"10007"},
{"latitude":"36.06868","longitude":"139.51684","pincode":"369-0137"},
{"latitude":"28.8438","longitude":"52.5707"},
{"latitude":"-7.16778","longitude":"112.71917"},
{"latitude":"37.67513","longitude":"21.44102"},
{"latitude":"12.48811","longitude":"106.01879"},
{"latitude":"5.22724","longitude":"6.19238"},
{"latitude":"-8.2236","longitude":"113.2362"},
{"latitude":"-8.5408","longitude":"115.4425"},
{"latitude":"59.3666","longitude":"16.5077","pincode":"632 32"},
{"latitude":"30.81386","longitude":"108.37326"},
{"latitude":"-7.6491","longitude":"114.0464"},
{"latitude":"14.46217","longitude":"100.54478","pincode":"13220"},
{"latitude":"25.04992","longitude":"61.7468","pincode":"28360"},
{"latitude":"41.74194","longitude":"125.38944"},
{"latitude":"49.57205","longitude":"17.17954","pincode":"783 47"},
{"latitude":"-8.1904","longitude":"124.7748"},
{"latitude":"35.13715","longitude":"25.00131"},
{"latitude":"5.75979","longitude":"-72.82583","pincode":"152047"},
{"latitude":"-16.11667","longitude":"23.26667"},
{"latitude":"40.1315","longitude":"-8.1202","pincode":"3330-304"},
{"latitude":"39.49789","longitude":"20.27608"},
{"latitude":"43.0123","longitude":"-76.1452","pincode":"13205"},
{"latitude":"-11.82167","longitude":"43.27806"},
{"latitude":"59.36","longitude":"18.0009","pincode":"170 66"},
{"latitude":"-34.76333","longitude":"-56.38528"},
{"latitude":"44.97839","longitude":"17.90779"},
{"latitude":"41.51444","longitude":"20.96333","pincode":"6262"},
{"latitude":"-19.00083","longitude":"-46.31611","pincode":"38840-000"},
{"latitude":"30.33241","longitude":"-5.8384"},
{"latitude":"49.62556","longitude":"16.75185","pincode":"569 44"},
{"latitude":"26.1486","longitude":"119.10216"},
{"latitude":"40.78373","longitude":"22.088"},
{"latitude":"33.22375","longitude":"132.56001","pincode":"798-1354"},
{"latitude":"-8.892","longitude":"116.2776"},
{"latitude":"31.37952","longitude":"34.91246"},
{"latitude":"-2.67364","longitude":"-79.6183"},
{"latitude":"45.70833","longitude":"19.66528"},
{"latitude":"45.7485","longitude":"4.8467","pincode":"69469 CEDEX 06"},
{"latitude":"34.38678","longitude":"109.24928"},
{"latitude":"38.38333","longitude":"82"},
{"latitude":"28.64295","longitude":"114.86605"},
{"latitude":"38.9167","longitude":"-9.2667","pincode":"2665-105"},
{"latitude":"41.3888","longitude":"2.159","pincode":"08075"},
{"latitude":"37.60157","longitude":"108.79702"},
{"latitude":"37.87472","longitude":"127.73417"},
{"latitude":"14.66278","longitude":"-16.3925"},
{"latitude":"50.97054","longitude":"15.38567","pincode":"59-630"},
{"latitude":"44.42446","longitude":"105.32078"},
{"latitude":"36.1136","longitude":"128.336"},
{"latitude":"29.66295","longitude":"121.40226"},
{"latitude":"-29.11761","longitude":"-59.65834","pincode":"5212"},
{"latitude":"48.8412","longitude":"2.3003","pincode":"75737 CEDEX 15"},
{"latitude":"-7.3689","longitude":"107.756"},
{"latitude":"46.14492","longitude":"30.52609"},
{"latitude":"-31.34377","longitude":"-64.33529","pincode":"4158"},
{"latitude":"53.1235","longitude":"18.00762","pincode":"85-980"},
{"latitude":"28.26689","longitude":"83.96851"},
{"latitude":"41.83333","longitude":"59.65"},
{"latitude":"30.4036","longitude":"-97.7526","pincode":"78759"},
{"latitude":"53.5904","longitude":"24.2478"},
{"latitude":"-7.61667","longitude":"110.68333"},
{"latitude":"28.22879","longitude":"116.54639"},
{"latitude":"49.63693","longitude":"17.65174","pincode":"753 62"},
{"latitude":"12.37813","longitude":"17.05876"},
{"latitude":"7.604","longitude":"126.1298","pincode":"8110"},
{"latitude":"-8.55861","longitude":"125.57361"},
{"latitude":"2.2665","longitude":"-75.80442","pincode":"414068"},
{"latitude":"11.2251","longitude":"122.8143","pincode":"5005"},
{"latitude":"-8.34722","longitude":"-77.38944"},
{"latitude":"-32.2879","longitude":"-63.35598","pincode":"5936"},
{"latitude":"-27.09625","longitude":"-54.89626","pincode":"3363"},
{"latitude":"53.12771","longitude":"-6.06347","pincode":"A63"},
{"latitude":"53.4122","longitude":"24.5387"},
{"latitude":"39.1333","longitude":"-9.1667","pincode":"2630-505"},
{"latitude":"29.29583","longitude":"48.07861"},
{"latitude":"29.29638","longitude":"109.71399"},
{"latitude":"-20.00639","longitude":"-45.97694","pincode":"38900-000"},
{"latitude":"7.24407","longitude":"-76.43564","pincode":"057428"},
{"latitude":"-1.83972","longitude":"31.65444"},
{"latitude":"15.15","longitude":"-88.68333"},
{"latitude":"19.25756","longitude":"101.71032"},
{"latitude":"38.1","longitude":"-8.7667","pincode":"7500-130"},
{"latitude":"45.65","longitude":"0.15","pincode":"16004 CEDEX"},
{"latitude":"35.94111","longitude":"139.85806","pincode":"999-3775"},
{"latitude":"59.26","longitude":"18.1167","pincode":"128 48"},
{"latitude":"-2.66667","longitude":"141.26667"},
{"latitude":"29.98352","longitude":"113.05065"},
{"latitude":"40.8702","longitude":"-73.8495","pincode":"10469"},
{"latitude":"12.58979","longitude":"6.57791"},
{"latitude":"6.87309","longitude":"38.44425"},
{"latitude":"38.0357","longitude":"-7.8036","pincode":"7875-354"},
{"latitude":"47.5","longitude":"19.0833","pincode":"1035"},
{"latitude":"52.00575","longitude":"127.67756","pincode":"676307"},
{"latitude":"24.88333","longitude":"68.81667","pincode":"72100"},
{"latitude":"25.74111","longitude":"112.32083"},
{"latitude":"29.54376","longitude":"111.24245"},
{"latitude":"34.83114","longitude":"109.14414"},
{"latitude":"15.30174","longitude":"-61.38808"},
{"latitude":"43.1122","longitude":"12.3888","pincode":"06124"},
{"latitude":"52.45861","longitude":"44.21689","pincode":"442895"},
{"latitude":"40.07583","longitude":"20.13889"},
{"latitude":"29.46301","longitude":"118.47292"},
{"latitude":"-28.29917","longitude":"-54.26306","pincode":"98800-000"},
{"latitude":"10.86225","longitude":"0.20762"},
{"latitude":"18.6556","longitude":"-96.8681","pincode":"93429"},
{"latitude":"53.62462","longitude":"55.95015","pincode":"142672"},
{"latitude":"-7.0558","longitude":"106.8946"},
{"latitude":"59.35","longitude":"17.9167","pincode":"167 31"},
{"latitude":"24.15678","longitude":"115.99191"},
{"latitude":"-7.699","longitude":"114.0296"},
{"latitude":"11.2962","longitude":"124.405","pincode":"6536"},
{"latitude":"29.12076","longitude":"115.1245"},
{"latitude":"-8.0381","longitude":"111.3975"},
{"latitude":"35.15","longitude":"139.06667","pincode":"259-0318"},
{"latitude":"26.7","longitude":"-101.3","pincode":"30560"},
{"latitude":"54.64043","longitude":"32.87811","pincode":"182296"},
{"latitude":"5.88333","longitude":"14.55"},
{"latitude":"18.7492","longitude":"-96.7989","pincode":"96684"},
{"latitude":"46.8167","longitude":"1.7","pincode":"36029 CEDEX"},
{"latitude":"43.49","longitude":"2.373","pincode":"81204 CEDEX"},
{"latitude":"8.1435","longitude":"140.394"},
{"latitude":"41.87833","longitude":"20.50472"},
{"latitude":"-33.14156","longitude":"-59.30966","pincode":"2840"},
{"latitude":"-32.17301","longitude":"-64.11406","pincode":"5850"},
{"latitude":"39.2011","longitude":"-8.9459","pincode":"2065-114"},
{"latitude":"54.30639","longitude":"-8.17611","pincode":"H16"},
{"latitude":"39.1583","longitude":"-9.2219","pincode":"2565-522"},
{"latitude":"14.95472","longitude":"120.89694","pincode":"3006"},
{"latitude":"13.71667","longitude":"123.05","pincode":"4407"},
{"latitude":"30.11165","longitude":"113.10551"},
{"latitude":"43.67556","longitude":"43.455","pincode":"361538"},
{"latitude":"35.01444","longitude":"58.78005"},
{"latitude":"43.08333","longitude":"129.76667"},
{"latitude":"17.4257","longitude":"102.56692","pincode":"14150"},
{"latitude":"50.1","longitude":"91.66667"},
{"latitude":"-11.72917","longitude":"-49.06861","pincode":"77400-000"},
{"latitude":"9.90488","longitude":"-84.10551","pincode":"11005"},
{"latitude":"-17.55","longitude":"-63.21667"},
{"latitude":"49.8464","longitude":"21.89404","pincode":"38-112"},
{"latitude":"11.8842","longitude":"-86.05508"},
{"latitude":"-7.2831","longitude":"108.1867"},
{"latitude":"23.98778","longitude":"111.97"},
{"latitude":"-6.9635","longitude":"111.4634"},
{"latitude":"-22.86333","longitude":"-51.38722","pincode":"86165-000"},
{"latitude":"11.0885","longitude":"106.26346"},
{"latitude":"51.64007","longitude":"15.06045","pincode":"00-018"},
{"latitude":"31.49737","longitude":"35.11362"},
{"latitude":"42.3","longitude":"69.6"},
{"latitude":"16.72222","longitude":"120.3525","pincode":"2515"},
{"latitude":"40.42639","longitude":"49.98361"},
{"latitude":"-6.8016","longitude":"111.8332"},
{"latitude":"27.39624","longitude":"119.91636"},
{"latitude":"10.35","longitude":"37.73333"},
{"latitude":"28.70242","longitude":"117.34417"},
{"latitude":"50.06029","longitude":"16.48207","pincode":"789 01"},
{"latitude":"43.08173","longitude":"46.8286","pincode":"368156"},
{"latitude":"-6.34379","longitude":"31.06951"},
{"latitude":"-9.6336","longitude":"119.5446"},
{"latitude":"6.49224","longitude":"-6.58558"},
{"latitude":"19.80755","longitude":"109.34539"},
{"latitude":"8.11667","longitude":"-11.5"},
{"latitude":"-10.33899","longitude":"-77.16943"},
{"latitude":"60.6167","longitude":"16.7667","pincode":"811 30"},
{"latitude":"7.7899","longitude":"5.7117"},
{"latitude":"60.41159","longitude":"44.23309","pincode":"161396"},
{"latitude":"-8.6409","longitude":"116.411"},
{"latitude":"13.40417","longitude":"-16.65583"},
{"latitude":"35.68206","longitude":"10.72746"},
{"latitude":"59.2755","longitude":"17.902","pincode":"127 43"},
{"latitude":"-8.2969","longitude":"118.9332"},
{"latitude":"32.30577","longitude":"34.90911"},
{"latitude":"40.18075","longitude":"44.27026"},
{"latitude":"0.41861","longitude":"29.89111"},
{"latitude":"9.14334","longitude":"-74.22384","pincode":"473029"},
{"latitude":"53.9096","longitude":"37.736","pincode":"102042"},
{"latitude":"-6.8451","longitude":"111.2719"},
{"latitude":"40.53697","longitude":"44.41046"},
{"latitude":"49.75639","longitude":"18.01581","pincode":"743 01"},
{"latitude":"59.8254","longitude":"10.8512","pincode":"1291"},
{"latitude":"11.51966","longitude":"4.2603"},
{"latitude":"47.75","longitude":"-3.3667","pincode":"56109 CEDEX"},
{"latitude":"34.46667","longitude":"135.36667","pincode":"571-0002"},
{"latitude":"34.88444","longitude":"135.22694","pincode":"673-1236"},
{"latitude":"12.16125","longitude":"123.40131","pincode":"8411"},
{"latitude":"26.134","longitude":"-81.7953","pincode":"34102"},
{"latitude":"7.12139","longitude":"122.17889","pincode":"3110"},
{"latitude":"8.6561","longitude":"123.4227","pincode":"3307"},
{"latitude":"40.94194","longitude":"19.705"},
{"latitude":"46.85436","longitude":"130.16071"},
{"latitude":"17.96076","longitude":"-76.51427"},
{"latitude":"-7.60722","longitude":"109.51417"},
{"latitude":"-7.0041","longitude":"108.7106"},
{"latitude":"23.9825","longitude":"-99.1881","pincode":"87078"},
{"latitude":"20.94301","longitude":"105.93119"},
{"latitude":"40.18231","longitude":"116.16134"},
{"latitude":"58.2922","longitude":"56.4156","pincode":"618703"},
{"latitude":"16.7527","longitude":"102.63244","pincode":"93180"},
{"latitude":"23.2481","longitude":"112.74336"},
{"latitude":"51.84928","longitude":"107.521","pincode":"456843"},
{"latitude":"46.663","longitude":"0.3615","pincode":"86964 CEDEX"},
{"latitude":"31.86374","longitude":"118.3764"},
{"latitude":"45.09806","longitude":"14.10694","pincode":"52220"},
{"latitude":"38.6167","longitude":"-9.1","pincode":"2840-146"},
{"latitude":"-13.73222","longitude":"-39.14917","pincode":"45435-000"},
{"latitude":"26.70452","longitude":"115.66564"},
{"latitude":"52.06431","longitude":"21.48153","pincode":"05-340"},
{"latitude":"41.11919","longitude":"70.09406"},
{"latitude":"-6.2202","longitude":"105.9392"},
{"latitude":"-15.53722","longitude":"-47.33444","pincode":"73800-000"},
{"latitude":"9.6281","longitude":"123.4785","pincode":"6024"},
{"latitude":"30.72917","longitude":"66.66083","pincode":"86201"},
{"latitude":"-7.0633","longitude":"108.7875"},
{"latitude":"46.15","longitude":"14.95","pincode":"1411"},
{"latitude":"46.87768","longitude":"126.01901"},
{"latitude":"46.21856","longitude":"-71.76201","pincode":"G6L"},
{"latitude":"27.30459","longitude":"68.39764","pincode":"66191"},
{"latitude":"-0.53112","longitude":"37.4506"},
{"latitude":"49.15","longitude":"112.73333"},
{"latitude":"32.70746","longitude":"110.33034"},
{"latitude":"48.3009","longitude":"6.1328","pincode":"88504 CEDEX"},
{"latitude":"15.83333","longitude":"120.74086","pincode":"3117"},
{"latitude":"56.64051","longitude":"43.39446","pincode":"606525"},
{"latitude":"50.72576","longitude":"24.16265"},
{"latitude":"28.31034","longitude":"121.00418"},
{"latitude":"15.60588","longitude":"-13.3223"},
{"latitude":"34.55016","longitude":"109.2968"},
{"latitude":"-3.3925","longitude":"-44.35861","pincode":"65485-000"},
{"latitude":"25.12194","longitude":"111.98194"},
{"latitude":"28.20091","longitude":"120.83185"},
{"latitude":"-22.61361","longitude":"-45.17611","pincode":"12620-000"},
{"latitude":"46.91591","longitude":"130.64547"},
{"latitude":"45.11083","longitude":"15.58944","pincode":"47240"},
{"latitude":"55.86647","longitude":"38.4438","pincode":"601231"},
{"latitude":"29.34162","longitude":"104.77689"},
{"latitude":"39.78916","longitude":"98.79039"},
{"latitude":"36.08497","longitude":"9.37082"},
{"latitude":"56.03361","longitude":"35.96944","pincode":"215107"},
{"latitude":"52.9336","longitude":"33.4464","pincode":"243418"},
{"latitude":"21.5931","longitude":"-100.7667","pincode":"78783"},
{"latitude":"23.65126","longitude":"114.34322"},
{"latitude":"12.41014","longitude":"121.08991","pincode":"1275"},
{"latitude":"39.61667","longitude":"22.13333"},
{"latitude":"8.84861","longitude":"7.87361"},
{"latitude":"7.8","longitude":"-80.75"},
{"latitude":"-7.1075","longitude":"108.4796"},
{"latitude":"21.19242","longitude":"101.14823"},
{"latitude":"-8.6366","longitude":"118.3542"},
{"latitude":"-10.12556","longitude":"-36.17556","pincode":"57230-000"},
{"latitude":"50.08799","longitude":"19.79462","pincode":"32-083"},
{"latitude":"59.84167","longitude":"30.25583","pincode":"422156"},
{"latitude":"39.79538","longitude":"114.18303"},
{"latitude":"29.83291","longitude":"106.45066"},
{"latitude":"-38.95161","longitude":"-68.0591","pincode":"8300"},
{"latitude":"25.90567","longitude":"116.0697"},
{"latitude":"13.5","longitude":"7.10174"},
{"latitude":"41.0333","longitude":"-8.2333","pincode":"4550-356"},
{"latitude":"25.4475","longitude":"118.14028"},
{"latitude":"-23.10407","longitude":"26.81421"},
{"latitude":"22.29936","longitude":"113.04848"},
{"latitude":"39.53333","longitude":"63.83333"},
{"latitude":"29.71607","longitude":"107.5976"},
{"latitude":"9.79029","longitude":"-74.78244","pincode":"475038"},
{"latitude":"10.25194","longitude":"123.94944","pincode":"6017"},
{"latitude":"-29.37639","longitude":"-51.11444","pincode":"95150-000"},
{"latitude":"2.80257","longitude":"44.07806"},
{"latitude":"51.17622","longitude":"-115.56982","pincode":"T1L"},
{"latitude":"-21.13778","longitude":"-47.99028","pincode":"14160-000"},
{"latitude":"28.99585","longitude":"121.09494"},
{"latitude":"52.32097","longitude":"21.67881","pincode":"88-210"},
{"latitude":"6.82055","longitude":"-5.27674"},
{"latitude":"35.48333","longitude":"139.45","pincode":"246-0038"},
{"latitude":"59.83889","longitude":"30.17528","pincode":"663594"},
{"latitude":"9.18052","longitude":"7.17933"},
{"latitude":"15.16222","longitude":"120.5675","pincode":"2516"},
{"latitude":"17.63528","longitude":"120.41083","pincode":"4508"},
{"latitude":"10.1624","longitude":"123.7076","pincode":"8711"},
{"latitude":"-29.40111","longitude":"-51.945","pincode":"95940-000"},
{"latitude":"33.36245","longitude":"104.6173"},
{"latitude":"14.93333","longitude":"-91.81667","pincode":"12027"},
{"latitude":"36.87395","longitude":"106.44157"},
{"latitude":"31.13488","longitude":"108.61597"},
{"latitude":"33.5668","longitude":"113.64554"},
{"latitude":"-8.802","longitude":"121.3118"},
{"latitude":"8.80111","longitude":"117.85944","pincode":"9217"},
{"latitude":"4.23333","longitude":"13.45"},
{"latitude":"-27.17806","longitude":"-51.50472","pincode":"89600-000"},
{"latitude":"22.62486","longitude":"104.95988"},
{"latitude":"49.93609","longitude":"17.9738","pincode":"747 31"},
{"latitude":"-6.593","longitude":"111.0652"},
{"latitude":"46.7833","longitude":"4.85","pincode":"71332 CEDEX"},
{"latitude":"49.47281","longitude":"20.13021","pincode":"34-432"},
{"latitude":"-27.00805","longitude":"27.3646","pincode":"9595"},
{"latitude":"50.0202","longitude":"22.89997","pincode":"37-543"},
{"latitude":"-8.6376","longitude":"121.4704"},
{"latitude":"50.3691","longitude":"119.1012","pincode":"674310"},
{"latitude":"57.9667","longitude":"12.1167","pincode":"446 38"},
{"latitude":"14.16667","longitude":"-16.83333"},
{"latitude":"57.58475","longitude":"48.95844","pincode":"613366"},
{"latitude":"13.9957","longitude":"-61.00614"},
{"latitude":"-6.3019","longitude":"106.0048"},
{"latitude":"59.3326","longitude":"18.0649","pincode":"121 29"},
{"latitude":"49.33697","longitude":"18.19793","pincode":"756 04"},
{"latitude":"35.3425","longitude":"-97.6317","pincode":"73173"},
{"latitude":"59.64806","longitude":"67.41","pincode":"628210"},
{"latitude":"-6.38","longitude":"-35.12889","pincode":"59190-000"},
{"latitude":"-27.0177","longitude":"30.44979","pincode":"4142"},
{"latitude":"45.56995","longitude":"-73.692","pincode":"H7S"},
{"latitude":"5.9765","longitude":"116.1158","pincode":"88540"},
{"latitude":"48.3719","longitude":"14.3476","pincode":"4210"},
{"latitude":"37.91033","longitude":"23.72361"},
{"latitude":"51.6004","longitude":"-0.194","pincode":"N3"},
{"latitude":"18.3322","longitude":"-100.6892","pincode":"40678"},
{"latitude":"42.92389","longitude":"21.7375"},
{"latitude":"-8.2693","longitude":"112.5218"},
{"latitude":"8.21043","longitude":"-72.46399","pincode":"546058"},
{"latitude":"40.83674","longitude":"44.42494"},
{"latitude":"30.56549","longitude":"114.22026"},
{"latitude":"35.02107","longitude":"135.75385","pincode":"612-8447"},
{"latitude":"17.96129","longitude":"104.04667","pincode":"39180"},
{"latitude":"13.3967","longitude":"123.4731","pincode":"4516"},
{"latitude":"50.98405","longitude":"39.51545","pincode":"397920"},
{"latitude":"38.07514","longitude":"112.65946"},
{"latitude":"-33.67571","longitude":"-65.45783","pincode":"5461"},
{"latitude":"29.99785","longitude":"115.6121"},
{"latitude":"31.97718","longitude":"73.60259","pincode":"52150"},
{"latitude":"-30.42036","longitude":"-64.34984","pincode":"4417"},
{"latitude":"48.05","longitude":"114.36667"},
{"latitude":"29.65954","longitude":"110.16876"},
{"latitude":"54.84444","longitude":"38.16694","pincode":"142933"},
{"latitude":"30.31606","longitude":"118.41349"},
{"latitude":"41.8947","longitude":"12.4839","pincode":"00185"},
{"latitude":"-7.5086","longitude":"107.8675"},
{"latitude":"-34.05064","longitude":"24.9195","pincode":"6332"},
{"latitude":"52.58444","longitude":"32.76333","pincode":"243240"},
{"latitude":"-7.0262","longitude":"106.9887"},
{"latitude":"49.77644","longitude":"22.65252","pincode":"37-741"},
{"latitude":"19.3656","longitude":"-103.7236","pincode":"32350"},
{"latitude":"35.66389","longitude":"138.56833","pincode":"409-3841"},
{"latitude":"45.10548","longitude":"16.67668"},
{"latitude":"23.12622","longitude":"104.7409"},
{"latitude":"59.9575","longitude":"10.7831","pincode":"0492"},
{"latitude":"16.52834","longitude":"97.6157"},
{"latitude":"-3.01728","longitude":"16.92238"},
{"latitude":"-8.4173","longitude":"118.6173"},
{"latitude":"-26.89778","longitude":"-49.23167","pincode":"89130-000"},
{"latitude":"44.43364","longitude":"34.10297"},
{"latitude":"28.80711","longitude":"108.09098"},
{"latitude":"9.80278","longitude":"118.69861","pincode":"5301"},
{"latitude":"18.18095","longitude":"-74.00104"},
{"latitude":"17.4379","longitude":"120.6262","pincode":"2811"},
{"latitude":"33.18559","longitude":"104.8839"},
{"latitude":"48.7833","longitude":"2.4667","pincode":"94972 CEDEX 9"},
{"latitude":"46.70667","longitude":"16.15639","pincode":"9201"},
{"latitude":"29.29306","longitude":"110.50946"},
{"latitude":"52.73754","longitude":"20.7118","pincode":"06-440"},
{"latitude":"38.13775","longitude":"114.37667"},
{"latitude":"13.99444","longitude":"121.27778","pincode":"2424"},
{"latitude":"43.89139","longitude":"20.34972"},
{"latitude":"41.6","longitude":"-8.05","pincode":"4705-653"},
{"latitude":"36.3012","longitude":"127.568"},
{"latitude":"21.19449","longitude":"-76.60355"},
{"latitude":"43.97713","longitude":"21.26121"},
{"latitude":"46.85","longitude":"9.5","pincode":"7006"},
{"latitude":"-16.82333","longitude":"-49.24389","pincode":"74900-000"},
{"latitude":"30.85021","longitude":"120.91138"},
{"latitude":"51.342","longitude":"12.375","pincode":"04109"},
{"latitude":"-8.23333","longitude":"-35.79694","pincode":"55660-000"},
{"latitude":"6.50306","longitude":"124.84694","pincode":"6122"},
{"latitude":"13.46667","longitude":"-87.66667"},
{"latitude":"56.12128","longitude":"101.17767","pincode":"665770"},
{"latitude":"31.7975","longitude":"118.53726"},
{"latitude":"32.34289","longitude":"36.20804"},
{"latitude":"28.29778","longitude":"107.75"},
{"latitude":"25.65376","longitude":"116.91517"},
{"latitude":"44.51031","longitude":"18.02624"},
{"latitude":"25.65518","longitude":"116.19871"},
{"latitude":"6.0212","longitude":"80.2503","pincode":"80600"},
{"latitude":"42.11589","longitude":"48.19204","pincode":"368670"},
{"latitude":"59.3951","longitude":"5.334","pincode":"5505"},
{"latitude":"32.36977","longitude":"119.70607"},
{"latitude":"28.38915","longitude":"117.63107"},
{"latitude":"-33.84808","longitude":"18.71724","pincode":"7571"},
{"latitude":"45.21244","longitude":"130.92488"},
{"latitude":"24.26592","longitude":"116.44216"},
{"latitude":"38.7072","longitude":"-90.3055","pincode":"63121"},
{"latitude":"9.1025","longitude":"123.1996","pincode":"1812"},
{"latitude":"60.1353","longitude":"13.0082","pincode":"685 24"},
{"latitude":"-8.7827","longitude":"122.0353"},
{"latitude":"-6.9661","longitude":"111.3769"},
{"latitude":"34.63333","longitude":"134.98333","pincode":"950-0084"},
{"latitude":"50.63965","longitude":"26.36573"},
{"latitude":"31.26562","longitude":"56.80545"},
{"latitude":"41.4","longitude":"-8.6667","pincode":"4480-014"},
{"latitude":"39.64692","longitude":"141.94057","pincode":"969-6522"},
{"latitude":"29.68527","longitude":"89.09556"},
{"latitude":"-8.4191","longitude":"121.0259"},
{"latitude":"31.33728","longitude":"118.37351"},
{"latitude":"29.54051","longitude":"71.63357","pincode":"59320"},
{"latitude":"-7.2955","longitude":"107.8313"},
{"latitude":"50.19377","longitude":"18.75435","pincode":"43-178"},
{"latitude":"32.27146","longitude":"100.33316"},
{"latitude":"31.79735","longitude":"119.87857"},
{"latitude":"45.5653","longitude":"-122.6448","pincode":"97211"},
{"latitude":"44.40011","longitude":"-79.66634","pincode":"L9J"},
{"latitude":"-6.3164","longitude":"155.48483"},
{"latitude":"45.26853","longitude":"38.15376","pincode":"353810"},
{"latitude":"-6.9813","longitude":"112.2969"},
{"latitude":"35.07437","longitude":"36.08677"},
{"latitude":"40.62889","longitude":"20.05389"},
{"latitude":"5.88083","longitude":"-10.04667"},
{"latitude":"31.23896","longitude":"121.32484"},
{"latitude":"46.61667","longitude":"109.41667"},
{"latitude":"36.73605","longitude":"69.53451"},
{"latitude":"40.53259","longitude":"44.72025"},
{"latitude":"37.92686","longitude":"102.6343"},
{"latitude":"-10.1729","longitude":"123.598"},
{"latitude":"43.45861","longitude":"21.0525"},
{"latitude":"41.5833","longitude":"-8.2667","pincode":"4810-845"},
{"latitude":"31.91112","longitude":"35.26661"},
{"latitude":"33.47366","longitude":"112.54619"},
{"latitude":"40.1214","longitude":"-8.7437","pincode":"3090-748"},
{"latitude":"43.524","longitude":"-96.7341","pincode":"57105"},
{"latitude":"51.78804","longitude":"123.59227"},
{"latitude":"13.33018","longitude":"121.27432","pincode":"5501"},
{"latitude":"39.62","longitude":"-8.8492","pincode":"2510-037"},
{"latitude":"-8.5352","longitude":"119.0061"},
{"latitude":"35.14","longitude":"139.61917","pincode":"894-2414"},
{"latitude":"52.44461","longitude":"15.57801","pincode":"66-302"},
{"latitude":"-17.30192","longitude":"31.33056"},
{"latitude":"10.38522","longitude":"11.69678"},
{"latitude":"-3.29833","longitude":"128.96882"},
{"latitude":"48.75","longitude":"2.3","pincode":"92762 CEDEX"},
{"latitude":"40.9167","longitude":"-8.5","pincode":"3700-599"},
{"latitude":"36.905","longitude":"66.18341"},
{"latitude":"42.7028","longitude":"9.45","pincode":"20403 CEDEX"},
{"latitude":"42.36194","longitude":"19.44417"},
{"latitude":"49.72068","longitude":"17.07773","pincode":"784 01"},
{"latitude":"43.7031","longitude":"7.2661","pincode":"06009 CEDEX 1"},
{"latitude":"40.8469","longitude":"-73.7874","pincode":"10464"},
{"latitude":"45.4333","longitude":"4.4","pincode":"42014 CEDEX 2"},
{"latitude":"9.24194","longitude":"-74.42667","pincode":"473008"},
{"latitude":"41.5833","longitude":"-8.2667","pincode":"4810-050"},
{"latitude":"32.50259","longitude":"35.16668"},
{"latitude":"50.2441","longitude":"21.7761","pincode":"36-100"},
{"latitude":"26.67319","longitude":"31.4976"},
{"latitude":"-7.1053","longitude":"108.3946"},
{"latitude":"43.24206","longitude":"46.00013","pincode":"368033"},
{"latitude":"53.4122","longitude":"24.5387"},
{"latitude":"7.58333","longitude":"0.6"},
{"latitude":"-8.0776","longitude":"112.3311"},
{"latitude":"53.76667","longitude":"-8.76667","pincode":"F35"},
{"latitude":"36.7499","longitude":"45.7229"},
{"latitude":"27.45","longitude":"104.83333"},
{"latitude":"30.857","longitude":"108.00592"},
{"latitude":"33.93187","longitude":"112.35642"},
{"latitude":"42.40194","longitude":"21.43361"},
{"latitude":"8.4475","longitude":"125.84028","pincode":"1709"},
{"latitude":"12.66664","longitude":"-0.57468"},
{"latitude":"-25.40872","longitude":"-70.48358"},
{"latitude":"37.45646","longitude":"126.70515"},
{"latitude":"5.41613","longitude":"-4.0159"},
{"latitude":"48.43294","longitude":"-123.3693","pincode":"V9A"},
{"latitude":"16.55888","longitude":"121.15124","pincode":"3605"},
{"latitude":"42.0778","longitude":"-8.3722","pincode":"4950-703"},
{"latitude":"-7.0676","longitude":"113.9589"},
{"latitude":"9.6531","longitude":"123.4344","pincode":"8504"},
{"latitude":"37.54722","longitude":"112.16053"},
{"latitude":"-1.83862","longitude":"109.97728"},
{"latitude":"51.32359","longitude":"21.8894","pincode":"24-123"},
{"latitude":"40.9721","longitude":"21.94664"},
{"latitude":"-8.5736","longitude":"118.908"},
{"latitude":"11.07377","longitude":"-85.63272","pincode":"51001"},
{"latitude":"36.20389","longitude":"127.08472"},
{"latitude":"-11.87361","longitude":"43.39778"},
{"latitude":"41.9333","longitude":"-8.5583","pincode":"4940-352"},
{"latitude":"-7.6203","longitude":"108.5205"},
{"latitude":"-9.555","longitude":"124.3307"},
{"latitude":"-10.1561","longitude":"123.6021"},
{"latitude":"40.50003","longitude":"22.87351"},
{"latitude":"47.3985","longitude":"8.5243","pincode":"8037"},
{"latitude":"11.1373","longitude":"123.7228","pincode":"1096"},
{"latitude":"50.88551","longitude":"21.85678","pincode":"23-235"},
{"latitude":"34.96667","longitude":"136.16667","pincode":"949-1738"},
{"latitude":"36.10111","longitude":"110.67333"},
{"latitude":"-6.48167","longitude":"106.85417"},
{"latitude":"35.42291","longitude":"136.76039","pincode":"504-0968"},
{"latitude":"5.78556","longitude":"-6.60833"},
{"latitude":"31.95126","longitude":"35.81979"},
{"latitude":"56.2773","longitude":"14.534","pincode":"293 35"},
{"latitude":"51.84928","longitude":"107.521","pincode":"456843"},
{"latitude":"48.8655","longitude":"2.3426","pincode":"75096 CEDEX 02"},
{"latitude":"30.58333","longitude":"114.03333"},
{"latitude":"22.83957","longitude":"91.84128","pincode":"7460"},
{"latitude":"-7.2002","longitude":"108.1288"},
{"latitude":"43.1195","longitude":"6.139","pincode":"83404 CEDEX"},
{"latitude":"-20.99075","longitude":"27.33158"},
{"latitude":"-22.7775","longitude":"-47.29583","pincode":"13460-000"},
{"latitude":"58.6667","longitude":"16.1833","pincode":"616 32"},
{"latitude":"53.5871","longitude":"27.0535"},
{"latitude":"-28.73122","longitude":"29.35187","pincode":"3354"},
{"latitude":"6.4455","longitude":"100.2002","pincode":"01673"},
{"latitude":"-6.3924","longitude":"106.0041"},
{"latitude":"50.57032","longitude":"17.14979","pincode":"48-388"},
{"latitude":"59.36","longitude":"18.0009","pincode":"171 49"},
{"latitude":"-31.63333","longitude":"-60.7","pincode":"3001"},
{"latitude":"44.41222","longitude":"40.79361","pincode":"352574"},
{"latitude":"49.621","longitude":"20.07794","pincode":"34-735"},
{"latitude":"35.32297","longitude":"25.39275"},
{"latitude":"42.3349","longitude":"-83.1801","pincode":"48126"},
{"latitude":"14.2277","longitude":"121.3292","pincode":"6406"},
{"latitude":"53.36831","longitude":"34.10328","pincode":"241551"},
{"latitude":"28.24161","longitude":"108.67492"},
{"latitude":"39.90583","longitude":"117.24611"},
{"latitude":"-9.58333","longitude":"33.85"},
{"latitude":"41.25","longitude":"-8.3556","pincode":"4580-389"},
{"latitude":"52.4345","longitude":"30.9754"},
{"latitude":"34.56284","longitude":"-5.36208"},
{"latitude":"56.2325","longitude":"96.0652","pincode":"663800"},
{"latitude":"46.11594","longitude":"-64.80186","pincode":"E1C"},
{"latitude":"26.09318","longitude":"119.29628"},
{"latitude":"52.44772","longitude":"61.74942"},
{"latitude":"10.71565","longitude":"122.2657","pincode":"5029"},
{"latitude":"34.19933","longitude":"134.60932","pincode":"779-0311"},
{"latitude":"13.805","longitude":"100.47283","pincode":"11130"},
{"latitude":"-28.29389","longitude":"-49.93167","pincode":"88600-000"},
{"latitude":"29.13696","longitude":"105.86988"},
{"latitude":"38.43624","longitude":"57.43158"},
{"latitude":"41.8119","longitude":"-87.6873","pincode":"60663"},
{"latitude":"-8.0028","longitude":"113.8914"},
{"latitude":"44.41222","longitude":"40.79361","pincode":"352574"},
{"latitude":"-6.56666","longitude":"105.84812"},
{"latitude":"29.67594","longitude":"118.29169"},
{"latitude":"8.21667","longitude":"5.51667"},
{"latitude":"28.55278","longitude":"110.05139"},
{"latitude":"48.64331","longitude":"25.73794"},
{"latitude":"53.9096","longitude":"37.736","pincode":"102042"},
{"latitude":"-33.51889","longitude":"-53.36806","pincode":"96230-000"},
{"latitude":"28.30058","longitude":"81.3536"},
{"pincode":"9700-555"},
{"latitude":"59.3333","longitude":"18.05","pincode":"121 48"},
{"latitude":"61.11304","longitude":"44.83017","pincode":"165262"},
{"latitude":"40.8702","longitude":"-73.8495","pincode":"10469"},
{"latitude":"-23.79722","longitude":"-52.26917","pincode":"87270-000"},
{"latitude":"13.86667","longitude":"-86.63333"},
{"latitude":"13.7036","longitude":"123.5531","pincode":"6222"},
{"latitude":"14.75186","longitude":"100.32481","pincode":"14150"},
{"latitude":"24.80817","longitude":"68.60448","pincode":"50251"},
{"latitude":"-6.1149","longitude":"106.1502"},
{"latitude":"-12.16672","longitude":"44.39944"},
{"latitude":"-21.525","longitude":"-42.46917","pincode":"36740-000"},
{"latitude":"56.60639","longitude":"24.52222"},
{"latitude":"51.02466","longitude":"21.22147","pincode":"68-343"},
{"latitude":"51.36883","longitude":"19.35671","pincode":"97-413"},
{"latitude":"24.26431","longitude":"115.49068"},
{"latitude":"-26.81358","longitude":"27.81695","pincode":"9580"},
{"latitude":"52.378","longitude":"1.5774","pincode":"NR34"},
{"latitude":"11.58901","longitude":"43.14503"},
{"latitude":"-8.5352","longitude":"119.0061"},
{"latitude":"14.95472","longitude":"120.89694","pincode":"3006"},
{"latitude":"2.45199","longitude":"-76.81029","pincode":"522068"},
{"latitude":"-22.55417","longitude":"-45.78","pincode":"37660-000"},
{"latitude":"23.0072","longitude":"-82.4017"},
{"latitude":"40.41278","longitude":"21.06222"},
{"latitude":"36.3012","longitude":"127.568"},
{"latitude":"30.88366","longitude":"-9.04548"},
{"latitude":"37.91458","longitude":"69.78454"},
{"latitude":"38.9381","longitude":"-77.086","pincode":"20016"},
{"latitude":"16.04252","longitude":"105.21836","pincode":"34170"},
{"latitude":"15.73773","longitude":"43.55701"},
{"latitude":"51.95349","longitude":"76.02723"},
{"latitude":"46.81228","longitude":"-71.21454","pincode":"G6W"},
{"latitude":"22.87932","longitude":"116.07318"},
{"latitude":"28.35209","longitude":"116.01197"},
{"latitude":"-29.22694","longitude":"-53.68167","pincode":"98130-000"},
{"latitude":"48.7294","longitude":"14.62737","pincode":"382 82"},
{"latitude":"27.5232","longitude":"109.206"},
{"latitude":"31.08914","longitude":"109.03957"},
{"latitude":"20.34659","longitude":"-74.49675"},
{"latitude":"52.97712","longitude":"19.38486","pincode":"88-420"},
{"latitude":"40.3736","longitude":"-7.9063","pincode":"3405-260"},
{"latitude":"49.88005","longitude":"36.73723"},
{"latitude":"41.5083","longitude":"-8.2083","pincode":"4820-560"},
{"latitude":"30.75545","longitude":"20.22626"},
{"latitude":"22.36865","longitude":"111.40973"},
{"latitude":"35.31025","longitude":"36.11523"},
{"latitude":"31.5587","longitude":"35.1244"},
{"latitude":"35.95806","longitude":"67.27998"},
{"latitude":"25.93702","longitude":"116.54305"},
{"latitude":"39.26048","longitude":"117.09729"},
{"latitude":"4.86242","longitude":"-74.90977","pincode":"731027"},
{"latitude":"15.5952","longitude":"120.7911","pincode":"4332"},
{"latitude":"35.50056","longitude":"117.63083"},
{"latitude":"39.76389","longitude":"66.9125"},
{"latitude":"17.8229","longitude":"-97.7399","pincode":"71836"},
{"latitude":"-8.356","longitude":"116.1565"},
{"latitude":"28.74677","longitude":"118.26191"},
{"latitude":"7.65802","longitude":"7.8837"},
{"latitude":"15.45099","longitude":"36.39998"},
{"latitude":"-6.9191","longitude":"111.5591"},
{"latitude":"26.16753","longitude":"115.84175"},
{"latitude":"-8.1539","longitude":"113.1148"},
{"latitude":"49.60196","longitude":"13.8643","pincode":"262 42"},
{"latitude":"30.1219","longitude":"120.9011"},
{"latitude":"35.9","longitude":"140.08333","pincode":"302-0004"},
{"latitude":"-20.94639","longitude":"-44.91889","pincode":"37262-000"},
{"latitude":"25.66667","longitude":"104.23333"},
{"latitude":"33.23531","longitude":"110.98911"},
{"latitude":"32.06169","longitude":"120.38363"},
{"latitude":"27.82817","longitude":"52.32536"},
{"latitude":"30.13471","longitude":"108.18394"},
{"latitude":"12.50744","longitude":"121.09041","pincode":"7033"},
{"latitude":"35.2017","longitude":"-89.9715","pincode":"38188"},
{"latitude":"54.03481","longitude":"38.40172","pincode":"301792"},
{"latitude":"35.78389","longitude":"139.24306","pincode":"357-0056"},
{"latitude":"-7.57411","longitude":"108.76606"},
{"latitude":"31.15889","longitude":"35.69278"},
{"latitude":"-7.2148","longitude":"108.3551"},
{"latitude":"45.21077","longitude":"39.68914","pincode":"385321"},
{"latitude":"40.278","longitude":"-8.3553","pincode":"3025-592"},
{"latitude":"29.96926","longitude":"112.60016"},
{"latitude":"13.09778","longitude":"7.2225"},
{"latitude":"61.1872","longitude":"-149.8804","pincode":"99599"},
{"latitude":"-6.7366","longitude":"111.6698"},
{"latitude":"45.7485","longitude":"4.8467","pincode":"69239 CEDEX 02"},
{"latitude":"12.98056","longitude":"123.78917","pincode":"6014"},
{"latitude":"-6.7113","longitude":"111.2111"},
{"latitude":"64.5635","longitude":"39.8302","pincode":"164509"},
{"latitude":"22.96382","longitude":"112.11067"},
{"latitude":"29.27908","longitude":"107.95215"},
{"latitude":"35.94458","longitude":"68.71512"},
{"latitude":"-28.76659","longitude":"28.24936"},
{"latitude":"39.83104","longitude":"116.63967"},
{"latitude":"22.78743","longitude":"113.88246"},
{"latitude":"45.6285","longitude":"-1.0281","pincode":"17209 CEDEX"},
{"latitude":"-20.53034","longitude":"47.24344"},
{"latitude":"45.3446","longitude":"20.71418"},
{"latitude":"14.2325","longitude":"121.3648","pincode":"4010"},
{"latitude":"14.9","longitude":"-86.2"},
{"latitude":"-8.3395","longitude":"120.7594"},
{"latitude":"39.085","longitude":"-94.6356","pincode":"66105"},
{"latitude":"29.47361","longitude":"121.94722"},
{"latitude":"-38.71122","longitude":"-73.16101"},
{"latitude":"30.85028","longitude":"122.69139"},
{"latitude":"40.45076","longitude":"50.08686"},
{"latitude":"50.04075","longitude":"15.77659","pincode":"530 12"},
{"latitude":"27.70292","longitude":"113.15202"},
{"latitude":"49.44998","longitude":"-112.65185","pincode":"G6K"},
{"latitude":"-3.63011","longitude":"128.25237"},
{"latitude":"49.59317","longitude":"17.12607","pincode":"783 46"},
{"latitude":"37.8008","longitude":"48.9037"},
{"latitude":"59.75","longitude":"18.3667","pincode":"762 91"},
{"latitude":"41.55","longitude":"-8.4889","pincode":"4750-549"},
{"latitude":"14.5234","longitude":"121.2651","pincode":"4803"},
{"latitude":"9.637","longitude":"122.4721","pincode":"6114"},
{"latitude":"-30.57781","longitude":"-59.9317","pincode":"5875"},
{"latitude":"44.4938","longitude":"11.3387","pincode":"40128"},
{"latitude":"21.40726","longitude":"110.68453"},
{"latitude":"47.5","longitude":"19.0833","pincode":"1122"},
{"latitude":"49.90249","longitude":"18.82756","pincode":"43-520"},
{"latitude":"4.39318","longitude":"-75.68935","pincode":"632027"},
{"latitude":"39.15752","longitude":"117.18806"},
{"latitude":"-8.3125","longitude":"114.0483"},
{"latitude":"-3.2682","longitude":"29.6079"},
{"latitude":"9.9718","longitude":"122.6249","pincode":"5409"},
{"latitude":"30.98516","longitude":"121.11446"},
{"latitude":"19.0992","longitude":"-99.6565","pincode":"52332"},
{"latitude":"55.73333","longitude":"37.66667","pincode":"662668"},
{"latitude":"31.79065","longitude":"111.55357"},
{"latitude":"20.5019","longitude":"-101.0013","pincode":"38542"},
{"latitude":"-8.0189","longitude":"112.819"},
{"latitude":"55.68784","longitude":"37.36836","pincode":"249028"},
{"latitude":"29.33389","longitude":"48.07611"},
{"latitude":"34.93833","longitude":"108.93167"},
{"latitude":"41.55","longitude":"-8.2667","pincode":"4830-813"},
{"latitude":"52.2183","longitude":"6.8958","pincode":"7534"},
{"latitude":"-10.03473","longitude":"124.52209"},
{"latitude":"58.57141","longitude":"125.43918","pincode":"678944"},
{"latitude":"-21.61667","longitude":"166.21667","pincode":"98829"},
{"latitude":"49.91447","longitude":"24.6134"},
{"latitude":"-7.2008","longitude":"111.3926"},
{"latitude":"-1.76556","longitude":"-55.86611","pincode":"68270-000"},
{"latitude":"31.48542","longitude":"120.49199"},
{"latitude":"-7.5412","longitude":"108.0455"},
{"latitude":"23.26966","longitude":"116.708"},
{"latitude":"-8.293","longitude":"123.1963"},
{"latitude":"3.1071","longitude":"101.6083","pincode":"47307"},
{"latitude":"29.86167","longitude":"113.79274"},
{"latitude":"-8.2142","longitude":"113.772"},
{"latitude":"21.80379","longitude":"111.70529"},
{"latitude":"9.43","longitude":"-82.52"},
{"latitude":"35.23333","longitude":"23.68333"},
{"latitude":"43.6625","longitude":"43.53694","pincode":"361538"},
{"latitude":"29.4348","longitude":"115.23318"},
{"latitude":"9.92787","longitude":"-84.13722","pincode":"11504"},
{"latitude":"22.56552","longitude":"110.96609"},
{"latitude":"48.11814","longitude":"23.76588"},
{"latitude":"39.77556","longitude":"47.61861"},
{"latitude":"48.9836","longitude":"2.5256","pincode":"95974 CEDEX 2"},
{"latitude":"49.73333","longitude":"24.25"},
{"latitude":"31.98325","longitude":"112.77102"},
{"latitude":"18.21895","longitude":"-78.1332"},
{"latitude":"55.3751","longitude":"13.1569","pincode":"231 43"},
{"latitude":"39.13453","longitude":"117.12547"},
{"latitude":"45.21194","longitude":"73.97861"},
{"latitude":"47.2173","longitude":"-1.5534","pincode":"44911 CEDEX 9"},
{"latitude":"-6.9028","longitude":"112.9709"},
{"latitude":"39.14422","longitude":"117.14154"},
{"latitude":"-8.4932","longitude":"118.3176"},
{"latitude":"-6.8042","longitude":"111.2685"},
{"latitude":"30.14978","longitude":"115.22074"},
{"latitude":"9.03333","longitude":"-79.5"},
{"latitude":"-5.06446","longitude":"105.54869"},
{"latitude":"-5.55","longitude":"12.2"},
{"latitude":"34.93212","longitude":"9.19321"},
{"latitude":"35.47165","longitude":"23.59784"},
{"latitude":"10.2885","longitude":"123.0922","pincode":"6132"},
{"latitude":"37.44529","longitude":"25.32872"},
{"latitude":"-8.2201","longitude":"114.9407"},
{"latitude":"38.8933","longitude":"-77.0146","pincode":"20088"},
{"latitude":"11.10298","longitude":"5.25068"},
{"latitude":"43.6043","longitude":"1.4437","pincode":"31044 CEDEX 9"},
{"latitude":"49.2513","longitude":"6.1681","pincode":"57304 CEDEX"},
{"latitude":"34.83898","longitude":"-2.86699"},
{"latitude":"53.50015","longitude":"-112.05182","pincode":"T9C"}]