[{"latitude":"-8.2122","longitude":"112.6086"},
{"latitude":"41.01667","longitude":"70.14361"},
{"latitude":"55.5441","longitude":"42.1968","pincode":"347417"},
{"latitude":"30.98227","longitude":"113.98035"},
{"latitude":"45.73345","longitude":"-63.86542","pincode":"K7A"},
{"latitude":"-13.99328","longitude":"34.51566"},
{"latitude":"59.93863","longitude":"30.31413","pincode":"190990"},
{"latitude":"39.361","longitude":"-76.5891","pincode":"21239"},
{"latitude":"-7.0148","longitude":"113.5819"},
{"latitude":"34.66667","longitude":"137.26667","pincode":"879-7305"},
{"latitude":"23.99359","longitude":"116.37414"},
{"latitude":"-8.5816","longitude":"116.2101"},
{"latitude":"3.47608","longitude":"97.06235"},
{"latitude":"59.3326","longitude":"18.0649","pincode":"121 29"},
{"latitude":"-9.9313","longitude":"124.0901"},
{"latitude":"45.38338","longitude":"-73.9492","pincode":"H9X"},
{"latitude":"49.57903","longitude":"111.97638","pincode":"674250"},
{"latitude":"13.18421","longitude":"30.21669"},
{"latitude":"59.2968","longitude":"18.0313","pincode":"124 22"},
{"latitude":"28.47728","longitude":"116.95165"},
{"latitude":"28.60892","longitude":"112.18623"},
{"latitude":"-22.16194","longitude":"-43.29278","pincode":"25850-000"},
{"latitude":"-23.52806","longitude":"-46.34472","pincode":"08550-000"},
{"latitude":"5.30424","longitude":"96.02744"},
{"latitude":"-6.2612","longitude":"106.1203"},
{"latitude":"-8.2398","longitude":"113.5693"},
{"latitude":"37.0667","longitude":"-8.7667","pincode":"8650-153"},
{"latitude":"49.52143","longitude":"22.9367"},
{"latitude":"-7.2519","longitude":"107.164"},
{"latitude":"38.8247","longitude":"-104.562","pincode":"80935"},
{"latitude":"13.55","longitude":"-15.98333"},
{"latitude":"49.8625","longitude":"-119.58333","pincode":"V1Z"},
{"latitude":"-12.89889","longitude":"-75.83111"},
{"latitude":"35.58408","longitude":"63.32886"},
{"latitude":"-1.49984","longitude":"29.63497"},
{"latitude":"34.75","longitude":"136.13333","pincode":"959-3213"},
{"latitude":"-6.5485","longitude":"105.9988"},
{"latitude":"37.6917","longitude":"-8.2167","pincode":"7630-765"},
{"latitude":"13.85493","longitude":"44.7058"},
{"latitude":"28.03596","longitude":"116.73216"},
{"latitude":"32.8458","longitude":"111.01072"},
{"latitude":"33.3213","longitude":"130.94098","pincode":"419-0125"},
{"latitude":"0.96056","longitude":"30.79667"},
{"latitude":"-29.59111","longitude":"-51.16056","pincode":"93900-000"},
{"latitude":"48.95006","longitude":"16.25931","pincode":"671 71"},
{"latitude":"15.5952","longitude":"120.7911","pincode":"4332"},
{"latitude":"47.47114","longitude":"36.34507"},
{"latitude":"-4.57667","longitude":"30.1025"},
{"latitude":"35.37111","longitude":"139.22361","pincode":"259-1335"},
{"latitude":"47.1833","longitude":"3.0167","pincode":"58404 CEDEX"},
{"latitude":"27.21122","longitude":"114.72949"},
{"latitude":"-23.51056","longitude":"-46.87611","pincode":"06400-000"},
{"latitude":"22.78366","longitude":"113.14451"},
{"latitude":"-12.63333","longitude":"-41.03333","pincode":"17560-000"},
{"latitude":"9.99447","longitude":"-84.66466","pincode":"60201"},
{"latitude":"54.01657","longitude":"-124.01982","pincode":"G9A"},
{"latitude":"42.89106","longitude":"74.85077"},
{"latitude":"15.87944","longitude":"108.335"},
{"latitude":"41.3167","longitude":"-7.9333","pincode":"4880-106"},
{"latitude":"46.24209","longitude":"127.80624"},
{"latitude":"34.0585","longitude":"-118.3012","pincode":"90005"},
{"latitude":"10.08333","longitude":"124.11611","pincode":"8601"},
{"latitude":"30.96174","longitude":"112.18476"},
{"latitude":"36.9216","longitude":"-76.0171","pincode":"23459"},
{"latitude":"26.90863","longitude":"118.56713"},
{"latitude":"41.1","longitude":"-8.35","pincode":"4620-297"},
{"latitude":"23.73477","longitude":"114.24831"},
{"latitude":"47.9804","longitude":"20.9354","pincode":"3504"},
{"latitude":"12.66644","longitude":"100.90073","pincode":"20180"},
{"latitude":"-6.7216","longitude":"111.1473"},
{"latitude":"39.08425","longitude":"66.83318"},
{"latitude":"28.58899","longitude":"116.40622"},
{"latitude":"55.86667","longitude":"37.5","pincode":"141707"},
{"latitude":"51.18341","longitude":"-114.46871","pincode":"T4C"},
{"latitude":"45.16806","longitude":"17.70694","pincode":"35257"},
{"latitude":"25.35967","longitude":"114.54047"},
{"latitude":"55.5281","longitude":"41.1053","pincode":"601545"},
{"latitude":"49.46455","longitude":"22.39829","pincode":"85-156"},
{"latitude":"54.65455","longitude":"19.90929","pincode":"238528"},
{"latitude":"42.9","longitude":"23.78333","pincode":"2162"},
{"latitude":"53.6907","longitude":"33.5071","pincode":"242750"},
{"latitude":"29.1141","longitude":"93.86873"},
{"latitude":"-10.50333","longitude":"-37.05278","pincode":"49700-000"},
{"latitude":"30.90641","longitude":"119.40865"},
{"latitude":"31.71667","longitude":"35.8"},
{"latitude":"-18.43333","longitude":"46.56667"},
{"latitude":"35.57757","longitude":"111.22371"},
{"latitude":"9.8182","longitude":"124.4977","pincode":"6312"},
{"latitude":"28.13099","longitude":"82.29726"},
{"latitude":"26.90053","longitude":"117.16312"},
{"latitude":"36.06956","longitude":"106.3665"},
{"latitude":"53.40953","longitude":"18.44742","pincode":"86-105"},
{"latitude":"28.90763","longitude":"121.19763"},
{"latitude":"40.72861","longitude":"124.78472"},
{"latitude":"36.04408","longitude":"101.42874"},
{"latitude":"6.01798","longitude":"7.02027"},
{"latitude":"40.4833","longitude":"-8.7","pincode":"3840-045"},
{"latitude":"39.55","longitude":"-8.4417","pincode":"2200-785"},
{"latitude":"31.26316","longitude":"118.81762"},
{"latitude":"14.13333","longitude":"-16.46667"},
{"latitude":"21.07854","longitude":"102.50575"},
{"latitude":"49.0241","longitude":"1.1508","pincode":"27095 CEDEX 9"},
{"latitude":"-8.1567","longitude":"111.5263"},
{"latitude":"-21.13556","longitude":"-44.26167","pincode":"36300-000"},
{"latitude":"45.6168","longitude":"-75.01599","pincode":"G5N"},
{"latitude":"8.94417","longitude":"125.50194","pincode":"9021"},
{"latitude":"-7.3531","longitude":"108.1217"},
{"latitude":"61.75","longitude":"50.91667","pincode":"167907"},
{"latitude":"-20.75389","longitude":"-42.88194","pincode":"59815-000"},
{"latitude":"25.95568","longitude":"117.91718"},
{"latitude":"14.83361","longitude":"43.53639"},
{"latitude":"-33.22778","longitude":"-60.3297","pincode":"2919"},
{"latitude":"50.89028","longitude":"21.51426","pincode":"27-440"},
{"latitude":"45.44694","longitude":"14.37694","pincode":"51217"},
{"latitude":"40.2739","longitude":"22.57775"},
{"latitude":"55.6759","longitude":"12.5655","pincode":"1068"},
{"latitude":"53.2012","longitude":"-0.5991","pincode":"LN6"},
{"latitude":"36.54384","longitude":"101.98602"},
{"latitude":"-26.5","longitude":"-57.05"},
{"latitude":"39.5292","longitude":"-8.5958","pincode":"2350-259"},
{"latitude":"15.10839","longitude":"103.17551","pincode":"31000"},
{"latitude":"45.65639","longitude":"40.76528","pincode":"352144"},
{"latitude":"14.8","longitude":"-87.35"},
{"latitude":"52.22904","longitude":"21.01644","pincode":"05-090"},
{"latitude":"53.1001","longitude":"8.9029","pincode":"28355"},
{"latitude":"50.72858","longitude":"17.89819","pincode":"46-020"},
{"latitude":"-6.9776","longitude":"112.4323"},
{"latitude":"-14.92611","longitude":"-42.81917","pincode":"39510-000"},
{"latitude":"56.0313","longitude":"14.1524","pincode":"291 81"},
{"latitude":"40.92055","longitude":"23.97489"},
{"latitude":"-6.66028","longitude":"-69.87361","pincode":"69880-000"},
{"latitude":"-6.9604","longitude":"106.4717"},
{"latitude":"58.99778","longitude":"22.74917"},
{"latitude":"-7.13231","longitude":"113.52351"},
{"latitude":"15.174","longitude":"121.0249","pincode":"2307"},
{"latitude":"57.9303","longitude":"12.5334","pincode":"441 63"},
{"latitude":"43.61781","longitude":"19.36719"},
{"latitude":"-22.46917","longitude":"-48.9875","pincode":"17120-000"},
{"latitude":"-6.9439","longitude":"112.0864"},
{"latitude":"49.63909","longitude":"13.16474","pincode":"333 01"},
{"latitude":"45.4333","longitude":"4.4","pincode":"42055 CEDEX 2"},
{"latitude":"43.6223","longitude":"7.0472","pincode":"06928 CEDEX"},
{"latitude":"48.91218","longitude":"23.47303"},
{"latitude":"14.91667","longitude":"-91.61667","pincode":"09034"},
{"latitude":"-17.73381","longitude":"168.32188"},
{"latitude":"40.95495","longitude":"22.03763"},
{"latitude":"-7.0366","longitude":"108.4159"},
{"latitude":"14.35452","longitude":"108.00759"},
{"latitude":"51.09611","longitude":"40.03333","pincode":"397706"},
{"latitude":"61.67642","longitude":"50.80994","pincode":"167032"},
{"latitude":"52.1777","longitude":"-1.5834","pincode":"CV35"},
{"latitude":"50.84584","longitude":"17.41865","pincode":"20-282"},
{"latitude":"28.66443","longitude":"109.69855"},
{"latitude":"43.41083","longitude":"17.20556","pincode":"21266"},
{"latitude":"57.8136","longitude":"28.3496","pincode":"180559"},
{"latitude":"-8.19","longitude":"114.9675"},
{"latitude":"41.4833","longitude":"-8.35","pincode":"4805-191"},
{"latitude":"-31.65292","longitude":"-64.42826","pincode":"5186"},
{"latitude":"24.39019","longitude":"115.82879"},
{"latitude":"26.5479","longitude":"101.70539"},
{"latitude":"38.0249","longitude":"22.73294"},
{"latitude":"40.9","longitude":"-6.9875","pincode":"6440-104"},
{"latitude":"24.56909","longitude":"118.03451"},
{"latitude":"42.87","longitude":"74.59"},
{"latitude":"-5.16948","longitude":"105.70441"},
{"latitude":"22.58041","longitude":"113.96121"},
{"latitude":"-6.9936","longitude":"112.394"},
{"latitude":"-29.46694","longitude":"-51.96139","pincode":"77645-000"},
{"latitude":"46.70289","longitude":"41.72717","pincode":"347554"},
{"latitude":"-0.49886","longitude":"37.28031"},
{"latitude":"48.92692","longitude":"116.76567"},
{"latitude":"30.06387","longitude":"107.45359"},
{"latitude":"5.31718","longitude":"-66.04862"},
{"latitude":"16.02781","longitude":"100.37917","pincode":"66120"},
{"latitude":"14.52917","longitude":"-90.18417","pincode":"06005"},
{"latitude":"18.8853","longitude":"-103.8863","pincode":"33856"},
{"latitude":"40.50752","longitude":"117.16821"},
{"latitude":"9.9832","longitude":"-75.30155","pincode":"131077"},
{"latitude":"41.1167","longitude":"-7.8833","pincode":"3600-587"},
{"latitude":"50.293","longitude":"2.7819","pincode":"62070 CEDEX 9"},
{"latitude":"23.17141","longitude":"114.61992"},
{"latitude":"14.58044","longitude":"102.59689","pincode":"31110"},
{"latitude":"59.4439","longitude":"18.0687","pincode":"183 15"},
{"latitude":"45.0333","longitude":"3.0833","pincode":"15104 CEDEX"},
{"latitude":"24.43583","longitude":"102.10832"},
{"latitude":"24.374","longitude":"88.60114","pincode":"6100"},
{"latitude":"-8.6502","longitude":"117.4461"},
{"latitude":"58.08417","longitude":"55.86694","pincode":"617071"},
{"latitude":"48.392","longitude":"38.60174"},
{"latitude":"-14.46968","longitude":"-71.19843"},
{"pincode":"9630-015"},
{"latitude":"8.66167","longitude":"117.62222","pincode":"5306"},
{"latitude":"-22.61361","longitude":"-45.17611","pincode":"12620-000"},
{"latitude":"-8.621","longitude":"116.4446"},
{"latitude":"44.47481","longitude":"34.14437"},
{"latitude":"59.9422","longitude":"10.6822","pincode":"0376"},
{"latitude":"4.0772","longitude":"97.0666"},
{"latitude":"63.4305","longitude":"10.3951","pincode":"7031"},
{"latitude":"23.41619","longitude":"116.71327"},
{"latitude":"46.64917","longitude":"15.84417","pincode":"2235"},
{"latitude":"23.56487","longitude":"112.70572"},
{"latitude":"-19.73639","longitude":"-45.25222","pincode":"35600-000"},
{"latitude":"-14.49361","longitude":"-71.155"},
{"latitude":"43.19217","longitude":"44.54313","pincode":"363303"},
{"latitude":"-6.505","longitude":"111.0425"},
{"latitude":"31.52057","longitude":"34.97442"},
{"latitude":"-7.3314","longitude":"108.0665"},
{"latitude":"54.0024","longitude":"27.7108"},
{"latitude":"33.00959","longitude":"113.03456"},
{"latitude":"42.20194","longitude":"22.33194","pincode":"1333"},
{"latitude":"32.0837","longitude":"35.18079"},
{"latitude":"4.8543","longitude":"-73.04003","pincode":"855058"},
{"latitude":"-14.47389","longitude":"-48.45972","pincode":"76420-000"},
{"latitude":"44.94309","longitude":"34.19727"},
{"latitude":"39.74391","longitude":"113.64894"},
{"latitude":"9.5918","longitude":"124.0958","pincode":"6304"},
{"latitude":"-29.58274","longitude":"26.66511","pincode":"9940"},
{"latitude":"51.81376","longitude":"19.96877","pincode":"95-047"},
{"latitude":"-22.95194","longitude":"-46.54194","pincode":"12900-000"},
{"latitude":"-10.1663","longitude":"123.5777"},
{"latitude":"52.6265","longitude":"16.44988","pincode":"02-072"},
{"latitude":"50.16294","longitude":"17.57481","pincode":"793 95"},
{"latitude":"22.99376","longitude":"114.71311"},
{"latitude":"-7.0728","longitude":"112.4799"},
{"latitude":"45.07639","longitude":"15.36806","pincode":"47304"},
{"latitude":"4.74851","longitude":"-6.6363"},
{"latitude":"-27.08966","longitude":"-61.08161","pincode":"3722"},
{"latitude":"50.633","longitude":"3.0586","pincode":"59002 CEDEX"},
{"latitude":"-12.29292","longitude":"33.1782"},
{"latitude":"14.74495","longitude":"121.64953","pincode":"4336"},
{"latitude":"51.54676","longitude":"20.97479","pincode":"26-806"},
{"latitude":"7.61786","longitude":"100.07792","pincode":"86000"},
{"latitude":"-6.9116","longitude":"111.4612"},
{"latitude":"27.40043","longitude":"115.00099"},
{"latitude":"4.57583","longitude":"-75.97389","pincode":"762507"},
{"latitude":"31.13454","longitude":"120.30542"},
{"latitude":"55.24556","longitude":"42.20889","pincode":"607040"},
{"latitude":"-7.4374","longitude":"107.8354"},
{"latitude":"60.2976","longitude":"5.3308","pincode":"5857"},
{"latitude":"-7.2605","longitude":"107.8547"},
{"latitude":"-6.9246","longitude":"111.4504"},
{"latitude":"37.22417","longitude":"67.27833"},
{"latitude":"-8.2693","longitude":"112.5218"},
{"latitude":"30.20945","longitude":"114.82338"},
{"latitude":"39.08446","longitude":"112.19119"},
{"latitude":"48.9","longitude":"2.45","pincode":"93005 CEDEX"},
{"latitude":"40.85","longitude":"-7.95","pincode":"3630-139"},
{"latitude":"11.51917","longitude":"122.75722","pincode":"5815"},
{"latitude":"43.76667","longitude":"26.51667","pincode":"7319"},
{"latitude":"55.6759","longitude":"12.5655","pincode":"1656"},
{"latitude":"46.84842","longitude":"34.38044"},
{"latitude":"-8.287","longitude":"115.39"},
{"latitude":"-7.2187","longitude":"107.9367"},
{"latitude":"30.28838","longitude":"106.47032"},
{"latitude":"28.1147","longitude":"-82.3678","pincode":"33647"},
{"latitude":"-28.2925","longitude":"-53.50167","pincode":"98280-000"},
{"latitude":"52.3666","longitude":"4.9027","pincode":"1079"},
{"latitude":"43.5304","longitude":"1.536","pincode":"31678 CEDEX"},
{"latitude":"21.98238","longitude":"112.48862"},
{"latitude":"-7.1406","longitude":"107.0033"},
{"latitude":"29.03416","longitude":"89.24829"},
{"latitude":"46.6667","longitude":"-1.4333","pincode":"85928 CEDEX 9"},
{"latitude":"49.3777","longitude":"37.62136"},
{"latitude":"50.09693","longitude":"25.72459"},
{"latitude":"4.8797","longitude":"95.401"},
{"latitude":"35.51667","longitude":"140.31667","pincode":"299-4128"},
{"latitude":"-16.02861","longitude":"-73.17056"},
{"latitude":"-8.00635","longitude":"112.76085"},
{"latitude":"32.0493","longitude":"112.90305"},
{"latitude":"45.33528","longitude":"42.85472","pincode":"356537"},
{"latitude":"-6.7422","longitude":"111.3587"},
{"latitude":"43.90451","longitude":"12.42142","pincode":"47894"},
{"latitude":"42.8","longitude":"27.28333","pincode":"8542"},
{"latitude":"13.2093","longitude":"123.6761","pincode":"4501"},
{"latitude":"46.6667","longitude":"-1.4333","pincode":"85021 CEDEX"},
{"latitude":"22.54352","longitude":"-73.8778"},
{"latitude":"40.71069","longitude":"140.59048","pincode":"953-0062"},
{"latitude":"35.00856","longitude":"132.2257","pincode":"699-3162"},
{"latitude":"25.42194","longitude":"112.3725"},
{"latitude":"44.6333","longitude":"41.9444","pincode":"357128"},
{"latitude":"15.01667","longitude":"-87.93333"},
{"latitude":"37.96667","longitude":"23.65"},
{"latitude":"25.4961","longitude":"118.56431"},
{"latitude":"14.00412","longitude":"99.54832","pincode":"31110"},
{"latitude":"36.8065","longitude":"127.1522"},
{"latitude":"48.8667","longitude":"2.7167","pincode":"77404 CEDEX"},
{"latitude":"9.18052","longitude":"7.17933"},
{"latitude":"43.78882","longitude":"18.16049"},
{"latitude":"24.39501","longitude":"114.93462"},
{"latitude":"34.98333","longitude":"136.98333","pincode":"969-1619"},
{"latitude":"-14.18137","longitude":"-71.1407"},
{"latitude":"36.8787","longitude":"-76.2604","pincode":"23509"},
{"latitude":"-7.0877","longitude":"108.2815"},
{"latitude":"-25.41667","longitude":"25.55"},
{"latitude":"13.75398","longitude":"100.50144","pincode":"11130"},
{"latitude":"-6.3965","longitude":"105.9693"},
{"latitude":"36.40265","longitude":"138.28161","pincode":"963-5343"},
{"latitude":"37.49753","longitude":"105.6765"},
{"latitude":"40.7543","longitude":"-73.9798","pincode":"10175"},
{"latitude":"13.3593","longitude":"123.3898","pincode":"6525"},
{"latitude":"11.4788","longitude":"124.5542","pincode":"5507"},
{"latitude":"5.2571","longitude":"96.0565"},
{"latitude":"36.1","longitude":"137.96667","pincode":"399-0746"},
{"latitude":"-8.4003","longitude":"114.2681"},
{"latitude":"45.37139","longitude":"141.82111","pincode":"521-1342"},
{"latitude":"39.9765","longitude":"-8.5841","pincode":"2420-334"},
{"latitude":"8.65462","longitude":"117.5104","pincode":"1151"},
{"latitude":"-27.09806","longitude":"-48.9175","pincode":"88350-000"},
{"latitude":"-8.109","longitude":"111.9764"},
{"latitude":"52.2017","longitude":"-0.8852","pincode":"NN4"},
{"latitude":"-27.20841","longitude":"26.94855","pincode":"9521"},
{"latitude":"28.51153","longitude":"121.36086"},
{"latitude":"36.2311","longitude":"38.02172"},
{"latitude":"22.43333","longitude":"41.75829"},
{"latitude":"41.39756","longitude":"128.17873"},
{"latitude":"45.60389","longitude":"17.87028","pincode":"33514"},
{"latitude":"45.1907","longitude":"-93.3021","pincode":"55448"},
{"latitude":"42.36194","longitude":"19.44417"},
{"latitude":"48.8322","longitude":"2.3561","pincode":"75623 CEDEX 13"},
{"latitude":"34.35166","longitude":"109.31878"},
{"latitude":"50.92525","longitude":"117.93773","pincode":"356024"},
{"latitude":"5.4179","longitude":"100.3296","pincode":"10840"},
{"latitude":"19.62748","longitude":"-70.27772","pincode":"11203"},
{"latitude":"13.86075","longitude":"100.51477","pincode":"11120"},
{"latitude":"41.4611","longitude":"-8.4389","pincode":"4775-174"},
{"latitude":"43.57383","longitude":"45.5209","pincode":"366128"},
{"latitude":"13.96242","longitude":"107.84484"},
{"latitude":"32.74518","longitude":"111.25927"},
{"latitude":"59.3326","longitude":"18.0649","pincode":"131 88"},
{"latitude":"0.9592","longitude":"-79.65397"},
{"latitude":"11.04417","longitude":"124.55056","pincode":"6612"},
{"latitude":"-22.74194","longitude":"-46.90139","pincode":"13920-000"},
{"latitude":"3.1071","longitude":"101.6083","pincode":"46781"},
{"latitude":"-7.2456","longitude":"106.9814"},
{"latitude":"40.81902","longitude":"22.41902"},
{"latitude":"40.87361","longitude":"71.10889"},
{"latitude":"22.06192","longitude":"110.78902"},
{"latitude":"50.74694","longitude":"21.65783","pincode":"27-612"},
{"latitude":"-47.2557","longitude":"-72.5695"},
{"latitude":"-7.2447","longitude":"107.9085"},
{"latitude":"-12.13333","longitude":"-74.68333"},
{"latitude":"7.21626","longitude":"7.56022"},
{"latitude":"29.71876","longitude":"120.24233"},
{"latitude":"31.96639","longitude":"121.54278"},
{"latitude":"-4.91167","longitude":"-80.96"},
{"latitude":"39.31583","longitude":"112.4225"},
{"latitude":"40.2842","longitude":"-3.7941","pincode":"28944"},
{"latitude":"9.5918","longitude":"124.0958","pincode":"6304"},
{"latitude":"-27.59444","longitude":"-48.60694","pincode":"13000-000"},
{"latitude":"13.4375","longitude":"121.0193","pincode":"5202"},
{"latitude":"55.60859","longitude":"38.86109","pincode":"142641"},
{"latitude":"36.46667","longitude":"140.1","pincode":"321-4217"},
{"latitude":"58.4486","longitude":"14.8897","pincode":"592 40"},
{"latitude":"-6.907","longitude":"114.0174"},
{"latitude":"41.6552","longitude":"-4.7237","pincode":"47071"},
{"latitude":"22.38124","longitude":"112.68492"},
{"latitude":"13.13452","longitude":"43.78636"},
{"latitude":"53.9096","longitude":"37.736","pincode":"102042"},
{"latitude":"54.26684","longitude":"-110.73505","pincode":"T9N"},
{"latitude":"32.60073","longitude":"95.3043"},
{"latitude":"12.25186","longitude":"121.11251","pincode":"6417"},
{"latitude":"63.4474","longitude":"10.4448","pincode":"7440"},
{"latitude":"49.0389","longitude":"2.077","pincode":"95046 CEDEX 1"},
{"latitude":"49.5194","longitude":"5.7688","pincode":"54412 CEDEX"},
{"latitude":"-7.3249","longitude":"108.8004"},
{"latitude":"45.04832","longitude":"39.65143","pincode":"385331"},
{"latitude":"31.62015","longitude":"120.29206"},
{"latitude":"40.9167","longitude":"-8.6","pincode":"3885-705"},
{"latitude":"-33.36667","longitude":"-56.48333"},
{"latitude":"49.81566","longitude":"15.53584","pincode":"783 22"},
{"latitude":"-6.9547","longitude":"113.7802"},
{"latitude":"52.4385","longitude":"4.8264","pincode":"1509"},
{"latitude":"47.61578","longitude":"125.03608"},
{"latitude":"50.5206","longitude":"26.24251"},
{"latitude":"-41.21667","longitude":"174.91667","pincode":"5042"},
{"latitude":"-7.1849","longitude":"111.5817"},
{"latitude":"-43.37832","longitude":"172.64013","pincode":"7644"},
{"latitude":"57.7072","longitude":"11.9668","pincode":"404 32"},
{"latitude":"29.0825","longitude":"48.13028"},
{"latitude":"3.8","longitude":"10.13333"},
{"latitude":"15.5982","longitude":"120.724","pincode":"2312"},
{"latitude":"13.9156","longitude":"120.84401","pincode":"4212"},
{"latitude":"52.1491","longitude":"34.4926","pincode":"242456"},
{"latitude":"44.17671","longitude":"129.33538"},
{"latitude":"-8.51444","longitude":"-35.37778","pincode":"55520-000"},
{"latitude":"57.4872","longitude":"12.0761","pincode":"434 43"},
{"latitude":"-3.22083","longitude":"-64.80417","pincode":"69475-000"},
{"latitude":"-3.79278","longitude":"-39.27028","pincode":"62640-000"},
{"latitude":"12.78471","longitude":"44.9802"},
{"latitude":"-7.1568","longitude":"108.0065"},
{"latitude":"14.93333","longitude":"-91.81667","pincode":"12027"},
{"latitude":"48.14973","longitude":"24.27994"},
{"latitude":"-6.8956","longitude":"112.2178"},
{"latitude":"5.37073","longitude":"-76.6044","pincode":"272027"},
{"latitude":"32.42228","longitude":"35.38476"},
{"latitude":"29.2476","longitude":"107.28443"},
{"latitude":"41.33373","longitude":"112.45453"},
{"latitude":"14.3103","longitude":"122.7229","pincode":"4606"},
{"latitude":"0.81217","longitude":"124.65546"},
{"latitude":"-9.7913","longitude":"124.5766"},
{"latitude":"15.18613","longitude":"-23.59228"},
{"latitude":"10.14722","longitude":"124.15389","pincode":"6334"},
{"latitude":"46.16639","longitude":"15.92361","pincode":"49232"},
{"latitude":"-8.0014","longitude":"111.422"},
{"latitude":"48.8637","longitude":"2.3615","pincode":"75151 CEDEX 03"},
{"latitude":"48.8817","longitude":"2.3822","pincode":"75954 CEDEX 19"},
{"latitude":"40.77838","longitude":"122.08451"},
{"latitude":"-6.9039","longitude":"111.8897"},
{"latitude":"-6.9053","longitude":"109.5347"},
{"latitude":"55.5","longitude":"25.6","pincode":"28001"},
{"latitude":"24.78544","longitude":"118.46038"},
{"latitude":"39.55944","longitude":"21.84083"},
{"latitude":"55.1904","longitude":"30.2049"},
{"latitude":"39.2167","longitude":"-8.4958","pincode":"2100-309"},
{"latitude":"48.68333","longitude":"110.18333"},
{"latitude":"57.46931","longitude":"42.28431","pincode":"164020"},
{"latitude":"-20.99075","longitude":"27.33158"},
{"latitude":"-33.66386","longitude":"-70.92734"},
{"latitude":"43.34694","longitude":"44.6975","pincode":"386338"},
{"latitude":"38.8318","longitude":"-77.2888","pincode":"20195"},
{"latitude":"57.62987","longitude":"39.87368","pincode":"353827"},
{"latitude":"44.8404","longitude":"-0.5805","pincode":"33010 CEDEX"},
{"latitude":"45.12306","longitude":"42.5125","pincode":"356254"},
{"latitude":"-13.68333","longitude":"24.8"},
{"latitude":"56.4185","longitude":"61.9329","pincode":"623462"},
{"latitude":"7.95","longitude":"4.98333"},
{"latitude":"16.76384","longitude":"104.02626","pincode":"70170"},
{"latitude":"28.86066","longitude":"114.76434"},
{"latitude":"41.2208","longitude":"-8.4042","pincode":"4620-620"},
{"latitude":"28.49891","longitude":"118.27715"},
{"latitude":"7.4863","longitude":"80.3623","pincode":"60000"},
{"latitude":"19.396","longitude":"-99.6808","pincode":"56617"},
{"latitude":"29.62046","longitude":"106.762"},
{"latitude":"15.75","longitude":"-85.96667"},
{"latitude":"-7.23116","longitude":"12.8666"},
{"latitude":"-23.34278","longitude":"-57.05972"},
{"latitude":"-8.0944","longitude":"112.6377"},
{"latitude":"28.42341","longitude":"117.60854"},
{"latitude":"9.00814","longitude":"1.6654"},
{"latitude":"23.53701","longitude":"112.52846"},
{"latitude":"33.16635","longitude":"105.31344"},
{"latitude":"-7.6917","longitude":"108.5108"},
{"latitude":"64.66667","longitude":"25.1","pincode":"92401"},
{"latitude":"46.3434","longitude":"86.23456"},
{"latitude":"-7.3946","longitude":"106.7925"},
{"latitude":"-31.08042","longitude":"29.49522","pincode":"4821"},
{"latitude":"49.24993","longitude":"-55.04816","pincode":"M2K"},
{"latitude":"36.69736","longitude":"67.69826"},
{"latitude":"-7.3031","longitude":"108.1709"},
{"latitude":"33.90019","longitude":"112.87657"},
{"latitude":"58.6706","longitude":"17.1015","pincode":"613 22"},
{"latitude":"52.0575","longitude":"4.4931","pincode":"2720"},
{"latitude":"48.17882","longitude":"25.34855"},
{"latitude":"3.11911","longitude":"35.59727"},
{"latitude":"39.8025","longitude":"-7.8775","pincode":"6160-402"},
{"latitude":"27.91667","longitude":"118.55389"},
{"latitude":"-7.4301","longitude":"108.7146"},
{"latitude":"40.37907","longitude":"120.23317"},
{"latitude":"-2.5072","longitude":"102.054"},
{"latitude":"7.75849","longitude":"-76.65254","pincode":"057858"},
{"latitude":"-34.73361","longitude":"-56.03667"},
{"latitude":"31.32769","longitude":"118.87489"},
{"latitude":"-10.70833","longitude":"-38.18333","pincode":"49490-000"},
{"latitude":"38.03491","longitude":"23.73811"},
{"latitude":"41.91667","longitude":"118.66667"},
{"latitude":"-20.31833","longitude":"-48.31056","pincode":"14790-000"},
{"latitude":"34.4943","longitude":"108.93317"},
{"latitude":"28.80711","longitude":"108.09098"},
{"latitude":"36.0649","longitude":"69.13343"},
{"latitude":"32.6076","longitude":"-93.7526","pincode":"71137"},
{"latitude":"49.54083","longitude":"6.25972","pincode":"L-5687"},
{"latitude":"-19.55","longitude":"169.26667"},
{"latitude":"43.6109","longitude":"3.8772","pincode":"34186 CEDEX 4"},
{"latitude":"31.1957","longitude":"109.5301"},
{"latitude":"7.79139","longitude":"126.45333","pincode":"9220"},
{"latitude":"48.8537","longitude":"2.549","pincode":"93335 CEDEX"},
{"latitude":"-8.16139","longitude":"-70.76556","pincode":"69970-000"},
{"latitude":"15.48184","longitude":"120.77456","pincode":"2712"},
{"latitude":"30.50802","longitude":"105.57332"},
{"latitude":"-7.6616","longitude":"108.1266"},
{"latitude":"53.26244","longitude":"17.25574","pincode":"89-310"},
{"latitude":"4.68333","longitude":"12.36667"},
{"latitude":"4.76279","longitude":"-76.221","pincode":"761508"},
{"latitude":"41.1609","longitude":"-8.3136","pincode":"4625-644"},
{"latitude":"7.4534","longitude":"-2.58404"},
{"latitude":"42.04444","longitude":"19.97056"},
{"latitude":"6.0403","longitude":"102.1465","pincode":"17020"},
{"latitude":"51.8001","longitude":"-114.63532","pincode":"L9H"},
{"latitude":"29.60195","longitude":"111.6467"},
{"latitude":"14.8","longitude":"-91.36667","pincode":"07006"},
{"latitude":"53.72226","longitude":"18.49051","pincode":"87-340"},
{"latitude":"8.8225","longitude":"125.6975","pincode":"8503"},
{"latitude":"29.81722","longitude":"120.11389"},
{"latitude":"37.2829","longitude":"-5.9209","pincode":"41703"},
{"latitude":"39.26917","longitude":"117.97556"},
{"latitude":"31.57112","longitude":"35.23227"},
{"latitude":"-6.64472","longitude":"-51.995","pincode":"68380-000"},
{"latitude":"15.11","longitude":"36.6575"},
{"latitude":"59.37722","longitude":"28.19028"},
{"latitude":"13.9903","longitude":"121.139","pincode":"5614"}]