[{"latitude":"35.10922","longitude":"69.43341"},
{"latitude":"33.73333","longitude":"135.98333","pincode":"649-5313"},
{"latitude":"2.59179","longitude":"98.02978"},
{"latitude":"49.05","longitude":"3.95","pincode":"51209 CEDEX"},
{"latitude":"-32.16351","longitude":"-63.89157","pincode":"5935"},
{"latitude":"38.7196","longitude":"-90.27","pincode":"63136"},
{"latitude":"45.53946","longitude":"20.22902"},
{"latitude":"30.72816","longitude":"94.37118"},
{"latitude":"55.7","longitude":"37.75","pincode":"352812"},
{"latitude":"28.72151","longitude":"116.86398"},
{"latitude":"-8.3539","longitude":"123.226"},
{"latitude":"-8.0657","longitude":"111.9025"},
{"latitude":"-28.08561","longitude":"27.13814","pincode":"9450"},
{"latitude":"58.7238","longitude":"11.3259","pincode":"457 23"},
{"latitude":"15.7","longitude":"-87.86667"},
{"latitude":"44.8404","longitude":"-0.5805","pincode":"33070 CEDEX"},
{"latitude":"44.578","longitude":"34.34464"},
{"latitude":"26.35045","longitude":"116.84618"},
{"latitude":"20.9625","longitude":"-75.71861"},
{"latitude":"55.60686","longitude":"37.51991","pincode":"391237"},
{"latitude":"38.04312","longitude":"23.97749"},
{"latitude":"28.90763","longitude":"121.19763"},
{"latitude":"-33.74556","longitude":"-61.96884","pincode":"2600"},
{"latitude":"-2.8451","longitude":"30.3414"},
{"latitude":"-27.31667","longitude":"-61.28333","pincode":"3732"},
{"latitude":"41.15","longitude":"-8.0333","pincode":"4640-107"},
{"latitude":"8.65972","longitude":"-75.12809","pincode":"704038"},
{"latitude":"-7.1267","longitude":"107.9903"},
{"latitude":"-4.42472","longitude":"-41.45861","pincode":"64255-000"},
{"latitude":"49.31947","longitude":"-124.31575","pincode":"V9P"},
{"latitude":"49.05717","longitude":"124.11328"},
{"latitude":"31.85247","longitude":"35.93928"},
{"latitude":"34.38678","longitude":"109.24928"},
{"latitude":"40.785","longitude":"20.70611"},
{"latitude":"48.05","longitude":"96.25"},
{"latitude":"15.08333","longitude":"-91.88333","pincode":"12009"},
{"latitude":"15.3089","longitude":"-90.23599","pincode":"16005"},
{"latitude":"53.26283","longitude":"19.82663","pincode":"13-230"},
{"latitude":"-35.15282","longitude":"-65.94602","pincode":"2529"},
{"latitude":"59.1405","longitude":"9.6561","pincode":"3912"},
{"latitude":"41.3394","longitude":"-8.6167","pincode":"4785-132"},
{"latitude":"40.2108","longitude":"0.0272","pincode":"12100"},
{"latitude":"34.69139","longitude":"108.13972"},
{"latitude":"-9.7546","longitude":"120.584"},
{"latitude":"45.91815","longitude":"85.47453"},
{"latitude":"50.24501","longitude":"20.77669","pincode":"33-260"},
{"latitude":"-7.2013","longitude":"108.3692"},
{"latitude":"26.09899","longitude":"119.22171"},
{"latitude":"30.336","longitude":"118.24425"},
{"latitude":"63.2909","longitude":"18.7153","pincode":"891 86"},
{"latitude":"26.36832","longitude":"118.37469"},
{"latitude":"-2.68333","longitude":"33"},
{"latitude":"29.24032","longitude":"119.8932"},
{"latitude":"50.633","longitude":"3.0586","pincode":"59784 CEDEX 9"},
{"latitude":"14.2277","longitude":"121.3292","pincode":"6406"},
{"latitude":"7.01944","longitude":"122.20111","pincode":"6503"},
{"latitude":"36.26468","longitude":"68.01551"},
{"latitude":"-9.6728","longitude":"120.3409"},
{"latitude":"16.63722","longitude":"120.44556","pincode":"2512"},
{"latitude":"58.3807","longitude":"12.3234","pincode":"462 22"},
{"latitude":"9.6006","longitude":"124.0142","pincode":"6202"},
{"latitude":"30.45413","longitude":"119.75454"},
{"latitude":"15.03333","longitude":"-88.96667"},
{"latitude":"24.9","longitude":"114.78333"},
{"latitude":"39.81582","longitude":"77.36649"},
{"latitude":"-8.0979","longitude":"112.7161"},
{"latitude":"43.61667","longitude":"27.11667","pincode":"9960"},
{"latitude":"40.25","longitude":"-8.6833","pincode":"3140-480"},
{"latitude":"23.0304","longitude":"115.84732"},
{"latitude":"49.52143","longitude":"22.9367"},
{"latitude":"45.68017","longitude":"129.73585"},
{"latitude":"29.65438","longitude":"111.23565"},
{"latitude":"45.20889","longitude":"14.55639","pincode":"51513"},
{"latitude":"14.51667","longitude":"-87.4"},
{"latitude":"40.27178","longitude":"140.55756","pincode":"270-0105"},
{"latitude":"57.7584","longitude":"16.6373","pincode":"593 62"},
{"latitude":"14.42642","longitude":"102.46058","pincode":"30330"},
{"latitude":"38.45373","longitude":"70.78902"},
{"latitude":"20.78733","longitude":"121.84178","pincode":"3905"},
{"latitude":"48.58876","longitude":"95.43257"},
{"latitude":"55.94958","longitude":"37.50183","pincode":"141707"},
{"latitude":"22.15","longitude":"107.23333"},
{"latitude":"-7.2681","longitude":"108.1382"},
{"latitude":"-8.169","longitude":"113.6489"},
{"latitude":"14.35659","longitude":"45.02244"},
{"latitude":"11.74697","longitude":"11.96083"},
{"latitude":"39.86722","longitude":"126.03028"},
{"latitude":"32.62639","longitude":"116.99694"},
{"latitude":"31.96236","longitude":"35.06553"},
{"latitude":"37.07484","longitude":"120.46251"},
{"latitude":"24.50178","longitude":"113.68078"},
{"latitude":"7.215","longitude":"126.53972","pincode":"1105"},
{"latitude":"7.25256","longitude":"5.19312"},
{"latitude":"24.68501","longitude":"88.15638","pincode":"2231"},
{"latitude":"22.06667","longitude":"111.5"},
{"latitude":"24.49782","longitude":"116.41615"},
{"latitude":"47.68065","longitude":"-68.8781","pincode":"T9H"},
{"latitude":"10.69306","longitude":"122.47361","pincode":"5020"},
{"latitude":"46.03034","longitude":"29.93614"},
{"latitude":"14.9","longitude":"-86.2"},
{"latitude":"20.2217","longitude":"-97.5611","pincode":"92880"},
{"latitude":"9.81417","longitude":"11.30889"},
{"latitude":"41.1185","longitude":"-8.4416","pincode":"4515-465"},
{"latitude":"-8.28333","longitude":"-35.03333","pincode":"95335-000"},
{"latitude":"-7.072","longitude":"107.9265"},
{"latitude":"24.66667","longitude":"101.63333"},
{"latitude":"47.3167","longitude":"5.0167","pincode":"21051 CEDEX"},
{"latitude":"5.4179","longitude":"100.3296","pincode":"10740"},
{"latitude":"54.65471","longitude":"32.18325","pincode":"214512"},
{"latitude":"37.44056","longitude":"129.17083"},
{"latitude":"45.93583","longitude":"16.78333","pincode":"43211"},
{"latitude":"39.83167","longitude":"127.61861"},
{"latitude":"50.27975","longitude":"31.76246"},
{"latitude":"38.80998","longitude":"22.64544"},
{"latitude":"-7.0496","longitude":"113.4945"},
{"latitude":"-6.562","longitude":"105.9917"},
{"latitude":"35.7977","longitude":"-78.6253","pincode":"27690"},
{"latitude":"36.16314","longitude":"106.41469"},
{"latitude":"10.9493","longitude":"122.5061","pincode":"5034"},
{"latitude":"15.25333","longitude":"44.02472"},
{"latitude":"37.80396","longitude":"69.64416"},
{"latitude":"23.02954","longitude":"114.94661"},
{"latitude":"36.76667","longitude":"140.35","pincode":"960-0645"},
{"latitude":"34.74767","longitude":"69.04784"},
{"latitude":"5.88969","longitude":"95.31644"},
{"latitude":"50.90265","longitude":"17.83751","pincode":"46-034"},
{"latitude":"34.79936","longitude":"135.35697","pincode":"666-0137"},
{"latitude":"22.27085","longitude":"109.97433"},
{"latitude":"27.51947","longitude":"117.33491"},
{"latitude":"31.27127","longitude":"111.9831"},
{"latitude":"30.12303","longitude":"31.13571"},
{"latitude":"39.9667","longitude":"-8.7167","pincode":"3105-222"},
{"latitude":"43.76833","longitude":"59.02139"},
{"latitude":"-8.585","longitude":"116.4539"},
{"latitude":"17.8508","longitude":"103.56939","pincode":"47140"},
{"latitude":"-8.5126","longitude":"115.2399"},
{"latitude":"-8.1245","longitude":"112.5734"},
{"latitude":"-20.86667","longitude":"27.25"},
{"latitude":"41.3083","longitude":"-8.6667","pincode":"4640-580"},
{"latitude":"42.4584","longitude":"14.2028","pincode":"65129"},
{"latitude":"28.3135","longitude":"115.08198"},
{"latitude":"-33.04752","longitude":"-71.44249"},
{"latitude":"-7.2991","longitude":"107.4955"},
{"latitude":"43.3","longitude":"-0.3667","pincode":"64058 CEDEX 9"},
{"latitude":"34.09914","longitude":"-4.55219"},
{"latitude":"55.6759","longitude":"12.5655","pincode":"1738"},
{"latitude":"37.22417","longitude":"67.27833"},
{"latitude":"6.33732","longitude":"-75.55795","pincode":"051059"},
{"latitude":"46.79489","longitude":"29.98684"},
{"latitude":"9.95091","longitude":"-84.08503","pincode":"11305"},
{"latitude":"10.83472","longitude":"124.99528","pincode":"6509"},
{"latitude":"39.36028","longitude":"112.37667"},
{"latitude":"30.02317","longitude":"118.78334"},
{"latitude":"26.4116","longitude":"-80.0928","pincode":"33487"},
{"latitude":"51.8126","longitude":"26.12902"},
{"latitude":"-9.9621","longitude":"124.5329"},
{"latitude":"49.01256","longitude":"31.10125"},
{"latitude":"21.3068","longitude":"-157.8607","pincode":"96840"},
{"latitude":"34.40961","longitude":"108.34052"},
{"latitude":"8.53153","longitude":"126.24117","pincode":"8308"},
{"latitude":"39.1425","longitude":"126.09611"},
{"latitude":"30.1764","longitude":"121.2457"},
{"latitude":"41.5292","longitude":"-8.3125","pincode":"4755-522"},
{"latitude":"-32.6978","longitude":"-62.10672","pincode":"2580"},
{"latitude":"37.83574","longitude":"65.21058"},
{"latitude":"28.18715","longitude":"109.47261"},
{"latitude":"30.91291","longitude":"115.93515"},
{"latitude":"47.75","longitude":"-3.3667","pincode":"56109 CEDEX"},
{"latitude":"56.0755","longitude":"14.4696","pincode":"295 37"},
{"latitude":"34.39627","longitude":"132.45937","pincode":"736-0089"},
{"latitude":"7.53941","longitude":"-72.77238","pincode":"544529"},
{"latitude":"41.2167","longitude":"-8.35","pincode":"4580-290"},
{"latitude":"43.15423","longitude":"19.12325"},
{"latitude":"29.10678","longitude":"119.64421"},
{"latitude":"34.00582","longitude":"71.99773","pincode":"43261"},
{"latitude":"26.12408","longitude":"113.12852"},
{"latitude":"-5.60075","longitude":"105.1387"},
{"latitude":"-8.5535","longitude":"116.4198"},
{"latitude":"46.3167","longitude":"17.8167","pincode":"7404"},
{"latitude":"-8.6034","longitude":"116.1271"},
{"latitude":"21.57323","longitude":"110.49747"},
{"latitude":"26.62741","longitude":"115.96935"},
{"latitude":"49.76389","longitude":"5.85722","pincode":"L-8531"},
{"latitude":"49.0241","longitude":"1.1508","pincode":"27036 CEDEX"},
{"latitude":"61.56667","longitude":"25.18333","pincode":"17801"},
{"latitude":"25.10147","longitude":"89.02734","pincode":"1510"},
{"latitude":"48.80381","longitude":"32.4046"},
{"latitude":"-7.1679","longitude":"107.9838"},
{"latitude":"11.5787","longitude":"122.3583","pincode":"5610"},
{"latitude":"45.4948","longitude":"41.22075","pincode":"356003"},
{"latitude":"38.7167","longitude":"-9.4333","pincode":"2755-025"},
{"latitude":"24.68785","longitude":"114.9893"},
{"latitude":"6.8964","longitude":"79.9181","pincode":"10600"},
{"latitude":"13.42309","longitude":"8.47485"},
{"latitude":"35.49333","longitude":"128.74889"},
{"latitude":"47.72559","longitude":"126.96875"},
{"latitude":"32.2519","longitude":"-110.82","pincode":"85715"},
{"latitude":"5.96222","longitude":"124.66972","pincode":"1210"},
{"latitude":"37.1101","longitude":"-8.4337","pincode":"8400-603"},
{"latitude":"57.7243","longitude":"11.7701","pincode":"423 43"},
{"latitude":"48.95006","longitude":"16.25931","pincode":"671 71"},
{"latitude":"23.20194","longitude":"114.39185"},
{"latitude":"49.12377","longitude":"17.94001","pincode":"592 31"},
{"latitude":"43.1167","longitude":"5.9333","pincode":"83092 CEDEX"},
{"latitude":"26.12859","longitude":"115.66555"},
{"latitude":"-6.8873","longitude":"112.9872"},
{"latitude":"-7.3461","longitude":"108.2814"},
{"latitude":"35.36674","longitude":"36.39359"},
{"latitude":"59.88333","longitude":"29.9","pincode":"198804"},
{"latitude":"-16.2225","longitude":"-41.47694","pincode":"39620-000"},
{"latitude":"32.36477","longitude":"119.36952"},
{"latitude":"48.5834","longitude":"7.743","pincode":"67098 CEDEX 2"},
{"latitude":"45.40008","longitude":"-71.89908","pincode":"J1K"},
{"latitude":"29.00279","longitude":"114.18672"},
{"latitude":"30.59329","longitude":"115.63"},
{"latitude":"37.16939","longitude":"10.19064"},
{"latitude":"5.06667","longitude":"-74.56667","pincode":"252257"},
{"latitude":"15.33433","longitude":"120.62619","pincode":"6711"},
{"latitude":"-7.13333","longitude":"-77.88333"},
{"latitude":"51.81376","longitude":"19.96877","pincode":"95-047"},
{"latitude":"-35.53777","longitude":"-71.487"},
{"latitude":"48.8","longitude":"2.1333","pincode":"78020 CEDEX"},
{"latitude":"29.29842","longitude":"80.58059"},
{"latitude":"59.4032","longitude":"17.9448","pincode":"164 40"},
{"latitude":"58.145","longitude":"7.9923","pincode":"4663"},
{"latitude":"39.0964","longitude":"-8.7182","pincode":"2120-185"},
{"latitude":"46.4206","longitude":"44.2591","pincode":"363704"},
{"latitude":"-8.1395","longitude":"115.1031"},
{"latitude":"37.59361","longitude":"22.04417"},
{"latitude":"59.9283","longitude":"10.8525","pincode":"0614"},
{"latitude":"1.78931","longitude":"114.9013"},
{"pincode":"9100-153"},
{"latitude":"6.0403","longitude":"102.1465","pincode":"17020"},
{"latitude":"37.91667","longitude":"21.23333"},
{"latitude":"36.77996","longitude":"110.63956"},
{"latitude":"44.95214","longitude":"18.59869"},
{"latitude":"12.5006","longitude":"124.2849","pincode":"6405"},
{"latitude":"9.94719","longitude":"106.34225"},
{"latitude":"32.64562","longitude":"-5.91783"},
{"latitude":"11.28333","longitude":"123","pincode":"5014"},
{"latitude":"-22.52667","longitude":"-43.73278","pincode":"26700-000"},
{"latitude":"52.92401","longitude":"20.96732","pincode":"36-007"},
{"latitude":"28.38833","longitude":"106.85667"},
{"latitude":"43.7251","longitude":"-80.96723","pincode":"E6J"},
{"latitude":"21.0642","longitude":"-103.0428","pincode":"47336"},
{"latitude":"22.65948","longitude":"112.36626"},
{"latitude":"35.53333","longitude":"135.18333","pincode":"626-0077"},
{"latitude":"46.01162","longitude":"127.71875"},
{"latitude":"-22.39028","longitude":"-44.96667","pincode":"37460-000"},
{"latitude":"49.79977","longitude":"22.10029","pincode":"36-231"},
{"latitude":"51.0671","longitude":"15.37228","pincode":"59-830"},
{"latitude":"62.5","longitude":"25.45","pincode":"41231"},
{"latitude":"40.3667","longitude":"-8.475","pincode":"3060-323"},
{"latitude":"36.56253","longitude":"36.73828"},
{"latitude":"51.71472","longitude":"94.45338","pincode":"667999"},
{"latitude":"49.07515","longitude":"17.43338","pincode":"788 32"},
{"latitude":"26.33808","longitude":"116.55515"},
{"latitude":"48.39037","longitude":"28.41092"},
{"latitude":"36.72444","longitude":"101.18667"},
{"latitude":"28.3","longitude":"88.53333"},
{"latitude":"52.7792","longitude":"6.9069","pincode":"7814"},
{"latitude":"28.98396","longitude":"115.63477"},
{"latitude":"38.76829","longitude":"76.31012"},
{"latitude":"9.34222","longitude":"-79.80111"},
{"latitude":"37.98642","longitude":"23.79347"},
{"latitude":"-18.71056","longitude":"-40.40056","pincode":"29830-000"},
{"latitude":"10.96667","longitude":"122.65","pincode":"5035"},
{"latitude":"13.40025","longitude":"108.43504"},
{"latitude":"7.17242","longitude":"-2.1028"},
{"latitude":"36.65762","longitude":"111.56643"},
{"latitude":"47.87809","longitude":"86.98955"},
{"latitude":"24.3276","longitude":"-99.0725","pincode":"87395"},
{"latitude":"45.6231","longitude":"-122.5767","pincode":"98664"},
{"latitude":"48.22275","longitude":"126.50704"},
{"latitude":"50.59648","longitude":"17.38243","pincode":"48-320"},
{"latitude":"14.48333","longitude":"-91.51667","pincode":"10007"},
{"latitude":"36.06868","longitude":"139.51684","pincode":"369-0137"},
{"latitude":"28.8438","longitude":"52.5707"},
{"latitude":"-7.16778","longitude":"112.71917"},
{"latitude":"37.67513","longitude":"21.44102"},
{"latitude":"12.48811","longitude":"106.01879"},
{"latitude":"5.22724","longitude":"6.19238"},
{"latitude":"-8.2236","longitude":"113.2362"},
{"latitude":"-8.5408","longitude":"115.4425"},
{"latitude":"59.3666","longitude":"16.5077","pincode":"632 32"},
{"latitude":"30.81386","longitude":"108.37326"},
{"latitude":"-7.6491","longitude":"114.0464"},
{"latitude":"14.46217","longitude":"100.54478","pincode":"13220"},
{"latitude":"25.04992","longitude":"61.7468","pincode":"28360"},
{"latitude":"41.74194","longitude":"125.38944"},
{"latitude":"49.57205","longitude":"17.17954","pincode":"783 47"},
{"latitude":"-8.1904","longitude":"124.7748"},
{"latitude":"35.13715","longitude":"25.00131"},
{"latitude":"5.75979","longitude":"-72.82583","pincode":"152047"},
{"latitude":"-16.11667","longitude":"23.26667"},
{"latitude":"40.1315","longitude":"-8.1202","pincode":"3330-304"},
{"latitude":"39.49789","longitude":"20.27608"},
{"latitude":"43.0123","longitude":"-76.1452","pincode":"13205"},
{"latitude":"-11.82167","longitude":"43.27806"},
{"latitude":"59.36","longitude":"18.0009","pincode":"170 66"},
{"latitude":"-34.76333","longitude":"-56.38528"},
{"latitude":"44.97839","longitude":"17.90779"},
{"latitude":"41.51444","longitude":"20.96333","pincode":"6262"},
{"latitude":"-19.00083","longitude":"-46.31611","pincode":"38840-000"},
{"latitude":"30.33241","longitude":"-5.8384"},
{"latitude":"49.62556","longitude":"16.75185","pincode":"569 44"},
{"latitude":"26.1486","longitude":"119.10216"},
{"latitude":"40.78373","longitude":"22.088"},
{"latitude":"33.22375","longitude":"132.56001","pincode":"798-1354"},
{"latitude":"-8.892","longitude":"116.2776"},
{"latitude":"31.37952","longitude":"34.91246"},
{"latitude":"-2.67364","longitude":"-79.6183"},
{"latitude":"45.70833","longitude":"19.66528"},
{"latitude":"45.7485","longitude":"4.8467","pincode":"69469 CEDEX 06"},
{"latitude":"34.38678","longitude":"109.24928"},
{"latitude":"38.38333","longitude":"82"},
{"latitude":"28.64295","longitude":"114.86605"},
{"latitude":"38.9167","longitude":"-9.2667","pincode":"2665-105"},
{"latitude":"41.3888","longitude":"2.159","pincode":"08075"},
{"latitude":"37.60157","longitude":"108.79702"},
{"latitude":"37.87472","longitude":"127.73417"},
{"latitude":"14.66278","longitude":"-16.3925"},
{"latitude":"50.97054","longitude":"15.38567","pincode":"59-630"},
{"latitude":"44.42446","longitude":"105.32078"},
{"latitude":"36.1136","longitude":"128.336"},
{"latitude":"29.66295","longitude":"121.40226"},
{"latitude":"-29.11761","longitude":"-59.65834","pincode":"5212"},
{"latitude":"48.8412","longitude":"2.3003","pincode":"75737 CEDEX 15"},
{"latitude":"-7.3689","longitude":"107.756"},
{"latitude":"46.14492","longitude":"30.52609"},
{"latitude":"-31.34377","longitude":"-64.33529","pincode":"4158"},
{"latitude":"53.1235","longitude":"18.00762","pincode":"85-980"},
{"latitude":"28.26689","longitude":"83.96851"},
{"latitude":"41.83333","longitude":"59.65"},
{"latitude":"30.4036","longitude":"-97.7526","pincode":"78759"},
{"latitude":"53.5904","longitude":"24.2478"},
{"latitude":"-7.61667","longitude":"110.68333"},
{"latitude":"28.22879","longitude":"116.54639"},
{"latitude":"49.63693","longitude":"17.65174","pincode":"753 62"},
{"latitude":"12.37813","longitude":"17.05876"},
{"latitude":"7.604","longitude":"126.1298","pincode":"8110"},
{"latitude":"-8.55861","longitude":"125.57361"},
{"latitude":"2.2665","longitude":"-75.80442","pincode":"414068"},
{"latitude":"11.2251","longitude":"122.8143","pincode":"5005"},
{"latitude":"-8.34722","longitude":"-77.38944"},
{"latitude":"-32.2879","longitude":"-63.35598","pincode":"5936"},
{"latitude":"-27.09625","longitude":"-54.89626","pincode":"3363"},
{"latitude":"53.12771","longitude":"-6.06347","pincode":"A63"},
{"latitude":"53.4122","longitude":"24.5387"},
{"latitude":"39.1333","longitude":"-9.1667","pincode":"2630-505"},
{"latitude":"29.29583","longitude":"48.07861"},
{"latitude":"29.29638","longitude":"109.71399"},
{"latitude":"-20.00639","longitude":"-45.97694","pincode":"38900-000"},
{"latitude":"7.24407","longitude":"-76.43564","pincode":"057428"},
{"latitude":"-1.83972","longitude":"31.65444"},
{"latitude":"15.15","longitude":"-88.68333"},
{"latitude":"19.25756","longitude":"101.71032"},
{"latitude":"38.1","longitude":"-8.7667","pincode":"7500-130"},
{"latitude":"45.65","longitude":"0.15","pincode":"16004 CEDEX"},
{"latitude":"35.94111","longitude":"139.85806","pincode":"999-3775"},
{"latitude":"59.26","longitude":"18.1167","pincode":"128 48"},
{"latitude":"-2.66667","longitude":"141.26667"},
{"latitude":"29.98352","longitude":"113.05065"},
{"latitude":"40.8702","longitude":"-73.8495","pincode":"10469"},
{"latitude":"12.58979","longitude":"6.57791"},
{"latitude":"6.87309","longitude":"38.44425"},
{"latitude":"38.0357","longitude":"-7.8036","pincode":"7875-354"},
{"latitude":"47.5","longitude":"19.0833","pincode":"1035"},
{"latitude":"52.00575","longitude":"127.67756","pincode":"676307"},
{"latitude":"24.88333","longitude":"68.81667","pincode":"72100"},
{"latitude":"25.74111","longitude":"112.32083"},
{"latitude":"29.54376","longitude":"111.24245"},
{"latitude":"34.83114","longitude":"109.14414"},
{"latitude":"15.30174","longitude":"-61.38808"},
{"latitude":"43.1122","longitude":"12.3888","pincode":"06124"},
{"latitude":"52.45861","longitude":"44.21689","pincode":"442895"},
{"latitude":"40.07583","longitude":"20.13889"},
{"latitude":"29.46301","longitude":"118.47292"},
{"latitude":"-28.29917","longitude":"-54.26306","pincode":"98800-000"},
{"latitude":"10.86225","longitude":"0.20762"},
{"latitude":"18.6556","longitude":"-96.8681","pincode":"93429"},
{"latitude":"53.62462","longitude":"55.95015","pincode":"142672"},
{"latitude":"-7.0558","longitude":"106.8946"},
{"latitude":"59.35","longitude":"17.9167","pincode":"167 31"},
{"latitude":"24.15678","longitude":"115.99191"},
{"latitude":"-7.699","longitude":"114.0296"},
{"latitude":"11.2962","longitude":"124.405","pincode":"6536"},
{"latitude":"29.12076","longitude":"115.1245"},
{"latitude":"-8.0381","longitude":"111.3975"},
{"latitude":"35.15","longitude":"139.06667","pincode":"259-0318"},
{"latitude":"26.7","longitude":"-101.3","pincode":"30560"},
{"latitude":"54.64043","longitude":"32.87811","pincode":"182296"},
{"latitude":"5.88333","longitude":"14.55"},
{"latitude":"18.7492","longitude":"-96.7989","pincode":"96684"},
{"latitude":"46.8167","longitude":"1.7","pincode":"36029 CEDEX"},
{"latitude":"43.49","longitude":"2.373","pincode":"81204 CEDEX"},
{"latitude":"8.1435","longitude":"140.394"},
{"latitude":"41.87833","longitude":"20.50472"},
{"latitude":"-33.14156","longitude":"-59.30966","pincode":"2840"},
{"latitude":"-32.17301","longitude":"-64.11406","pincode":"5850"},
{"latitude":"39.2011","longitude":"-8.9459","pincode":"2065-114"},
{"latitude":"54.30639","longitude":"-8.17611","pincode":"H16"},
{"latitude":"39.1583","longitude":"-9.2219","pincode":"2565-522"},
{"latitude":"14.95472","longitude":"120.89694","pincode":"3006"},
{"latitude":"13.71667","longitude":"123.05","pincode":"4407"},
{"latitude":"30.11165","longitude":"113.10551"},
{"latitude":"43.67556","longitude":"43.455","pincode":"361538"},
{"latitude":"35.01444","longitude":"58.78005"},
{"latitude":"43.08333","longitude":"129.76667"},
{"latitude":"17.4257","longitude":"102.56692","pincode":"14150"},
{"latitude":"50.1","longitude":"91.66667"},
{"latitude":"-11.72917","longitude":"-49.06861","pincode":"77400-000"},
{"latitude":"9.90488","longitude":"-84.10551","pincode":"11005"},
{"latitude":"-17.55","longitude":"-63.21667"},
{"latitude":"49.8464","longitude":"21.89404","pincode":"38-112"},
{"latitude":"11.8842","longitude":"-86.05508"},
{"latitude":"-7.2831","longitude":"108.1867"},
{"latitude":"23.98778","longitude":"111.97"},
{"latitude":"-6.9635","longitude":"111.4634"},
{"latitude":"-22.86333","longitude":"-51.38722","pincode":"86165-000"},
{"latitude":"11.0885","longitude":"106.26346"},
{"latitude":"51.64007","longitude":"15.06045","pincode":"00-018"},
{"latitude":"31.49737","longitude":"35.11362"},
{"latitude":"42.3","longitude":"69.6"},
{"latitude":"16.72222","longitude":"120.3525","pincode":"2515"},
{"latitude":"40.42639","longitude":"49.98361"},
{"latitude":"-6.8016","longitude":"111.8332"},
{"latitude":"27.39624","longitude":"119.91636"},
{"latitude":"10.35","longitude":"37.73333"},
{"latitude":"28.70242","longitude":"117.34417"},
{"latitude":"50.06029","longitude":"16.48207","pincode":"789 01"},
{"latitude":"43.08173","longitude":"46.8286","pincode":"368156"},
{"latitude":"-6.34379","longitude":"31.06951"},
{"latitude":"-9.6336","longitude":"119.5446"},
{"latitude":"6.49224","longitude":"-6.58558"},
{"latitude":"19.80755","longitude":"109.34539"},
{"latitude":"8.11667","longitude":"-11.5"},
{"latitude":"-10.33899","longitude":"-77.16943"},
{"latitude":"60.6167","longitude":"16.7667","pincode":"811 30"},
{"latitude":"7.7899","longitude":"5.7117"},
{"latitude":"60.41159","longitude":"44.23309","pincode":"161396"},
{"latitude":"-8.6409","longitude":"116.411"},
{"latitude":"13.40417","longitude":"-16.65583"},
{"latitude":"35.68206","longitude":"10.72746"},
{"latitude":"59.2755","longitude":"17.902","pincode":"127 43"},
{"latitude":"-8.2969","longitude":"118.9332"},
{"latitude":"32.30577","longitude":"34.90911"},
{"latitude":"40.18075","longitude":"44.27026"},
{"latitude":"0.41861","longitude":"29.89111"},
{"latitude":"9.14334","longitude":"-74.22384","pincode":"473029"},
{"latitude":"53.9096","longitude":"37.736","pincode":"102042"},
{"latitude":"-6.8451","longitude":"111.2719"},
{"latitude":"40.53697","longitude":"44.41046"},
{"latitude":"49.75639","longitude":"18.01581","pincode":"743 01"},
{"latitude":"59.8254","longitude":"10.8512","pincode":"1291"},
{"latitude":"11.51966","longitude":"4.2603"},
{"latitude":"47.75","longitude":"-3.3667","pincode":"56109 CEDEX"},
{"latitude":"34.46667","longitude":"135.36667","pincode":"571-0002"},
{"latitude":"34.88444","longitude":"135.22694","pincode":"673-1236"},
{"latitude":"12.16125","longitude":"123.40131","pincode":"8411"},
{"latitude":"26.134","longitude":"-81.7953","pincode":"34102"},
{"latitude":"7.12139","longitude":"122.17889","pincode":"3110"},
{"latitude":"8.6561","longitude":"123.4227","pincode":"3307"},
{"latitude":"40.94194","longitude":"19.705"},
{"latitude":"46.85436","longitude":"130.16071"},
{"latitude":"17.96076","longitude":"-76.51427"},
{"latitude":"-7.60722","longitude":"109.51417"},
{"latitude":"-7.0041","longitude":"108.7106"},
{"latitude":"23.9825","longitude":"-99.1881","pincode":"87078"},
{"latitude":"20.94301","longitude":"105.93119"},
{"latitude":"40.18231","longitude":"116.16134"},
{"latitude":"58.2922","longitude":"56.4156","pincode":"618703"},
{"latitude":"16.7527","longitude":"102.63244","pincode":"93180"},
{"latitude":"23.2481","longitude":"112.74336"},
{"latitude":"51.84928","longitude":"107.521","pincode":"456843"},
{"latitude":"46.663","longitude":"0.3615","pincode":"86964 CEDEX"},
{"latitude":"31.86374","longitude":"118.3764"},
{"latitude":"45.09806","longitude":"14.10694","pincode":"52220"},
{"latitude":"38.6167","longitude":"-9.1","pincode":"2840-146"},
{"latitude":"-13.73222","longitude":"-39.14917","pincode":"45435-000"},
{"latitude":"26.70452","longitude":"115.66564"},
{"latitude":"52.06431","longitude":"21.48153","pincode":"05-340"},
{"latitude":"41.11919","longitude":"70.09406"},
{"latitude":"-6.2202","longitude":"105.9392"},
{"latitude":"-15.53722","longitude":"-47.33444","pincode":"73800-000"},
{"latitude":"9.6281","longitude":"123.4785","pincode":"6024"},
{"latitude":"30.72917","longitude":"66.66083","pincode":"86201"},
{"latitude":"-7.0633","longitude":"108.7875"},
{"latitude":"46.15","longitude":"14.95","pincode":"1411"},
{"latitude":"46.87768","longitude":"126.01901"},
{"latitude":"46.21856","longitude":"-71.76201","pincode":"G6L"},
{"latitude":"27.30459","longitude":"68.39764","pincode":"66191"},
{"latitude":"-0.53112","longitude":"37.4506"},
{"latitude":"49.15","longitude":"112.73333"},
{"latitude":"32.70746","longitude":"110.33034"},
{"latitude":"48.3009","longitude":"6.1328","pincode":"88504 CEDEX"},
{"latitude":"15.83333","longitude":"120.74086","pincode":"3117"},
{"latitude":"56.64051","longitude":"43.39446","pincode":"606525"},
{"latitude":"50.72576","longitude":"24.16265"},
{"latitude":"28.31034","longitude":"121.00418"},
{"latitude":"15.60588","longitude":"-13.3223"},
{"latitude":"34.55016","longitude":"109.2968"},
{"latitude":"-3.3925","longitude":"-44.35861","pincode":"65485-000"},
{"latitude":"25.12194","longitude":"111.98194"},
{"latitude":"28.20091","longitude":"120.83185"},
{"latitude":"-22.61361","longitude":"-45.17611","pincode":"12620-000"},
{"latitude":"46.91591","longitude":"130.64547"},
{"latitude":"45.11083","longitude":"15.58944","pincode":"47240"},
{"latitude":"55.86647","longitude":"38.4438","pincode":"601231"},
{"latitude":"29.34162","longitude":"104.77689"},
{"latitude":"39.78916","longitude":"98.79039"},
{"latitude":"36.08497","longitude":"9.37082"},
{"latitude":"56.03361","longitude":"35.96944","pincode":"215107"},
{"latitude":"52.9336","longitude":"33.4464","pincode":"243418"},
{"latitude":"21.5931","longitude":"-100.7667","pincode":"78783"},
{"latitude":"23.65126","longitude":"114.34322"},
{"latitude":"12.41014","longitude":"121.08991","pincode":"1275"},
{"latitude":"39.61667","longitude":"22.13333"},
{"latitude":"8.84861","longitude":"7.87361"},
{"latitude":"7.8","longitude":"-80.75"},
{"latitude":"-7.1075","longitude":"108.4796"},
{"latitude":"21.19242","longitude":"101.14823"},
{"latitude":"-8.6366","longitude":"118.3542"},
{"latitude":"-10.12556","longitude":"-36.17556","pincode":"57230-000"},
{"latitude":"50.08799","longitude":"19.79462","pincode":"32-083"},
{"latitude":"59.84167","longitude":"30.25583","pincode":"422156"},
{"latitude":"39.79538","longitude":"114.18303"},
{"latitude":"29.83291","longitude":"106.45066"},
{"latitude":"-38.95161","longitude":"-68.0591","pincode":"8300"},
{"latitude":"25.90567","longitude":"116.0697"},
{"latitude":"13.5","longitude":"7.10174"},
{"latitude":"41.0333","longitude":"-8.2333","pincode":"4550-356"},
{"latitude":"25.4475","longitude":"118.14028"},
{"latitude":"-23.10407","longitude":"26.81421"},
{"latitude":"22.29936","longitude":"113.04848"},
{"latitude":"39.53333","longitude":"63.83333"},
{"latitude":"29.71607","longitude":"107.5976"},
{"latitude":"9.79029","longitude":"-74.78244","pincode":"475038"},
{"latitude":"10.25194","longitude":"123.94944","pincode":"6017"},
{"latitude":"-29.37639","longitude":"-51.11444","pincode":"95150-000"},
{"latitude":"2.80257","longitude":"44.07806"},
{"latitude":"51.17622","longitude":"-115.56982","pincode":"T1L"},
{"latitude":"-21.13778","longitude":"-47.99028","pincode":"14160-000"},
{"latitude":"28.99585","longitude":"121.09494"},
{"latitude":"52.32097","longitude":"21.67881","pincode":"88-210"},
{"latitude":"6.82055","longitude":"-5.27674"},
{"latitude":"35.48333","longitude":"139.45","pincode":"246-0038"},
{"latitude":"59.83889","longitude":"30.17528","pincode":"663594"},
{"latitude":"9.18052","longitude":"7.17933"},
{"latitude":"15.16222","longitude":"120.5675","pincode":"2516"},
{"latitude":"17.63528","longitude":"120.41083","pincode":"4508"},
{"latitude":"10.1624","longitude":"123.7076","pincode":"8711"},
{"latitude":"-29.40111","longitude":"-51.945","pincode":"95940-000"},
{"latitude":"33.36245","longitude":"104.6173"},
{"latitude":"14.93333","longitude":"-91.81667","pincode":"12027"},
{"latitude":"36.87395","longitude":"106.44157"},
{"latitude":"31.13488","longitude":"108.61597"},
{"latitude":"33.5668","longitude":"113.64554"},
{"latitude":"-8.802","longitude":"121.3118"},
{"latitude":"8.80111","longitude":"117.85944","pincode":"9217"},
{"latitude":"4.23333","longitude":"13.45"},
{"latitude":"-27.17806","longitude":"-51.50472","pincode":"89600-000"},
{"latitude":"22.62486","longitude":"104.95988"},
{"latitude":"49.93609","longitude":"17.9738","pincode":"747 31"},
{"latitude":"-6.593","longitude":"111.0652"},
{"latitude":"46.7833","longitude":"4.85","pincode":"71332 CEDEX"},
{"latitude":"49.47281","longitude":"20.13021","pincode":"34-432"},
{"latitude":"-27.00805","longitude":"27.3646","pincode":"9595"},
{"latitude":"50.0202","longitude":"22.89997","pincode":"37-543"},
{"latitude":"-8.6376","longitude":"121.4704"},
{"latitude":"50.3691","longitude":"119.1012","pincode":"674310"},
{"latitude":"57.9667","longitude":"12.1167","pincode":"446 38"},
{"latitude":"14.16667","longitude":"-16.83333"},
{"latitude":"57.58475","longitude":"48.95844","pincode":"613366"},
{"latitude":"13.9957","longitude":"-61.00614"},
{"latitude":"-6.3019","longitude":"106.0048"},
{"latitude":"59.3326","longitude":"18.0649","pincode":"121 29"},
{"latitude":"49.33697","longitude":"18.19793","pincode":"756 04"},
{"latitude":"35.3425","longitude":"-97.6317","pincode":"73173"},
{"latitude":"59.64806","longitude":"67.41","pincode":"628210"},
{"latitude":"-6.38","longitude":"-35.12889","pincode":"59190-000"},
{"latitude":"-27.0177","longitude":"30.44979","pincode":"4142"},
{"latitude":"45.56995","longitude":"-73.692","pincode":"H7S"},
{"latitude":"5.9765","longitude":"116.1158","pincode":"88540"},
{"latitude":"48.3719","longitude":"14.3476","pincode":"4210"},
{"latitude":"37.91033","longitude":"23.72361"},
{"latitude":"51.6004","longitude":"-0.194","pincode":"N3"},
{"latitude":"18.3322","longitude":"-100.6892","pincode":"40678"},
{"latitude":"42.92389","longitude":"21.7375"},
{"latitude":"-8.2693","longitude":"112.5218"},
{"latitude":"8.21043","longitude":"-72.46399","pincode":"546058"},
{"latitude":"40.83674","longitude":"44.42494"},
{"latitude":"30.56549","longitude":"114.22026"},
{"latitude":"35.02107","longitude":"135.75385","pincode":"612-8447"},
{"latitude":"17.96129","longitude":"104.04667","pincode":"39180"},
{"latitude":"13.3967","longitude":"123.4731","pincode":"4516"},
{"latitude":"50.98405","longitude":"39.51545","pincode":"397920"},
{"latitude":"38.07514","longitude":"112.65946"},
{"latitude":"-33.67571","longitude":"-65.45783","pincode":"5461"},
{"latitude":"29.99785","longitude":"115.6121"},
{"latitude":"31.97718","longitude":"73.60259","pincode":"52150"},
{"latitude":"-30.42036","longitude":"-64.34984","pincode":"4417"},
{"latitude":"48.05","longitude":"114.36667"},
{"latitude":"29.65954","longitude":"110.16876"},
{"latitude":"54.84444","longitude":"38.16694","pincode":"142933"},
{"latitude":"30.31606","longitude":"118.41349"},
{"latitude":"41.8947","longitude":"12.4839","pincode":"00185"},
{"latitude":"-7.5086","longitude":"107.8675"},
{"latitude":"-34.05064","longitude":"24.9195","pincode":"6332"},
{"latitude":"52.58444","longitude":"32.76333","pincode":"243240"},
{"latitude":"-7.0262","longitude":"106.9887"},
{"latitude":"49.77644","longitude":"22.65252","pincode":"37-741"},
{"latitude":"19.3656","longitude":"-103.7236","pincode":"32350"},
{"latitude":"35.66389","longitude":"138.56833","pincode":"409-3841"},
{"latitude":"45.10548","longitude":"16.67668"},
{"latitude":"23.12622","longitude":"104.7409"},
{"latitude":"59.9575","longitude":"10.7831","pincode":"0492"},
{"latitude":"16.52834","longitude":"97.6157"},
{"latitude":"-3.01728","longitude":"16.92238"},
{"latitude":"-8.4173","longitude":"118.6173"},
{"latitude":"-26.89778","longitude":"-49.23167","pincode":"89130-000"},
{"latitude":"44.43364","longitude":"34.10297"},
{"latitude":"28.80711","longitude":"108.09098"},
{"latitude":"9.80278","longitude":"118.69861","pincode":"5301"},
{"latitude":"18.18095","longitude":"-74.00104"},
{"latitude":"17.4379","longitude":"120.6262","pincode":"2811"},
{"latitude":"33.18559","longitude":"104.8839"},
{"latitude":"48.7833","longitude":"2.4667","pincode":"94972 CEDEX 9"},
{"latitude":"46.70667","longitude":"16.15639","pincode":"9201"},
{"latitude":"29.29306","longitude":"110.50946"},
{"latitude":"52.73754","longitude":"20.7118","pincode":"06-440"},
{"latitude":"38.13775","longitude":"114.37667"},
{"latitude":"13.99444","longitude":"121.27778","pincode":"2424"},
{"latitude":"43.89139","longitude":"20.34972"},
{"latitude":"41.6","longitude":"-8.05","pincode":"4705-653"},
{"latitude":"36.3012","longitude":"127.568"},
{"latitude":"21.19449","longitude":"-76.60355"},
{"latitude":"43.97713","longitude":"21.26121"},
{"latitude":"46.85","longitude":"9.5","pincode":"7006"},
{"latitude":"-16.82333","longitude":"-49.24389","pincode":"74900-000"},
{"latitude":"30.85021","longitude":"120.91138"},
{"latitude":"51.342","longitude":"12.375","pincode":"04109"},
{"latitude":"-8.23333","longitude":"-35.79694","pincode":"55660-000"},
{"latitude":"6.50306","longitude":"124.84694","pincode":"6122"},
{"latitude":"13.46667","longitude":"-87.66667"},
{"latitude":"56.12128","longitude":"101.17767","pincode":"665770"},
{"latitude":"31.7975","longitude":"118.53726"},
{"latitude":"32.34289","longitude":"36.20804"},
{"latitude":"28.29778","longitude":"107.75"},
{"latitude":"25.65376","longitude":"116.91517"},
{"latitude":"44.51031","longitude":"18.02624"},
{"latitude":"25.65518","longitude":"116.19871"},
{"latitude":"6.0212","longitude":"80.2503","pincode":"80600"},
{"latitude":"42.11589","longitude":"48.19204","pincode":"368670"},
{"latitude":"59.3951","longitude":"5.334","pincode":"5505"},
{"latitude":"32.36977","longitude":"119.70607"},
{"latitude":"28.38915","longitude":"117.63107"},
{"latitude":"-33.84808","longitude":"18.71724","pincode":"7571"},
{"latitude":"45.21244","longitude":"130.92488"},
{"latitude":"24.26592","longitude":"116.44216"},
{"latitude":"38.7072","longitude":"-90.3055","pincode":"63121"},
{"latitude":"9.1025","longitude":"123.1996","pincode":"1812"},
{"latitude":"60.1353","longitude":"13.0082","pincode":"685 24"},
{"latitude":"-8.7827","longitude":"122.0353"},
{"latitude":"-6.9661","longitude":"111.3769"},
{"latitude":"34.63333","longitude":"134.98333","pincode":"950-0084"},
{"latitude":"50.63965","longitude":"26.36573"},
{"latitude":"31.26562","longitude":"56.80545"},
{"latitude":"41.4","longitude":"-8.6667","pincode":"4480-014"},
{"latitude":"39.64692","longitude":"141.94057","pincode":"969-6522"},
{"latitude":"29.68527","longitude":"89.09556"},
{"latitude":"-8.4191","longitude":"121.0259"},
{"latitude":"31.33728","longitude":"118.37351"},
{"latitude":"29.54051","longitude":"71.63357","pincode":"59320"},
{"latitude":"-7.2955","longitude":"107.8313"},
{"latitude":"50.19377","longitude":"18.75435","pincode":"43-178"},
{"latitude":"32.27146","longitude":"100.33316"},
{"latitude":"31.79735","longitude":"119.87857"},
{"latitude":"45.5653","longitude":"-122.6448","pincode":"97211"},
{"latitude":"44.40011","longitude":"-79.66634","pincode":"L9J"},
{"latitude":"-6.3164","longitude":"155.48483"},
{"latitude":"45.26853","longitude":"38.15376","pincode":"353810"},
{"latitude":"-6.9813","longitude":"112.2969"},
{"latitude":"35.07437","longitude":"36.08677"},
{"latitude":"40.62889","longitude":"20.05389"},
{"latitude":"5.88083","longitude":"-10.04667"},
{"latitude":"31.23896","longitude":"121.32484"},
{"latitude":"46.61667","longitude":"109.41667"},
{"latitude":"36.73605","longitude":"69.53451"},
{"latitude":"40.53259","longitude":"44.72025"},
{"latitude":"37.92686","longitude":"102.6343"},
{"latitude":"-10.1729","longitude":"123.598"},
{"latitude":"43.45861","longitude":"21.0525"},
{"latitude":"41.5833","longitude":"-8.2667","pincode":"4810-845"},
{"latitude":"31.91112","longitude":"35.26661"},
{"latitude":"33.47366","longitude":"112.54619"},
{"latitude":"40.1214","longitude":"-8.7437","pincode":"3090-748"},
{"latitude":"43.524","longitude":"-96.7341","pincode":"57105"},
{"latitude":"51.78804","longitude":"123.59227"},
{"latitude":"13.33018","longitude":"121.27432","pincode":"5501"},
{"latitude":"39.62","longitude":"-8.8492","pincode":"2510-037"},
{"latitude":"-8.5352","longitude":"119.0061"},
{"latitude":"35.14","longitude":"139.61917","pincode":"894-2414"},
{"latitude":"52.44461","longitude":"15.57801","pincode":"66-302"},
{"latitude":"-17.30192","longitude":"31.33056"},
{"latitude":"10.38522","longitude":"11.69678"},
{"latitude":"-3.29833","longitude":"128.96882"},
{"latitude":"48.75","longitude":"2.3","pincode":"92762 CEDEX"},
{"latitude":"40.9167","longitude":"-8.5","pincode":"3700-599"},
{"latitude":"36.905","longitude":"66.18341"},
{"latitude":"42.7028","longitude":"9.45","pincode":"20403 CEDEX"},
{"latitude":"42.36194","longitude":"19.44417"},
{"latitude":"49.72068","longitude":"17.07773","pincode":"784 01"},
{"latitude":"43.7031","longitude":"7.2661","pincode":"06009 CEDEX 1"},
{"latitude":"40.8469","longitude":"-73.7874","pincode":"10464"},
{"latitude":"45.4333","longitude":"4.4","pincode":"42014 CEDEX 2"},
{"latitude":"9.24194","longitude":"-74.42667","pincode":"473008"},
{"latitude":"41.5833","longitude":"-8.2667","pincode":"4810-050"},
{"latitude":"32.50259","longitude":"35.16668"},
{"latitude":"50.2441","longitude":"21.7761","pincode":"36-100"},
{"latitude":"26.67319","longitude":"31.4976"},
{"latitude":"-7.1053","longitude":"108.3946"},
{"latitude":"43.24206","longitude":"46.00013","pincode":"368033"},
{"latitude":"53.4122","longitude":"24.5387"},
{"latitude":"7.58333","longitude":"0.6"},
{"latitude":"-8.0776","longitude":"112.3311"},
{"latitude":"53.76667","longitude":"-8.76667","pincode":"F35"},
{"latitude":"36.7499","longitude":"45.7229"},
{"latitude":"27.45","longitude":"104.83333"},
{"latitude":"30.857","longitude":"108.00592"},
{"latitude":"33.93187","longitude":"112.35642"},
{"latitude":"42.40194","longitude":"21.43361"},
{"latitude":"8.4475","longitude":"125.84028","pincode":"1709"},
{"latitude":"12.66664","longitude":"-0.57468"},
{"latitude":"-25.40872","longitude":"-70.48358"},
{"latitude":"37.45646","longitude":"126.70515"},
{"latitude":"5.41613","longitude":"-4.0159"},
{"latitude":"48.43294","longitude":"-123.3693","pincode":"V9A"},
{"latitude":"16.55888","longitude":"121.15124","pincode":"3605"},
{"latitude":"42.0778","longitude":"-8.3722","pincode":"4950-703"},
{"latitude":"-7.0676","longitude":"113.9589"},
{"latitude":"9.6531","longitude":"123.4344","pincode":"8504"},
{"latitude":"37.54722","longitude":"112.16053"},
{"latitude":"-1.83862","longitude":"109.97728"},
{"latitude":"51.32359","longitude":"21.8894","pincode":"24-123"},
{"latitude":"40.9721","longitude":"21.94664"},
{"latitude":"-8.5736","longitude":"118.908"},
{"latitude":"11.07377","longitude":"-85.63272","pincode":"51001"},
{"latitude":"36.20389","longitude":"127.08472"},
{"latitude":"-11.87361","longitude":"43.39778"},
{"latitude":"41.9333","longitude":"-8.5583","pincode":"4940-352"},
{"latitude":"-7.6203","longitude":"108.5205"},
{"latitude":"-9.555","longitude":"124.3307"},
{"latitude":"-10.1561","longitude":"123.6021"},
{"latitude":"40.50003","longitude":"22.87351"},
{"latitude":"47.3985","longitude":"8.5243","pincode":"8037"},
{"latitude":"11.1373","longitude":"123.7228","pincode":"1096"},
{"latitude":"50.88551","longitude":"21.85678","pincode":"23-235"},
{"latitude":"34.96667","longitude":"136.16667","pincode":"949-1738"},
{"latitude":"36.10111","longitude":"110.67333"},
{"latitude":"-6.48167","longitude":"106.85417"},
{"latitude":"35.42291","longitude":"136.76039","pincode":"504-0968"},
{"latitude":"5.78556","longitude":"-6.60833"},
{"latitude":"31.95126","longitude":"35.81979"},
{"latitude":"56.2773","longitude":"14.534","pincode":"293 35"},
{"latitude":"51.84928","longitude":"107.521","pincode":"456843"},
{"latitude":"48.8655","longitude":"2.3426","pincode":"75096 CEDEX 02"},
{"latitude":"30.58333","longitude":"114.03333"},
{"latitude":"22.83957","longitude":"91.84128","pincode":"7460"},
{"latitude":"-7.2002","longitude":"108.1288"},
{"latitude":"43.1195","longitude":"6.139","pincode":"83404 CEDEX"},
{"latitude":"-20.99075","longitude":"27.33158"},
{"latitude":"-22.7775","longitude":"-47.29583","pincode":"13460-000"},
{"latitude":"58.6667","longitude":"16.1833","pincode":"616 32"},
{"latitude":"53.5871","longitude":"27.0535"},
{"latitude":"-28.73122","longitude":"29.35187","pincode":"3354"},
{"latitude":"6.4455","longitude":"100.2002","pincode":"01673"},
{"latitude":"-6.3924","longitude":"106.0041"},
{"latitude":"50.57032","longitude":"17.14979","pincode":"48-388"},
{"latitude":"59.36","longitude":"18.0009","pincode":"171 49"},
{"latitude":"-31.63333","longitude":"-60.7","pincode":"3001"},
{"latitude":"44.41222","longitude":"40.79361","pincode":"352574"},
{"latitude":"49.621","longitude":"20.07794","pincode":"34-735"},
{"latitude":"35.32297","longitude":"25.39275"},
{"latitude":"42.3349","longitude":"-83.1801","pincode":"48126"},
{"latitude":"14.2277","longitude":"121.3292","pincode":"6406"},
{"latitude":"53.36831","longitude":"34.10328","pincode":"241551"},
{"latitude":"28.24161","longitude":"108.67492"},
{"latitude":"39.90583","longitude":"117.24611"},
{"latitude":"-9.58333","longitude":"33.85"},
{"latitude":"41.25","longitude":"-8.3556","pincode":"4580-389"},
{"latitude":"52.4345","longitude":"30.9754"},
{"latitude":"34.56284","longitude":"-5.36208"},
{"latitude":"56.2325","longitude":"96.0652","pincode":"663800"},
{"latitude":"46.11594","longitude":"-64.80186","pincode":"E1C"},
{"latitude":"26.09318","longitude":"119.29628"},
{"latitude":"52.44772","longitude":"61.74942"},
{"latitude":"10.71565","longitude":"122.2657","pincode":"5029"},
{"latitude":"34.19933","longitude":"134.60932","pincode":"779-0311"},
{"latitude":"13.805","longitude":"100.47283","pincode":"11130"},
{"latitude":"-28.29389","longitude":"-49.93167","pincode":"88600-000"},
{"latitude":"29.13696","longitude":"105.86988"},
{"latitude":"38.43624","longitude":"57.43158"},
{"latitude":"41.8119","longitude":"-87.6873","pincode":"60663"},
{"latitude":"-8.0028","longitude":"113.8914"},
{"latitude":"44.41222","longitude":"40.79361","pincode":"352574"},
{"latitude":"-6.56666","longitude":"105.84812"},
{"latitude":"29.67594","longitude":"118.29169"},
{"latitude":"8.21667","longitude":"5.51667"},
{"latitude":"28.55278","longitude":"110.05139"},
{"latitude":"48.64331","longitude":"25.73794"},
{"latitude":"53.9096","longitude":"37.736","pincode":"102042"},
{"latitude":"-33.51889","longitude":"-53.36806","pincode":"96230-000"},
{"latitude":"28.30058","longitude":"81.3536"},
{"pincode":"9700-555"},
{"latitude":"59.3333","longitude":"18.05","pincode":"121 48"},
{"latitude":"61.11304","longitude":"44.83017","pincode":"165262"},
{"latitude":"40.8702","longitude":"-73.8495","pincode":"10469"},
{"latitude":"-23.79722","longitude":"-52.26917","pincode":"87270-000"},
{"latitude":"13.86667","longitude":"-86.63333"},
{"latitude":"13.7036","longitude":"123.5531","pincode":"6222"},
{"latitude":"14.75186","longitude":"100.32481","pincode":"14150"},
{"latitude":"24.80817","longitude":"68.60448","pincode":"50251"},
{"latitude":"-6.1149","longitude":"106.1502"},
{"latitude":"-12.16672","longitude":"44.39944"},
{"latitude":"-21.525","longitude":"-42.46917","pincode":"36740-000"},
{"latitude":"56.60639","longitude":"24.52222"},
{"latitude":"51.02466","longitude":"21.22147","pincode":"68-343"},
{"latitude":"51.36883","longitude":"19.35671","pincode":"97-413"},
{"latitude":"24.26431","longitude":"115.49068"},
{"latitude":"-26.81358","longitude":"27.81695","pincode":"9580"},
{"latitude":"52.378","longitude":"1.5774","pincode":"NR34"},
{"latitude":"11.58901","longitude":"43.14503"},
{"latitude":"-8.5352","longitude":"119.0061"},
{"latitude":"14.95472","longitude":"120.89694","pincode":"3006"},
{"latitude":"2.45199","longitude":"-76.81029","pincode":"522068"},
{"latitude":"-22.55417","longitude":"-45.78","pincode":"37660-000"},
{"latitude":"23.0072","longitude":"-82.4017"},
{"latitude":"40.41278","longitude":"21.06222"},
{"latitude":"36.3012","longitude":"127.568"},
{"latitude":"30.88366","longitude":"-9.04548"},
{"latitude":"37.91458","longitude":"69.78454"},
{"latitude":"38.9381","longitude":"-77.086","pincode":"20016"},
{"latitude":"16.04252","longitude":"105.21836","pincode":"34170"},
{"latitude":"15.73773","longitude":"43.55701"},
{"latitude":"51.95349","longitude":"76.02723"},
{"latitude":"46.81228","longitude":"-71.21454","pincode":"G6W"},
{"latitude":"22.87932","longitude":"116.07318"},
{"latitude":"28.35209","longitude":"116.01197"},
{"latitude":"-29.22694","longitude":"-53.68167","pincode":"98130-000"},
{"latitude":"48.7294","longitude":"14.62737","pincode":"382 82"},
{"latitude":"27.5232","longitude":"109.206"},
{"latitude":"31.08914","longitude":"109.03957"},
{"latitude":"20.34659","longitude":"-74.49675"},
{"latitude":"52.97712","longitude":"19.38486","pincode":"88-420"},
{"latitude":"40.3736","longitude":"-7.9063","pincode":"3405-260"},
{"latitude":"49.88005","longitude":"36.73723"},
{"latitude":"41.5083","longitude":"-8.2083","pincode":"4820-560"},
{"latitude":"30.75545","longitude":"20.22626"},
{"latitude":"22.36865","longitude":"111.40973"},
{"latitude":"35.31025","longitude":"36.11523"},
{"latitude":"31.5587","longitude":"35.1244"},
{"latitude":"35.95806","longitude":"67.27998"},
{"latitude":"25.93702","longitude":"116.54305"},
{"latitude":"39.26048","longitude":"117.09729"},
{"latitude":"4.86242","longitude":"-74.90977","pincode":"731027"},
{"latitude":"15.5952","longitude":"120.7911","pincode":"4332"},
{"latitude":"35.50056","longitude":"117.63083"},
{"latitude":"39.76389","longitude":"66.9125"},
{"latitude":"17.8229","longitude":"-97.7399","pincode":"71836"},
{"latitude":"-8.356","longitude":"116.1565"},
{"latitude":"28.74677","longitude":"118.26191"},
{"latitude":"7.65802","longitude":"7.8837"},
{"latitude":"15.45099","longitude":"36.39998"},
{"latitude":"-6.9191","longitude":"111.5591"},
{"latitude":"26.16753","longitude":"115.84175"},
{"latitude":"-8.1539","longitude":"113.1148"},
{"latitude":"49.60196","longitude":"13.8643","pincode":"262 42"},
{"latitude":"30.1219","longitude":"120.9011"},
{"latitude":"35.9","longitude":"140.08333","pincode":"302-0004"},
{"latitude":"-20.94639","longitude":"-44.91889","pincode":"37262-000"},
{"latitude":"25.66667","longitude":"104.23333"},
{"latitude":"33.23531","longitude":"110.98911"},
{"latitude":"32.06169","longitude":"120.38363"},
{"latitude":"27.82817","longitude":"52.32536"},
{"latitude":"30.13471","longitude":"108.18394"},
{"latitude":"12.50744","longitude":"121.09041","pincode":"7033"},
{"latitude":"35.2017","longitude":"-89.9715","pincode":"38188"},
{"latitude":"54.03481","longitude":"38.40172","pincode":"301792"},
{"latitude":"35.78389","longitude":"139.24306","pincode":"357-0056"},
{"latitude":"-7.57411","longitude":"108.76606"},
{"latitude":"31.15889","longitude":"35.69278"},
{"latitude":"-7.2148","longitude":"108.3551"},
{"latitude":"45.21077","longitude":"39.68914","pincode":"385321"},
{"latitude":"40.278","longitude":"-8.3553","pincode":"3025-592"},
{"latitude":"29.96926","longitude":"112.60016"},
{"latitude":"13.09778","longitude":"7.2225"},
{"latitude":"61.1872","longitude":"-149.8804","pincode":"99599"},
{"latitude":"-6.7366","longitude":"111.6698"},
{"latitude":"45.7485","longitude":"4.8467","pincode":"69239 CEDEX 02"},
{"latitude":"12.98056","longitude":"123.78917","pincode":"6014"},
{"latitude":"-6.7113","longitude":"111.2111"},
{"latitude":"64.5635","longitude":"39.8302","pincode":"164509"},
{"latitude":"22.96382","longitude":"112.11067"},
{"latitude":"29.27908","longitude":"107.95215"},
{"latitude":"35.94458","longitude":"68.71512"},
{"latitude":"-28.76659","longitude":"28.24936"},
{"latitude":"39.83104","longitude":"116.63967"},
{"latitude":"22.78743","longitude":"113.88246"},
{"latitude":"45.6285","longitude":"-1.0281","pincode":"17209 CEDEX"},
{"latitude":"-20.53034","longitude":"47.24344"},
{"latitude":"45.3446","longitude":"20.71418"},
{"latitude":"14.2325","longitude":"121.3648","pincode":"4010"},
{"latitude":"14.9","longitude":"-86.2"},
{"latitude":"-8.3395","longitude":"120.7594"},
{"latitude":"39.085","longitude":"-94.6356","pincode":"66105"},
{"latitude":"29.47361","longitude":"121.94722"},
{"latitude":"-38.71122","longitude":"-73.16101"},
{"latitude":"30.85028","longitude":"122.69139"},
{"latitude":"40.45076","longitude":"50.08686"},
{"latitude":"50.04075","longitude":"15.77659","pincode":"530 12"},
{"latitude":"27.70292","longitude":"113.15202"},
{"latitude":"49.44998","longitude":"-112.65185","pincode":"G6K"},
{"latitude":"-3.63011","longitude":"128.25237"},
{"latitude":"49.59317","longitude":"17.12607","pincode":"783 46"},
{"latitude":"37.8008","longitude":"48.9037"},
{"latitude":"59.75","longitude":"18.3667","pincode":"762 91"},
{"latitude":"41.55","longitude":"-8.4889","pincode":"4750-549"},
{"latitude":"14.5234","longitude":"121.2651","pincode":"4803"},
{"latitude":"9.637","longitude":"122.4721","pincode":"6114"},
{"latitude":"-30.57781","longitude":"-59.9317","pincode":"5875"},
{"latitude":"44.4938","longitude":"11.3387","pincode":"40128"},
{"latitude":"21.40726","longitude":"110.68453"},
{"latitude":"47.5","longitude":"19.0833","pincode":"1122"},
{"latitude":"49.90249","longitude":"18.82756","pincode":"43-520"},
{"latitude":"4.39318","longitude":"-75.68935","pincode":"632027"},
{"latitude":"39.15752","longitude":"117.18806"},
{"latitude":"-8.3125","longitude":"114.0483"},
{"latitude":"-3.2682","longitude":"29.6079"},
{"latitude":"9.9718","longitude":"122.6249","pincode":"5409"},
{"latitude":"30.98516","longitude":"121.11446"},
{"latitude":"19.0992","longitude":"-99.6565","pincode":"52332"},
{"latitude":"55.73333","longitude":"37.66667","pincode":"662668"},
{"latitude":"31.79065","longitude":"111.55357"},
{"latitude":"20.5019","longitude":"-101.0013","pincode":"38542"},
{"latitude":"-8.0189","longitude":"112.819"},
{"latitude":"55.68784","longitude":"37.36836","pincode":"249028"},
{"latitude":"29.33389","longitude":"48.07611"},
{"latitude":"34.93833","longitude":"108.93167"},
{"latitude":"41.55","longitude":"-8.2667","pincode":"4830-813"},
{"latitude":"52.2183","longitude":"6.8958","pincode":"7534"},
{"latitude":"-10.03473","longitude":"124.52209"},
{"latitude":"58.57141","longitude":"125.43918","pincode":"678944"},
{"latitude":"-21.61667","longitude":"166.21667","pincode":"98829"},
{"latitude":"49.91447","longitude":"24.6134"},
{"latitude":"-7.2008","longitude":"111.3926"},
{"latitude":"-1.76556","longitude":"-55.86611","pincode":"68270-000"},
{"latitude":"31.48542","longitude":"120.49199"},
{"latitude":"-7.5412","longitude":"108.0455"},
{"latitude":"23.26966","longitude":"116.708"},
{"latitude":"-8.293","longitude":"123.1963"},
{"latitude":"3.1071","longitude":"101.6083","pincode":"47307"},
{"latitude":"29.86167","longitude":"113.79274"},
{"latitude":"-8.2142","longitude":"113.772"},
{"latitude":"21.80379","longitude":"111.70529"},
{"latitude":"9.43","longitude":"-82.52"},
{"latitude":"35.23333","longitude":"23.68333"},
{"latitude":"43.6625","longitude":"43.53694","pincode":"361538"},
{"latitude":"29.4348","longitude":"115.23318"},
{"latitude":"9.92787","longitude":"-84.13722","pincode":"11504"},
{"latitude":"22.56552","longitude":"110.96609"},
{"latitude":"48.11814","longitude":"23.76588"},
{"latitude":"39.77556","longitude":"47.61861"},
{"latitude":"48.9836","longitude":"2.5256","pincode":"95974 CEDEX 2"},
{"latitude":"49.73333","longitude":"24.25"},
{"latitude":"31.98325","longitude":"112.77102"},
{"latitude":"18.21895","longitude":"-78.1332"},
{"latitude":"55.3751","longitude":"13.1569","pincode":"231 43"},
{"latitude":"39.13453","longitude":"117.12547"},
{"latitude":"45.21194","longitude":"73.97861"},
{"latitude":"47.2173","longitude":"-1.5534","pincode":"44911 CEDEX 9"},
{"latitude":"-6.9028","longitude":"112.9709"},
{"latitude":"39.14422","longitude":"117.14154"},
{"latitude":"-8.4932","longitude":"118.3176"},
{"latitude":"-6.8042","longitude":"111.2685"},
{"latitude":"30.14978","longitude":"115.22074"},
{"latitude":"9.03333","longitude":"-79.5"},
{"latitude":"-5.06446","longitude":"105.54869"},
{"latitude":"-5.55","longitude":"12.2"},
{"latitude":"34.93212","longitude":"9.19321"},
{"latitude":"35.47165","longitude":"23.59784"},
{"latitude":"10.2885","longitude":"123.0922","pincode":"6132"},
{"latitude":"37.44529","longitude":"25.32872"},
{"latitude":"-8.2201","longitude":"114.9407"},
{"latitude":"38.8933","longitude":"-77.0146","pincode":"20088"},
{"latitude":"11.10298","longitude":"5.25068"},
{"latitude":"43.6043","longitude":"1.4437","pincode":"31044 CEDEX 9"},
{"latitude":"49.2513","longitude":"6.1681","pincode":"57304 CEDEX"},
{"latitude":"34.83898","longitude":"-2.86699"},
{"latitude":"53.50015","longitude":"-112.05182","pincode":"T9C"}]